{
"type": "FeatureCollection",
"name": "geo_42_短期入所療養介護(療養病床を有する病院等）",
"crs": { "type": "name", "properties": { "name": "urn:ogc:def:crs:OGC:1.3:CRS84" } },
"features": [
{ "type": "Feature", "properties": { "内容": "長崎記念病院短期入所療養介護【短期入所療養介護(療養病床を有する病院等）】長崎県長崎市深堀町1-11-54", "url": "https://www.kaigokensaku.mhlw.go.jp/42/index.php?action_kouhyou_detail_004_kani=true&JigyosyoCd=4210118214-00&ServiceCd=&Type=search", "url2": "http://www.nmhp.or.jp" }, "geometry": { "type": "Point", "coordinates": [ 129.8334504, 32.6854444 ] } },
{ "type": "Feature", "properties": { "内容": "医療法人泉田外科【短期入所療養介護(療養病床を有する病院等）】宿町36番地", "url": "https://www.kaigokensaku.mhlw.go.jp/42/index.php?action_kouhyou_detail_004_kani=true&JigyosyoCd=4270111893-00&ServiceCd=&Type=search", "url2": null }, "geometry": { "type": "Point", "coordinates": [ 129.941773399999988, 32.7584696 ] } },
{ "type": "Feature", "properties": { "内容": "医療法人宏友会さとう内科医院【短期入所療養介護(療養病床を有する病院等）】長崎県長崎市富士見町3番25号", "url": "https://www.kaigokensaku.mhlw.go.jp/42/index.php?action_kouhyou_detail_004_kani=true&JigyosyoCd=4270112107-00&ServiceCd=&Type=search", "url2": "http://www.kouyukai.com" }, "geometry": { "type": "Point", "coordinates": [ 129.8562441, 32.7714971 ] } },
{ "type": "Feature", "properties": { "内容": "医療法人　慈眼会　坂本医院内科・婦人科【短期入所療養介護(療養病床を有する病院等）】長崎県島原市親和町丁2670-10", "url": "https://www.kaigokensaku.mhlw.go.jp/42/index.php?action_kouhyou_detail_004_kani=true&JigyosyoCd=4270301361-00&ServiceCd=&Type=search", "url2": "jigenkai@himawarinet.ne.jp" }, "geometry": { "type": "Point", "coordinates": [ 130.3660878, 32.760655400000033 ] } },
{ "type": "Feature", "properties": { "内容": "医療法人すばる診療所【短期入所療養介護(療養病床を有する病院等）】長崎県諫早市多良見町元釜５番地１５", "url": "https://www.kaigokensaku.mhlw.go.jp/42/index.php?action_kouhyou_detail_004_kani=true&JigyosyoCd=4270402433-00&ServiceCd=&Type=search", "url2": "http://aiplease.com/subaru/" }, "geometry": { "type": "Point", "coordinates": [ 129.932055600000012, 32.8574643 ] } },
{ "type": "Feature", "properties": { "内容": "近藤医院　短期入所療養介護事業所【短期入所療養介護(療養病床を有する病院等）】長崎県西彼杵郡時津町日並郷1325-8医療法人　近藤医院", "url": "https://www.kaigokensaku.mhlw.go.jp/42/index.php?action_kouhyou_detail_004_kani=true&JigyosyoCd=4271103006-00&ServiceCd=&Type=search", "url2": "http://kondo-clinic.org/" }, "geometry": { "type": "Point", "coordinates": [ 129.8264991, 32.8484022 ] } }
]
}
