{
"type": "FeatureCollection",
"name": "geo_42_看護小規模多機能型居宅介護（複合型サービス）",
"crs": { "type": "name", "properties": { "name": "urn:ogc:def:crs:OGC:1.3:CRS84" } },
"features": [
{ "type": "Feature", "properties": { "内容": "クローバーハウス【看護小規模多機能型居宅介護（複合型サービス）】長崎県長崎市昭和１丁目８番５号", "url": "https://www.kaigokensaku.mhlw.go.jp/42/index.php?action_kouhyou_detail_004_kani=true&JigyosyoCd=4290101262-00&ServiceCd=&Type=search", "url2": "http://www.fujimoto-group.jp/" }, "geometry": { "type": "Point", "coordinates": [ 129.868851925131281, 32.790460036247801 ] } },
{ "type": "Feature", "properties": { "内容": "医療法人社団　春秋会　看護小規模多機能ホームいきいき【看護小規模多機能型居宅介護（複合型サービス）】長崎県長崎市松が枝町3番20号新館3階", "url": "https://www.kaigokensaku.mhlw.go.jp/42/index.php?action_kouhyou_detail_004_kani=true&JigyosyoCd=4290101353-00&ServiceCd=&Type=search", "url2": "http://www.syunjyu-kai.or.jp/" }, "geometry": { "type": "Point", "coordinates": [ 129.8714205, 32.7347563 ] } },
{ "type": "Feature", "properties": { "内容": "看護小規模多機能　きずな【看護小規模多機能型居宅介護（複合型サービス）】豊洋台１丁目３２番２号", "url": "https://www.kaigokensaku.mhlw.go.jp/42/index.php?action_kouhyou_detail_004_kani=true&JigyosyoCd=4290101221-00&ServiceCd=&Type=search", "url2": "https://www.taijukai.info/" }, "geometry": { "type": "Point", "coordinates": [ 129.791559399999983, 32.8302814 ] } },
{ "type": "Feature", "properties": { "内容": "クローバーハウス住吉【看護小規模多機能型居宅介護（複合型サービス）】長崎県長崎市泉3丁目2番38号", "url": "https://www.kaigokensaku.mhlw.go.jp/42/index.php?action_kouhyou_detail_004_kani=true&JigyosyoCd=4290101817-00&ServiceCd=&Type=search", "url2": "http://www.fujimoto-group.jp/" }, "geometry": { "type": "Point", "coordinates": [ 129.860526813241364, 32.7949102066802 ] } },
{ "type": "Feature", "properties": { "内容": "かんたき花椿【看護小規模多機能型居宅介護（複合型サービス）】長崎県長崎市矢の平４－９－１８", "url": "https://www.kaigokensaku.mhlw.go.jp/42/index.php?action_kouhyou_detail_004_kani=true&JigyosyoCd=4290101775-00&ServiceCd=&Type=search", "url2": null }, "geometry": { "type": "Point", "coordinates": [ 129.894931, 32.7411849 ] } },
{ "type": "Feature", "properties": { "内容": "集いの家きんかい【看護小規模多機能型居宅介護（複合型サービス）】琴海村松町743番地3", "url": "https://www.kaigokensaku.mhlw.go.jp/42/index.php?action_kouhyou_detail_004_kani=true&JigyosyoCd=4290101197-00&ServiceCd=&Type=search", "url2": "https://cosmos-kai.jp/" }, "geometry": { "type": "Point", "coordinates": [ 129.7868032, 32.867553 ] } },
{ "type": "Feature", "properties": { "内容": "看護小規模多機能あいおい「立山荘」【看護小規模多機能型居宅介護（複合型サービス）】長崎県長崎市立山５丁目１７－５３", "url": "https://www.kaigokensaku.mhlw.go.jp/42/index.php?action_kouhyou_detail_004_kani=true&JigyosyoCd=4290101544-00&ServiceCd=&Type=search", "url2": "http://tateyamaso.com/short-stay.html" }, "geometry": { "type": "Point", "coordinates": [ 129.878645900000038, 32.7615228 ] } },
{ "type": "Feature", "properties": { "内容": "白寿荘看護小規模多機能ホームドリームステイつばさ【看護小規模多機能型居宅介護（複合型サービス）】長崎県佐世保市鹿子前町904番地1特別養護老人ホーム白寿荘内1階", "url": "https://www.kaigokensaku.mhlw.go.jp/42/index.php?action_kouhyou_detail_004_kani=true&JigyosyoCd=4290201500-00&ServiceCd=&Type=search", "url2": "http://www.hakuzyusou.or.jp/" }, "geometry": { "type": "Point", "coordinates": [ 129.6853946, 33.1617961 ] } },
{ "type": "Feature", "properties": { "内容": "複合型サービス　葛篭【看護小規模多機能型居宅介護（複合型サービス）】長崎県佐世保市吉岡町729番地", "url": "https://www.kaigokensaku.mhlw.go.jp/42/index.php?action_kouhyou_detail_004_kani=true&JigyosyoCd=4290200932-00&ServiceCd=&Type=search", "url2": "http://www.u-ikoi.co.jp/homepage2/" }, "geometry": { "type": "Point", "coordinates": [ 129.703062657637417, 33.208001047560643 ] } },
{ "type": "Feature", "properties": { "内容": "複合型サービス　リハサポート【看護小規模多機能型居宅介護（複合型サービス）】長崎県島原市加美町999番地リハサポート3", "url": "https://www.kaigokensaku.mhlw.go.jp/42/index.php?action_kouhyou_detail_004_kani=true&JigyosyoCd=4290300955-00&ServiceCd=&Type=search", "url2": "https://toyokai-medi.jp/" }, "geometry": { "type": "Point", "coordinates": [ 130.368194499999959, 32.7848946 ] } },
{ "type": "Feature", "properties": { "内容": "看護小規模多機能型居宅介護　とこはの家【看護小規模多機能型居宅介護（複合型サービス）】長崎県　西彼杵郡　長与町　吉無田郷　647看護小規模多機能型居宅介護　とこはの家", "url": "https://www.kaigokensaku.mhlw.go.jp/42/index.php?action_kouhyou_detail_004_kani=true&JigyosyoCd=4291100099-00&ServiceCd=&Type=search", "url2": "http://www.tokohakai.com" }, "geometry": { "type": "Point", "coordinates": [ 129.871612930688485, 32.811555514280208 ] } }
]
}
