{
"type": "FeatureCollection",
"name": "geo_42_特定施設入居者生活介護（有料老人ホーム）",
"crs": { "type": "name", "properties": { "name": "urn:ogc:def:crs:OGC:1.3:CRS84" } },
"features": [
{ "type": "Feature", "properties": { "内容": "介護支援センターながさき　ヒューマンプラザ伊勢の杜【特定施設入居者生活介護（有料老人ホーム）】長崎県長崎市伊勢町2番14号", "url": "https://www.kaigokensaku.mhlw.go.jp/42/index.php?action_kouhyou_detail_004_kani=true&JigyosyoCd=4270105085-00&ServiceCd=331&Type=search", "url2": "https://www.human-nw.com" }, "geometry": { "type": "Point", "coordinates": [ 129.884649800000034, 32.7520718 ] } },
{ "type": "Feature", "properties": { "内容": "特定施設入所者生活介護事業所　かいごの花みずき【特定施設入居者生活介護（有料老人ホーム）】長崎県長崎市平和町１７－７", "url": "https://www.kaigokensaku.mhlw.go.jp/42/index.php?action_kouhyou_detail_004_kani=true&JigyosyoCd=4270105291-00&ServiceCd=331&Type=search", "url2": "http://www.kaigo-8732.com/" }, "geometry": { "type": "Point", "coordinates": [ 129.865334100000041, 32.7752023 ] } },
{ "type": "Feature", "properties": { "内容": "介護付有料老人ホーム大浦十三番館【特定施設入居者生活介護（有料老人ホーム）】長崎県長崎市大浦町3番21号大浦十三番館", "url": "https://www.kaigokensaku.mhlw.go.jp/42/index.php?action_kouhyou_detail_004_kani=true&JigyosyoCd=4270105689-00&ServiceCd=331&Type=search", "url2": "http://www.ooura13.com" }, "geometry": { "type": "Point", "coordinates": [ 129.871264748117483, 32.736259916896785 ] } },
{ "type": "Feature", "properties": { "内容": "介護付有料老人ホームポポロの森【特定施設入居者生活介護（有料老人ホーム）】長崎市戸町４丁目７番２０号", "url": "https://www.kaigokensaku.mhlw.go.jp/42/index.php?action_kouhyou_detail_004_kani=true&JigyosyoCd=4270106083-00&ServiceCd=331&Type=search", "url2": "http://www.kenyukai.or.jp" }, "geometry": { "type": "Point", "coordinates": [ 129.861166, 32.720210100000017 ] } },
{ "type": "Feature", "properties": { "内容": "介護付有料老人ホームサンハイツ富士見【特定施設入居者生活介護（有料老人ホーム）】長崎県長崎市富士見町６－１", "url": "https://www.kaigokensaku.mhlw.go.jp/42/index.php?action_kouhyou_detail_004_kani=true&JigyosyoCd=4270106455-00&ServiceCd=331&Type=search", "url2": "http://www.sanhaitsu.jp/fujimi" }, "geometry": { "type": "Point", "coordinates": [ 129.853976900000021, 32.7719913 ] } },
{ "type": "Feature", "properties": { "内容": "介護付き有料老人ホームこころのしろ【特定施設入居者生活介護（有料老人ホーム）】長崎県長崎市上銭座町11番8号", "url": "https://www.kaigokensaku.mhlw.go.jp/42/index.php?action_kouhyou_detail_004_kani=true&JigyosyoCd=4270111513-00&ServiceCd=331&Type=search", "url2": "https://www.kokoro.ac.jp/shiro/" }, "geometry": { "type": "Point", "coordinates": [ 129.869731300000041, 32.7639731 ] } },
{ "type": "Feature", "properties": { "内容": "介護付有料老人ホーム　グッドタイムホーム７・長崎駅前【特定施設入居者生活介護（有料老人ホーム）】長崎県長崎市筑後町8番23号", "url": "https://www.kaigokensaku.mhlw.go.jp/42/index.php?action_kouhyou_detail_004_kani=true&JigyosyoCd=4270112354-00&ServiceCd=331&Type=search", "url2": "http://www.goodtimehome.com" }, "geometry": { "type": "Point", "coordinates": [ 129.874768499999988, 32.7528736 ] } },
{ "type": "Feature", "properties": { "内容": "介護付有料老人ホーム　よつば【特定施設入居者生活介護（有料老人ホーム）】長崎県長崎市滑石5丁目9番51号", "url": "https://www.kaigokensaku.mhlw.go.jp/42/index.php?action_kouhyou_detail_004_kani=true&JigyosyoCd=4270135595-00&ServiceCd=331&Type=search", "url2": "https://kouranosato.com/workplace/home-yotsuba" }, "geometry": { "type": "Point", "coordinates": [ 129.833292142327878, 32.80443541807368 ] } },
{ "type": "Feature", "properties": { "内容": "クローバーハウス櫻馬場【特定施設入居者生活介護（有料老人ホーム）】長崎県長崎市桜馬場2丁目6番8号", "url": "https://www.kaigokensaku.mhlw.go.jp/42/index.php?action_kouhyou_detail_004_kani=true&JigyosyoCd=4270136429-00&ServiceCd=331&Type=search", "url2": "https://www.fujimoto-group.jp/" }, "geometry": { "type": "Point", "coordinates": [ 129.89161630000001, 32.7533467 ] } },
{ "type": "Feature", "properties": { "内容": "介護付有料老人ホーム　みどり【特定施設入居者生活介護（有料老人ホーム）】長崎県佐世保市中通町17番地22", "url": "https://www.kaigokensaku.mhlw.go.jp/42/index.php?action_kouhyou_detail_004_kani=true&JigyosyoCd=4270202791-00&ServiceCd=331&Type=search", "url2": null }, "geometry": { "type": "Point", "coordinates": [ 129.71194630030584, 33.186137 ] } },
{ "type": "Feature", "properties": { "内容": "介護付有料老人ホーム　さくらプレイス【特定施設入居者生活介護（有料老人ホーム）】長崎県佐世保市吉井町直谷1242-2", "url": "https://www.kaigokensaku.mhlw.go.jp/42/index.php?action_kouhyou_detail_004_kani=true&JigyosyoCd=4270203096-00&ServiceCd=331&Type=search", "url2": "http://sakura-place.jp" }, "geometry": { "type": "Point", "coordinates": [ 129.692930899999965, 33.2797996 ] } },
{ "type": "Feature", "properties": { "内容": "介護付有料老人ホーム　はなの杜【特定施設入居者生活介護（有料老人ホーム）】長崎県佐世保市福田町598-1", "url": "https://www.kaigokensaku.mhlw.go.jp/42/index.php?action_kouhyou_detail_004_kani=true&JigyosyoCd=4270203328-00&ServiceCd=331&Type=search", "url2": "http://www.n-yuaikai.jp" }, "geometry": { "type": "Point", "coordinates": [ 129.7087024, 33.1823595 ] } },
{ "type": "Feature", "properties": { "内容": "介護付有料老人ホーム　ナーシングホーム日野【特定施設入居者生活介護（有料老人ホーム）】長崎県佐世保市日野町856-10", "url": "https://www.kaigokensaku.mhlw.go.jp/42/index.php?action_kouhyou_detail_004_kani=true&JigyosyoCd=4270203351-00&ServiceCd=331&Type=search", "url2": "http://seiaikai-group.or.jp" }, "geometry": { "type": "Point", "coordinates": [ 129.676308799999987, 33.1713661 ] } },
{ "type": "Feature", "properties": { "内容": "介護付有料老人ホーム　白岳ホーム【特定施設入居者生活介護（有料老人ホーム）】長崎県佐世保市白岳町606-4", "url": "https://www.kaigokensaku.mhlw.go.jp/42/index.php?action_kouhyou_detail_004_kani=true&JigyosyoCd=4270203393-00&ServiceCd=331&Type=search", "url2": null }, "geometry": { "type": "Point", "coordinates": [ 129.753838877909857, 33.152819894066283 ] } },
{ "type": "Feature", "properties": { "内容": "介護付有料老人ホーム　みのりの里【特定施設入居者生活介護（有料老人ホーム）】長崎県佐世保市長畑町455番1介護付有料老人ホーム　みのりの里", "url": "https://www.kaigokensaku.mhlw.go.jp/42/index.php?action_kouhyou_detail_004_kani=true&JigyosyoCd=4270203435-00&ServiceCd=331&Type=search", "url2": "https://minori-village.com" }, "geometry": { "type": "Point", "coordinates": [ 129.805909899999961, 33.0834182 ] } },
{ "type": "Feature", "properties": { "内容": "介護付有料老人ホーム　あかり【特定施設入居者生活介護（有料老人ホーム）】長崎県佐世保市日野町７３１番地２", "url": "https://www.kaigokensaku.mhlw.go.jp/42/index.php?action_kouhyou_detail_004_kani=true&JigyosyoCd=4270203443-00&ServiceCd=331&Type=search", "url2": "http://www.secondlife24.biz" }, "geometry": { "type": "Point", "coordinates": [ 129.686491299999943, 33.1680164 ] } },
{ "type": "Feature", "properties": { "内容": "医療法人　道仁会　介護付有料老人ホーム　しながわ【特定施設入居者生活介護（有料老人ホーム）】長崎県佐世保市柚木町２１６４番", "url": "https://www.kaigokensaku.mhlw.go.jp/42/index.php?action_kouhyou_detail_004_kani=true&JigyosyoCd=4270203898-00&ServiceCd=331&Type=search", "url2": "http://shinagawa-clinic.jp/kaigo/index.php" }, "geometry": { "type": "Point", "coordinates": [ 129.763488700000039, 33.209375 ] } },
{ "type": "Feature", "properties": { "内容": "介護付有料老人ホーム　ドリームステイひかり【特定施設入居者生活介護（有料老人ホーム）】長崎県佐世保市戸尾町4－5白十字ビル", "url": "https://www.kaigokensaku.mhlw.go.jp/42/index.php?action_kouhyou_detail_004_kani=true&JigyosyoCd=4270204011-00&ServiceCd=331&Type=search", "url2": "http://www.hakujyujikai.or.jp/d-stay/index.html" }, "geometry": { "type": "Point", "coordinates": [ 129.72438139999997, 33.1681831 ] } },
{ "type": "Feature", "properties": { "内容": "介護付有料老人ホーム大塔【特定施設入居者生活介護（有料老人ホーム）】長崎県佐世保市田の浦町5番41号", "url": "https://www.kaigokensaku.mhlw.go.jp/42/index.php?action_kouhyou_detail_004_kani=true&JigyosyoCd=4270204052-00&ServiceCd=331&Type=search", "url2": "https://nagasaki-daito-home.com/" }, "geometry": { "type": "Point", "coordinates": [ 129.785585800000035, 33.1435705 ] } },
{ "type": "Feature", "properties": { "内容": "介護付有料老人ホーム　あすなろ【特定施設入居者生活介護（有料老人ホーム）】長崎県佐世保市赤崎町80番地1", "url": "https://www.kaigokensaku.mhlw.go.jp/42/index.php?action_kouhyou_detail_004_kani=true&JigyosyoCd=4270204136-00&ServiceCd=331&Type=search", "url2": null }, "geometry": { "type": "Point", "coordinates": [ 129.693807200000037, 33.1630891 ] } },
{ "type": "Feature", "properties": { "内容": "介護付有料老人ホームシーサイドヴィラ音羽の浜【特定施設入居者生活介護（有料老人ホーム）】長崎県佐世保市東浜町139番地", "url": "https://www.kaigokensaku.mhlw.go.jp/42/index.php?action_kouhyou_detail_004_kani=true&JigyosyoCd=4270204169-00&ServiceCd=331&Type=search", "url2": "http://villa@otowanohama.jp" }, "geometry": { "type": "Point", "coordinates": [ 129.73622786137696, 33.136819635800045 ] } },
{ "type": "Feature", "properties": { "内容": "介護付有料老人ホーム　やまずみ荘　「のどか」【特定施設入居者生活介護（有料老人ホーム）】長崎県佐世保市山祗町385番地1", "url": "https://www.kaigokensaku.mhlw.go.jp/42/index.php?action_kouhyou_detail_004_kani=true&JigyosyoCd=4270204201-00&ServiceCd=331&Type=search", "url2": "https://www.yamazumiso.or.jp" }, "geometry": { "type": "Point", "coordinates": [ 129.732124238479628, 33.168522834611672 ] } },
{ "type": "Feature", "properties": { "内容": "介護付有料老人ホーム　ドリームステイのぞみ【特定施設入居者生活介護（有料老人ホーム）】長崎県佐世保市大和町30番地3", "url": "https://www.kaigokensaku.mhlw.go.jp/42/index.php?action_kouhyou_detail_004_kani=true&JigyosyoCd=4270204540-00&ServiceCd=331&Type=search", "url2": null }, "geometry": { "type": "Point", "coordinates": [ 129.7470023, 33.15630160000002 ] } },
{ "type": "Feature", "properties": { "内容": "ケアインファースト栄【特定施設入居者生活介護（有料老人ホーム）】長崎県佐世保市栄町5番9号", "url": "https://www.kaigokensaku.mhlw.go.jp/42/index.php?action_kouhyou_detail_004_kani=true&JigyosyoCd=4270204862-00&ServiceCd=331&Type=search", "url2": "http://sazagawa.com" }, "geometry": { "type": "Point", "coordinates": [ 129.719592899999952, 33.1733992 ] } },
{ "type": "Feature", "properties": { "内容": "介護付有料老人ホーム　ケアタウンてんじん【特定施設入居者生活介護（有料老人ホーム）】長崎県佐世保市天神４丁目６番２０号", "url": "https://www.kaigokensaku.mhlw.go.jp/42/index.php?action_kouhyou_detail_004_kani=true&JigyosyoCd=4270205182-00&ServiceCd=331&Type=search", "url2": null }, "geometry": { "type": "Point", "coordinates": [ 129.7375227, 33.1436667 ] } },
{ "type": "Feature", "properties": { "内容": "介護付き有料老人ホーム　さくら坂【特定施設入居者生活介護（有料老人ホーム）】長崎県佐世保市八幡町１－１", "url": "https://www.kaigokensaku.mhlw.go.jp/42/index.php?action_kouhyou_detail_004_kani=true&JigyosyoCd=4270205422-00&ServiceCd=331&Type=search", "url2": "なし" }, "geometry": { "type": "Point", "coordinates": [ 129.721939761155681, 33.183831077361809 ] } },
{ "type": "Feature", "properties": { "内容": "介護付有料老人ホームかもん【特定施設入居者生活介護（有料老人ホーム）】長崎県佐世保市針尾東町1072-1", "url": "https://www.kaigokensaku.mhlw.go.jp/42/index.php?action_kouhyou_detail_004_kani=true&JigyosyoCd=4270203518-00&ServiceCd=331&Type=search", "url2": null }, "geometry": { "type": "Point", "coordinates": [ 129.761030099999971, 33.0727233 ] } },
{ "type": "Feature", "properties": { "内容": "介護付有料老人ホーム　あんしんハウス島原【特定施設入居者生活介護（有料老人ホーム）】長崎県島原市上新丁1丁目4158番地1", "url": "https://www.kaigokensaku.mhlw.go.jp/42/index.php?action_kouhyou_detail_004_kani=true&JigyosyoCd=4270300702-00&ServiceCd=331&Type=search", "url2": "http://nissin-g.jp" }, "geometry": { "type": "Point", "coordinates": [ 130.359586400000012, 32.7886886 ] } },
{ "type": "Feature", "properties": { "内容": "介護付き有料老人ホームひまわり【特定施設入居者生活介護（有料老人ホーム）】高来町黒崎79-3", "url": "https://www.kaigokensaku.mhlw.go.jp/42/index.php?action_kouhyou_detail_004_kani=true&JigyosyoCd=4270403894-00&ServiceCd=331&Type=search", "url2": "https://wakeikai.jp/" }, "geometry": { "type": "Point", "coordinates": [ 130.132238699999988, 32.9039613 ] } },
{ "type": "Feature", "properties": { "内容": "サービス付き高齢者向け住宅　真和レジデンス【特定施設入居者生活介護（有料老人ホーム）】長崎県諫早市本野町２－１", "url": "https://www.kaigokensaku.mhlw.go.jp/42/index.php?action_kouhyou_detail_004_kani=true&JigyosyoCd=4270403928-00&ServiceCd=331&Type=search", "url2": "http://www.sinwakai.net/" }, "geometry": { "type": "Point", "coordinates": [ 130.0247732, 32.8865841 ] } },
{ "type": "Feature", "properties": { "内容": "介護付有料老人ホームたんぽぽの丘【特定施設入居者生活介護（有料老人ホーム）】長崎県大村市大川田町433番地介護付有料老人ホームたんぽぽの丘", "url": "https://www.kaigokensaku.mhlw.go.jp/42/index.php?action_kouhyou_detail_004_kani=true&JigyosyoCd=4270500814-00&ServiceCd=331&Type=search", "url2": "https://triangle-circle.jp/" }, "geometry": { "type": "Point", "coordinates": [ 129.94555642647336, 32.942426685463616 ] } },
{ "type": "Feature", "properties": { "内容": "介護付き有料老人ホーム方々の家【特定施設入居者生活介護（有料老人ホーム）】長崎県大村市富の原1丁目1327番地5", "url": "https://www.kaigokensaku.mhlw.go.jp/42/index.php?action_kouhyou_detail_004_kani=true&JigyosyoCd=4270502166-00&ServiceCd=331&Type=search", "url2": "https://jijibaba-net.com/katagata-no-ie/" }, "geometry": { "type": "Point", "coordinates": [ 129.9405041, 32.9398396 ] } },
{ "type": "Feature", "properties": { "内容": "有料老人ホーム　安心ハウス　南串山荘【特定施設入居者生活介護（有料老人ホーム）】長崎県雲仙市南串山町丙１０７３０番地１", "url": "https://www.kaigokensaku.mhlw.go.jp/42/index.php?action_kouhyou_detail_004_kani=true&JigyosyoCd=4271402135-00&ServiceCd=331&Type=search", "url2": "https://keikokai.jp/" }, "geometry": { "type": "Point", "coordinates": [ 130.147132100000022, 32.6800138 ] } },
{ "type": "Feature", "properties": { "内容": "有料老人ホーム　なごみの家【特定施設入居者生活介護（有料老人ホーム）】長崎県雲仙市瑞穂町伊福甲677", "url": "https://www.kaigokensaku.mhlw.go.jp/42/index.php?action_kouhyou_detail_004_kani=true&JigyosyoCd=4272400765-00&ServiceCd=331&Type=search", "url2": "http://www.sinwakai.net/" }, "geometry": { "type": "Point", "coordinates": [ 130.2378668, 32.8619711 ] } },
{ "type": "Feature", "properties": { "内容": "介護付有料老人ホームきたの【特定施設入居者生活介護（有料老人ホーム）】長崎県雲仙市小浜町北野373番地", "url": "https://www.kaigokensaku.mhlw.go.jp/42/index.php?action_kouhyou_detail_004_kani=true&JigyosyoCd=4272400773-00&ServiceCd=331&Type=search", "url2": "https://3rise-group.com/" }, "geometry": { "type": "Point", "coordinates": [ 130.222011900000012, 32.7483899 ] } },
{ "type": "Feature", "properties": { "内容": "有料老人ホームありま荘【特定施設入居者生活介護（有料老人ホーム）】長崎県南島原市北有馬町甲３１８１番地１４９", "url": "https://www.kaigokensaku.mhlw.go.jp/42/index.php?action_kouhyou_detail_004_kani=true&JigyosyoCd=4272500325-00&ServiceCd=331&Type=search", "url2": "http//www.heiwa-kai.com" }, "geometry": { "type": "Point", "coordinates": [ 130.19667979999997, 32.6739176 ] } },
{ "type": "Feature", "properties": { "内容": "特定施設明星【特定施設入居者生活介護（有料老人ホーム）】布津町乙673", "url": "https://www.kaigokensaku.mhlw.go.jp/42/index.php?action_kouhyou_detail_004_kani=true&JigyosyoCd=4272500705-00&ServiceCd=331&Type=search", "url2": null }, "geometry": { "type": "Point", "coordinates": [ 130.35122092212066, 32.692831642244471 ] } },
{ "type": "Feature", "properties": { "内容": "まったりホーム絆【特定施設入居者生活介護（有料老人ホーム）】長崎県南島原市北有馬町丁199", "url": "https://www.kaigokensaku.mhlw.go.jp/42/index.php?action_kouhyou_detail_004_kani=true&JigyosyoCd=4272500721-00&ServiceCd=331&Type=search", "url2": "http:care-net.biz/42/kizuna/" }, "geometry": { "type": "Point", "coordinates": [ 130.23603, 32.6563203 ] } },
{ "type": "Feature", "properties": { "内容": "介護付有料老人ホーム　ライフケア・まえだ【特定施設入居者生活介護（有料老人ホーム）】長崎県北松浦郡佐々町市場免50番地", "url": "https://www.kaigokensaku.mhlw.go.jp/42/index.php?action_kouhyou_detail_004_kani=true&JigyosyoCd=4271501407-00&ServiceCd=331&Type=search", "url2": null }, "geometry": { "type": "Point", "coordinates": [ 129.646745399999986, 33.2339622 ] } },
{ "type": "Feature", "properties": { "内容": "特定施設入居者生活介護事業所　グリーンケアかみごとう【特定施設入居者生活介護（有料老人ホーム）】長崎県南松浦郡新上五島町浦桑郷617番地1", "url": "https://www.kaigokensaku.mhlw.go.jp/42/index.php?action_kouhyou_detail_004_kani=true&JigyosyoCd=4271601272-00&ServiceCd=331&Type=search", "url2": "https://www.greenhill-kamigoto.com/" }, "geometry": { "type": "Point", "coordinates": [ 129.0733574, 32.984529 ] } }
]
}
