{
"type": "FeatureCollection",
"name": "geo_42_幼保連携型認定こども園",
"crs": { "type": "name", "properties": { "name": "urn:ogc:def:crs:EPSG::6668" } },
"features": [
{ "type": "Feature", "properties": { "P29_001": "42205", "P29_002": "A242210000010", "P29_003": "16013", "P29_004": "大村市立放虎原こども園", "P29_005": "長崎県大村市古賀島町133-26", "P29_006": "3", "P29_007": "0", "P29_008": "00", "P29_009": null }, "geometry": { "type": "Point", "coordinates": [ 129.948471518653918, 32.92632075913243 ] } },
{ "type": "Feature", "properties": { "P29_001": "42383", "P29_002": "A242210000029", "P29_003": "16013", "P29_004": "小値賀町立小値賀こども園", "P29_005": "長崎県北松浦郡小値賀町笛吹郷2461-3", "P29_006": "3", "P29_007": "0", "P29_008": "00", "P29_009": null }, "geometry": { "type": "Point", "coordinates": [ 129.05900545233132, 33.195538889325157 ] } },
{ "type": "Feature", "properties": { "P29_001": "42201", "P29_002": "A242210000038", "P29_003": "16013", "P29_004": "長崎市立認定こども園長崎幼稚園", "P29_005": "長崎県長崎市魚の町1-16", "P29_006": "3", "P29_007": "0", "P29_008": "00", "P29_009": null }, "geometry": { "type": "Point", "coordinates": [ 129.878490925078665, 32.748716398489627 ] } },
{ "type": "Feature", "properties": { "P29_001": "42207", "P29_002": "A242210000047", "P29_003": "16013", "P29_004": "平戸市立生月こども園", "P29_005": "長崎県平戸市生月町山田免526-1", "P29_006": "3", "P29_007": "0", "P29_008": "00", "P29_009": null }, "geometry": { "type": "Point", "coordinates": [ 129.430813294595765, 33.364477737446855 ] } },
{ "type": "Feature", "properties": { "P29_001": "42210", "P29_002": "A242210000056", "P29_003": "16013", "P29_004": "壱岐市立幼保連携型石田こども園", "P29_005": "長崎県壱岐市石田町石田西触1220", "P29_006": "3", "P29_007": "0", "P29_008": "00", "P29_009": null }, "geometry": { "type": "Point", "coordinates": [ 129.757166999567488, 33.748268996009593 ] } },
{ "type": "Feature", "properties": { "P29_001": "42212", "P29_002": "A242210000065", "P29_003": "16013", "P29_004": "西海市立大島こども園", "P29_005": "長崎県西海市大島町1922-30", "P29_006": "3", "P29_007": "0", "P29_008": "00", "P29_009": null }, "geometry": { "type": "Point", "coordinates": [ 129.622268124709137, 33.033363261880119 ] } },
{ "type": "Feature", "properties": { "P29_001": "42201", "P29_002": "A242310000018", "P29_003": "16013", "P29_004": "幼保連携型認定こども園長崎純心大学附属純心幼稚園", "P29_005": "長崎県長崎市文教町13-15", "P29_006": "4", "P29_007": "0", "P29_008": "00", "P29_009": null }, "geometry": { "type": "Point", "coordinates": [ 129.868179130198513, 32.786060072495587 ] } },
{ "type": "Feature", "properties": { "P29_001": "42201", "P29_002": "A242310000027", "P29_003": "16013", "P29_004": "認定こども園長崎南山幼稚園", "P29_005": "長崎県長崎市音無町9-34", "P29_006": "4", "P29_007": "0", "P29_008": "00", "P29_009": null }, "geometry": { "type": "Point", "coordinates": [ 129.85771700406238, 32.78921099744845 ] } },
{ "type": "Feature", "properties": { "P29_001": "42201", "P29_002": "A242310000036", "P29_003": "16013", "P29_004": "認定こども園百合幼稚園・百合保育園", "P29_005": "長崎県長崎市葉山1-3-19", "P29_006": "4", "P29_007": "0", "P29_008": "00", "P29_009": null }, "geometry": { "type": "Point", "coordinates": [ 129.851584815600603, 32.8042258239375 ] } },
{ "type": "Feature", "properties": { "P29_001": "42201", "P29_002": "A242310000045", "P29_003": "16013", "P29_004": "幼保連携型認定こども園　ひかり幼稚園", "P29_005": "長崎県長崎市岩見町14-6", "P29_006": "4", "P29_007": "0", "P29_008": "00", "P29_009": null }, "geometry": { "type": "Point", "coordinates": [ 129.855987002724532, 32.769027999525235 ] } },
{ "type": "Feature", "properties": { "P29_001": "42201", "P29_002": "A242310000054", "P29_003": "16013", "P29_004": "認定こども園富士幼稚園　コスモス保育園", "P29_005": "長崎県長崎市葉山1-29-3", "P29_006": "4", "P29_007": "0", "P29_008": "00", "P29_009": null }, "geometry": { "type": "Point", "coordinates": [ 129.847930912258022, 32.805429324479448 ] } },
{ "type": "Feature", "properties": { "P29_001": "42201", "P29_002": "A242310000063", "P29_003": "16013", "P29_004": "認定こども園かがやき", "P29_005": "長崎県長崎市野母町1820-2", "P29_006": "4", "P29_007": "0", "P29_008": "00", "P29_009": null }, "geometry": { "type": "Point", "coordinates": [ 129.755830191580003, 32.58149978269936 ] } },
{ "type": "Feature", "properties": { "P29_001": "42201", "P29_002": "A242310000072", "P29_003": "16013", "P29_004": "認定こども園さくら幼稚園・さくらんぼ保育園", "P29_005": "長崎県長崎市新小ヶ倉2-1-50", "P29_006": "4", "P29_007": "0", "P29_008": "00", "P29_009": null }, "geometry": { "type": "Point", "coordinates": [ 129.86305500168686, 32.708769001402722 ] } },
{ "type": "Feature", "properties": { "P29_001": "42201", "P29_002": "A242310000081", "P29_003": "16013", "P29_004": "幼保連携型認定こども園第二ひかり幼稚園", "P29_005": "長崎県長崎市小江原2-36-28", "P29_006": "4", "P29_007": "0", "P29_008": "00", "P29_009": null }, "geometry": { "type": "Point", "coordinates": [ 129.838277730781584, 32.780131357915685 ] } },
{ "type": "Feature", "properties": { "P29_001": "42201", "P29_002": "A242310000090", "P29_003": "16013", "P29_004": "認定こども園天童幼稚園・天童保育園", "P29_005": "長崎県長崎市古賀町1553-5", "P29_006": "4", "P29_007": "0", "P29_008": "00", "P29_009": null }, "geometry": { "type": "Point", "coordinates": [ 129.958278720044433, 32.809303492674154 ] } },
{ "type": "Feature", "properties": { "P29_001": "42201", "P29_002": "A242310000107", "P29_003": "16013", "P29_004": "認定こども園三和幼稚園", "P29_005": "長崎県長崎市晴海台町32-2", "P29_006": "4", "P29_007": "0", "P29_008": "00", "P29_009": null }, "geometry": { "type": "Point", "coordinates": [ 129.820702700336199, 32.663945847582262 ] } },
{ "type": "Feature", "properties": { "P29_001": "42201", "P29_002": "A242310000116", "P29_003": "16013", "P29_004": "認定こども園長崎小鳩幼稚園・長崎小鳩保育園", "P29_005": "長崎県長崎市京泊1-4-11", "P29_006": "4", "P29_007": "0", "P29_008": "00", "P29_009": null }, "geometry": { "type": "Point", "coordinates": [ 129.776482027851671, 32.827741000101852 ] } },
{ "type": "Feature", "properties": { "P29_001": "42202", "P29_002": "A242310000125", "P29_003": "16013", "P29_004": "認定こども園江迎幼稚園江迎保育園", "P29_005": "長崎県佐世保市江迎町長坂50-1", "P29_006": "4", "P29_007": "0", "P29_008": "00", "P29_009": null }, "geometry": { "type": "Point", "coordinates": [ 129.632698723847739, 33.305422343797154 ] } },
{ "type": "Feature", "properties": { "P29_001": "42202", "P29_002": "A242310000134", "P29_003": "16013", "P29_004": "認定こども園九州文化学園幼稚園", "P29_005": "長崎県佐世保市上町8-35", "P29_006": "4", "P29_007": "0", "P29_008": "00", "P29_009": null }, "geometry": { "type": "Point", "coordinates": [ 129.713731439602583, 33.174531107083453 ] } },
{ "type": "Feature", "properties": { "P29_001": "42202", "P29_002": "A242310000143", "P29_003": "16013", "P29_004": "幼保連携型認定こども園比良幼保園", "P29_005": "長崎県佐世保市比良町20-7", "P29_006": "4", "P29_007": "0", "P29_008": "00", "P29_009": null }, "geometry": { "type": "Point", "coordinates": [ 129.712102451743391, 33.180647751766045 ] } },
{ "type": "Feature", "properties": { "P29_001": "42202", "P29_002": "A242310000152", "P29_003": "16013", "P29_004": "幼保連携型認定こども園光の子グレースこども園", "P29_005": "長崎県佐世保市上原町12-5", "P29_006": "4", "P29_007": "0", "P29_008": "00", "P29_009": null }, "geometry": { "type": "Point", "coordinates": [ 129.805519027234396, 33.146153131556567 ] } },
{ "type": "Feature", "properties": { "P29_001": "42203", "P29_002": "A242310000161", "P29_003": "16013", "P29_004": "認定こども園ありあけ幼稚園", "P29_005": "長崎県島原市坂上町7528", "P29_006": "4", "P29_007": "0", "P29_008": "00", "P29_009": null }, "geometry": { "type": "Point", "coordinates": [ 130.370981376306588, 32.778837287212177 ] } },
{ "type": "Feature", "properties": { "P29_001": "42203", "P29_002": "A242310000170", "P29_003": "16013", "P29_004": "幼保連携型認定こども園勝光幼稚園", "P29_005": "長崎県島原市有明町大三東戊1480-1", "P29_006": "4", "P29_007": "0", "P29_008": "00", "P29_009": null }, "geometry": { "type": "Point", "coordinates": [ 130.334125547327289, 32.849143338029791 ] } },
{ "type": "Feature", "properties": { "P29_001": "42205", "P29_002": "A242310000189", "P29_003": "16013", "P29_004": "かめりあこども園", "P29_005": "長崎県大村市富の原2-416", "P29_006": "4", "P29_007": "0", "P29_008": "00", "P29_009": null }, "geometry": { "type": "Point", "coordinates": [ 129.938245243665165, 32.948713104770931 ] } },
{ "type": "Feature", "properties": { "P29_001": "42208", "P29_002": "A242310000198", "P29_003": "16013", "P29_004": "認定こども園じこう保育園・慈光幼稚園", "P29_005": "長崎県松浦市御厨町中野免13-第1", "P29_006": "4", "P29_007": "0", "P29_008": "00", "P29_009": null }, "geometry": { "type": "Point", "coordinates": [ 129.669550856217427, 33.360534287300439 ] } },
{ "type": "Feature", "properties": { "P29_001": "42208", "P29_002": "A242310000205", "P29_003": "16013", "P29_004": "認定こども園松浦幼稚園", "P29_005": "長崎県松浦市志佐町浦免1567-1", "P29_006": "4", "P29_007": "0", "P29_008": "00", "P29_009": null }, "geometry": { "type": "Point", "coordinates": [ 129.709321998513047, 33.33563000249908 ] } },
{ "type": "Feature", "properties": { "P29_001": "42209", "P29_002": "A242310000214", "P29_003": "16013", "P29_004": "認定こども園親愛こども園", "P29_005": "長崎県対馬市厳原町宮谷69-4", "P29_006": "4", "P29_007": "0", "P29_008": "00", "P29_009": null }, "geometry": { "type": "Point", "coordinates": [ 129.290065175849065, 34.2136514556815 ] } },
{ "type": "Feature", "properties": { "P29_001": "42213", "P29_002": "A242310000223", "P29_003": "16013", "P29_004": "幼保連携型認定こども園小さき花の幼稚園", "P29_005": "長崎県雲仙市愛野町乙771", "P29_006": "4", "P29_007": "0", "P29_008": "00", "P29_009": null }, "geometry": { "type": "Point", "coordinates": [ 130.155498897971313, 32.816199865971107 ] } },
{ "type": "Feature", "properties": { "P29_001": "42213", "P29_002": "A242310000232", "P29_003": "16013", "P29_004": "認定こども園小浜こども園小浜幼稚園小浜保育園", "P29_005": "長崎県雲仙市小浜町北本町207", "P29_006": "4", "P29_007": "0", "P29_008": "00", "P29_009": null }, "geometry": { "type": "Point", "coordinates": [ 130.208850178926838, 32.732935325694108 ] } },
{ "type": "Feature", "properties": { "P29_001": "42213", "P29_002": "A242310000241", "P29_003": "16013", "P29_004": "認定こども園くにみ幼稚園", "P29_005": "長崎県雲仙市国見町多比良丁180", "P29_006": "4", "P29_007": "0", "P29_008": "00", "P29_009": null }, "geometry": { "type": "Point", "coordinates": [ 130.303947994563345, 32.860919996612445 ] } },
{ "type": "Feature", "properties": { "P29_001": "42213", "P29_002": "A242310000250", "P29_003": "16013", "P29_004": "認定こども園うせん辻幼稚園", "P29_005": "長崎県雲仙市吾妻町馬場名416", "P29_006": "4", "P29_007": "0", "P29_008": "00", "P29_009": null }, "geometry": { "type": "Point", "coordinates": [ 130.189930248131816, 32.829076011014855 ] } },
{ "type": "Feature", "properties": { "P29_001": "42214", "P29_002": "A242310000269", "P29_003": "16013", "P29_004": "たちばなこども園", "P29_005": "長崎県南島原市布津町乙1812-2", "P29_006": "4", "P29_007": "0", "P29_008": "00", "P29_009": null }, "geometry": { "type": "Point", "coordinates": [ 130.356262001583588, 32.695735998655366 ] } },
{ "type": "Feature", "properties": { "P29_001": "42214", "P29_002": "A242310000278", "P29_003": "16013", "P29_004": "有家たちばなこども園", "P29_005": "長崎県南島原市有家町山川字平田408-2", "P29_006": "4", "P29_007": "0", "P29_008": "00", "P29_009": null }, "geometry": { "type": "Point", "coordinates": [ 130.311382004124738, 32.665591999467665 ] } },
{ "type": "Feature", "properties": { "P29_001": "42307", "P29_002": "A242310000287", "P29_003": "16013", "P29_004": "認定こども園上長与幼稚園", "P29_005": "長崎県西彼杵郡長与町吉無田郷1489-94", "P29_006": "4", "P29_007": "0", "P29_008": "00", "P29_009": null }, "geometry": { "type": "Point", "coordinates": [ 129.889859017305156, 32.814022511946966 ] } },
{ "type": "Feature", "properties": { "P29_001": "42321", "P29_002": "A242310000296", "P29_003": "16013", "P29_004": "認定こども園つばさ", "P29_005": "長崎県東彼杵郡東彼杵町平似田郷702", "P29_006": "4", "P29_007": "0", "P29_008": "00", "P29_009": null }, "geometry": { "type": "Point", "coordinates": [ 129.949272828917032, 33.011596599960733 ] } },
{ "type": "Feature", "properties": { "P29_001": "42322", "P29_002": "A242310000303", "P29_003": "16013", "P29_004": "川棚純心こども園", "P29_005": "長崎県東彼杵郡川棚町城山38", "P29_006": "4", "P29_007": "0", "P29_008": "00", "P29_009": null }, "geometry": { "type": "Point", "coordinates": [ 129.866733003824947, 33.069832004597032 ] } },
{ "type": "Feature", "properties": { "P29_001": "42322", "P29_002": "A242310000312", "P29_003": "16013", "P29_004": "みのりこども園", "P29_005": "長崎県東彼杵郡川棚町上組郷1587-38", "P29_006": "4", "P29_007": "0", "P29_008": "00", "P29_009": null }, "geometry": { "type": "Point", "coordinates": [ 129.865508826805609, 33.082006421664694 ] } },
{ "type": "Feature", "properties": { "P29_001": "42202", "P29_002": "A242310000321", "P29_003": "16013", "P29_004": "幼保連携型認定こども園赤崎青い実幼児園", "P29_005": "長崎県佐世保市赤崎町596-20", "P29_006": "4", "P29_007": "0", "P29_008": "00", "P29_009": null }, "geometry": { "type": "Point", "coordinates": [ 129.699029762904075, 33.157146617993895 ] } },
{ "type": "Feature", "properties": { "P29_001": "42202", "P29_002": "A242310000330", "P29_003": "16013", "P29_004": "幼保連携型認定こども園歌ヶ浦青い実幼児園", "P29_005": "長崎県佐世保市鹿町町下歌ヶ浦984-1", "P29_006": "4", "P29_007": "0", "P29_008": "00", "P29_009": null }, "geometry": { "type": "Point", "coordinates": [ 129.587283396067107, 33.269830642226346 ] } },
{ "type": "Feature", "properties": { "P29_001": "42202", "P29_002": "A242310000349", "P29_003": "16013", "P29_004": "幼保連携型認定こども園江迎青い実幼児園", "P29_005": "長崎県佐世保市江迎町猪調915", "P29_006": "4", "P29_007": "0", "P29_008": "00", "P29_009": null }, "geometry": { "type": "Point", "coordinates": [ 129.667188846309415, 33.283845057141114 ] } },
{ "type": "Feature", "properties": { "P29_001": "42202", "P29_002": "A242310000358", "P29_003": "16013", "P29_004": "幼保連携型認定こども園御堂青い実幼児園", "P29_005": "長崎県佐世保市鹿町町土肥ノ浦87-1", "P29_006": "4", "P29_007": "0", "P29_008": "00", "P29_009": null }, "geometry": { "type": "Point", "coordinates": [ 129.61649867771763, 33.303328503068435 ] } },
{ "type": "Feature", "properties": { "P29_001": "42204", "P29_002": "A242310000367", "P29_003": "16013", "P29_004": "菜の花こども園", "P29_005": "長崎県諫早市仲沖町543-2", "P29_006": "4", "P29_007": "0", "P29_008": "00", "P29_009": null }, "geometry": { "type": "Point", "coordinates": [ 130.064084077177085, 32.845080042758994 ] } },
{ "type": "Feature", "properties": { "P29_001": "42205", "P29_002": "A242310000376", "P29_003": "16013", "P29_004": "認定こども園昊天宮保育園", "P29_005": "長崎県大村市竹松町713-3", "P29_006": "4", "P29_007": "0", "P29_008": "00", "P29_009": null }, "geometry": { "type": "Point", "coordinates": [ 129.946671352846749, 32.950086389914411 ] } },
{ "type": "Feature", "properties": { "P29_001": "42205", "P29_002": "A242310000385", "P29_003": "16013", "P29_004": "認定こども園すずたこども園", "P29_005": "長崎県大村市大里町30-3", "P29_006": "4", "P29_007": "0", "P29_008": "00", "P29_009": null }, "geometry": { "type": "Point", "coordinates": [ 129.992637842332101, 32.888914331609314 ] } },
{ "type": "Feature", "properties": { "P29_001": "42213", "P29_002": "A242310000394", "P29_003": "16013", "P29_004": "認定こども園くにみ子ども園", "P29_005": "長崎県雲仙市国見町多比良丙189-2", "P29_006": "4", "P29_007": "0", "P29_008": "00", "P29_009": null }, "geometry": { "type": "Point", "coordinates": [ 130.303037001624716, 32.862028002989433 ] } },
{ "type": "Feature", "properties": { "P29_001": "42214", "P29_002": "A242310000401", "P29_003": "16013", "P29_004": "南島原しんきりこども園", "P29_005": "長崎県南島原市有家町尾上3164-2", "P29_006": "4", "P29_007": "0", "P29_008": "00", "P29_009": null }, "geometry": { "type": "Point", "coordinates": [ 130.305351734403047, 32.692120477965368 ] } },
{ "type": "Feature", "properties": { "P29_001": "42201", "P29_002": "A242310000410", "P29_003": "16013", "P29_004": "とまちこども園", "P29_005": "長崎県長崎市戸町3-15-1", "P29_006": "4", "P29_007": "0", "P29_008": "00", "P29_009": null }, "geometry": { "type": "Point", "coordinates": [ 129.863545934870217, 32.720627881631302 ] } },
{ "type": "Feature", "properties": { "P29_001": "42201", "P29_002": "A242310000429", "P29_003": "16013", "P29_004": "菜の花こども園", "P29_005": "長崎県長崎市平山町477", "P29_006": "4", "P29_007": "0", "P29_008": "00", "P29_009": null }, "geometry": { "type": "Point", "coordinates": [ 129.832358002391061, 32.663503000970145 ] } },
{ "type": "Feature", "properties": { "P29_001": "42201", "P29_002": "A242310000438", "P29_003": "16013", "P29_004": "幼保連携型認定こども園椿が丘こども園", "P29_005": "長崎県長崎市椿が丘町9-3", "P29_006": "4", "P29_007": "0", "P29_008": "00", "P29_009": null }, "geometry": { "type": "Point", "coordinates": [ 129.827720928537303, 32.645482828572121 ] } },
{ "type": "Feature", "properties": { "P29_001": "42201", "P29_002": "A242310000447", "P29_003": "16013", "P29_004": "幼保連携型認定こども園福田こども園", "P29_005": "長崎県長崎市福田本町1694-2", "P29_006": "4", "P29_007": "0", "P29_008": "00", "P29_009": null }, "geometry": { "type": "Point", "coordinates": [ 129.818404004664757, 32.74413200351843 ] } },
{ "type": "Feature", "properties": { "P29_001": "42201", "P29_002": "A242310000456", "P29_003": "16013", "P29_004": "認定こども園友愛社会館幼稚園", "P29_005": "長崎県長崎市富士見町21-18", "P29_006": "4", "P29_007": "0", "P29_008": "00", "P29_009": null }, "geometry": { "type": "Point", "coordinates": [ 129.854304570647997, 32.773855149813997 ] } },
{ "type": "Feature", "properties": { "P29_001": "42201", "P29_002": "A242310000465", "P29_003": "16013", "P29_004": "幼保連携型認定こども園深堀こころこども園", "P29_005": "長崎県長崎市深堀町3-68", "P29_006": "4", "P29_007": "0", "P29_008": "00", "P29_009": null }, "geometry": { "type": "Point", "coordinates": [ 129.826964846529336, 32.685311261439146 ] } },
{ "type": "Feature", "properties": { "P29_001": "42201", "P29_002": "A242310000474", "P29_003": "16013", "P29_004": "幼保連携型樫山認定こども園", "P29_005": "長崎県長崎市樫山町1946", "P29_006": "4", "P29_007": "0", "P29_008": "00", "P29_009": null }, "geometry": { "type": "Point", "coordinates": [ 129.736019001317061, 32.814157000565515 ] } },
{ "type": "Feature", "properties": { "P29_001": "42201", "P29_002": "A242310000483", "P29_003": "16013", "P29_004": "幼保連携型認定こども園かき道ピノキオこども園", "P29_005": "長崎県長崎市かき道3-2-9", "P29_006": "4", "P29_007": "0", "P29_008": "00", "P29_009": null }, "geometry": { "type": "Point", "coordinates": [ 129.961977003806908, 32.770081999126241 ] } },
{ "type": "Feature", "properties": { "P29_001": "42203", "P29_002": "A242310000492", "P29_003": "16013", "P29_004": "清華こども園", "P29_005": "長崎県島原市有明町大三東甲2150", "P29_006": "4", "P29_007": "0", "P29_008": "00", "P29_009": null }, "geometry": { "type": "Point", "coordinates": [ 130.343663995889415, 32.833341003839116 ] } },
{ "type": "Feature", "properties": { "P29_001": "42203", "P29_002": "A242310000508", "P29_003": "16013", "P29_004": "認定こども園ひかわ第一幼稚園", "P29_005": "長崎県島原市上新丁2-2576", "P29_006": "4", "P29_007": "0", "P29_008": "00", "P29_009": null }, "geometry": { "type": "Point", "coordinates": [ 130.359933903984285, 32.790722010450288 ] } },
{ "type": "Feature", "properties": { "P29_001": "42204", "P29_002": "A242310000517", "P29_003": "16013", "P29_004": "キッズスクール認定こども園", "P29_005": "長崎県諫早市宇都町18-29", "P29_006": "4", "P29_007": "0", "P29_008": "00", "P29_009": null }, "geometry": { "type": "Point", "coordinates": [ 130.039475668262867, 32.843133103187597 ] } },
{ "type": "Feature", "properties": { "P29_001": "42204", "P29_002": "A242310000526", "P29_003": "16013", "P29_004": "ルンビニーこども園", "P29_005": "長崎県諫早市多良見町舟津1411-1", "P29_006": "4", "P29_007": "0", "P29_008": "00", "P29_009": null }, "geometry": { "type": "Point", "coordinates": [ 129.926064963230885, 32.853513836044151 ] } },
{ "type": "Feature", "properties": { "P29_001": "42205", "P29_002": "A242310000535", "P29_003": "16013", "P29_004": "認定こども園たんぽぽ園", "P29_005": "長崎県大村市富の原2-84-3", "P29_006": "4", "P29_007": "0", "P29_008": "00", "P29_009": null }, "geometry": { "type": "Point", "coordinates": [ 129.940108006881161, 32.94738802977777 ] } },
{ "type": "Feature", "properties": { "P29_001": "42211", "P29_002": "A242310000544", "P29_003": "16013", "P29_004": "とみえ認定こども園", "P29_005": "長崎県五島市富江町狩立363-1", "P29_006": "4", "P29_007": "0", "P29_008": "00", "P29_009": null }, "geometry": { "type": "Point", "coordinates": [ 128.76110149734447, 32.611646474558782 ] } },
{ "type": "Feature", "properties": { "P29_001": "42214", "P29_002": "A242310000553", "P29_003": "16013", "P29_004": "認定こども園深江幼稚園", "P29_005": "長崎県南島原市深江町丁7369-1", "P29_006": "4", "P29_007": "0", "P29_008": "00", "P29_009": null }, "geometry": { "type": "Point", "coordinates": [ 130.345970004723597, 32.728651003874191 ] } },
{ "type": "Feature", "properties": { "P29_001": "42321", "P29_002": "A242310000562", "P29_003": "16013", "P29_004": "幼保連携型認定こども園やまだこども園", "P29_005": "長崎県東彼杵郡東彼杵町蔵本郷1510", "P29_006": "4", "P29_007": "0", "P29_008": "00", "P29_009": null }, "geometry": { "type": "Point", "coordinates": [ 129.908603629083217, 33.043482469630618 ] } },
{ "type": "Feature", "properties": { "P29_001": "42322", "P29_002": "A242310000571", "P29_003": "16013", "P29_004": "幼保連携型認定こども園みつばこども園", "P29_005": "長崎県東彼杵郡川棚町下組郷24-4", "P29_006": "4", "P29_007": "0", "P29_008": "00", "P29_009": null }, "geometry": { "type": "Point", "coordinates": [ 129.859336481683869, 33.070339190285573 ] } },
{ "type": "Feature", "properties": { "P29_001": "42323", "P29_002": "A242310000580", "P29_003": "16013", "P29_004": "幼保連携型認定こども園光輪はさみこども園", "P29_005": "長崎県東彼杵郡波佐見町湯無田郷1117", "P29_006": "4", "P29_007": "0", "P29_008": "00", "P29_009": null }, "geometry": { "type": "Point", "coordinates": [ 129.920658999471812, 33.139836996616424 ] } },
{ "type": "Feature", "properties": { "P29_001": "42323", "P29_002": "A242310000599", "P29_003": "16013", "P29_004": "認定こども園アナンダこども園", "P29_005": "長崎県東彼杵郡波佐見町金屋郷186-1", "P29_006": "4", "P29_007": "0", "P29_008": "00", "P29_009": null }, "geometry": { "type": "Point", "coordinates": [ 129.900869297271157, 33.136582373136854 ] } },
{ "type": "Feature", "properties": { "P29_001": "42201", "P29_002": "A242310000606", "P29_003": "16013", "P29_004": "住吉こども園", "P29_005": "長崎県長崎市花丘町6-15", "P29_006": "4", "P29_007": "0", "P29_008": "00", "P29_009": null }, "geometry": { "type": "Point", "coordinates": [ 129.862505144328139, 32.791946760609449 ] } },
{ "type": "Feature", "properties": { "P29_001": "42201", "P29_002": "A242310000615", "P29_003": "16013", "P29_004": "認定こども園中央こども園", "P29_005": "長崎県長崎市琴海戸根町2573-1", "P29_006": "4", "P29_007": "0", "P29_008": "00", "P29_009": null }, "geometry": { "type": "Point", "coordinates": [ 129.779548764088418, 32.894809215099826 ] } },
{ "type": "Feature", "properties": { "P29_001": "42201", "P29_002": "A242310000624", "P29_003": "16013", "P29_004": "幼保連携型認定こども園愛宕ピノキオこども園", "P29_005": "長崎県長崎市愛宕4-19-11", "P29_006": "4", "P29_007": "0", "P29_008": "00", "P29_009": null }, "geometry": { "type": "Point", "coordinates": [ 129.893323273576755, 32.732644151905582 ] } },
{ "type": "Feature", "properties": { "P29_001": "42202", "P29_002": "A242310000633", "P29_003": "16013", "P29_004": "幼保連携型認定こども園小佐々幼稚園・保育園", "P29_005": "長崎県佐世保市小佐々町臼ノ浦73-5", "P29_006": "4", "P29_007": "0", "P29_008": "00", "P29_009": null }, "geometry": { "type": "Point", "coordinates": [ 129.621414619649812, 33.223982532711702 ] } },
{ "type": "Feature", "properties": { "P29_001": "42204", "P29_002": "A242310000642", "P29_003": "16013", "P29_004": "幼保連携型認定こども園にしざきこども園", "P29_005": "長崎県諫早市小豆崎町319-3", "P29_006": "4", "P29_007": "0", "P29_008": "00", "P29_009": null }, "geometry": { "type": "Point", "coordinates": [ 130.069907998095658, 32.855526004314896 ] } },
{ "type": "Feature", "properties": { "P29_001": "42204", "P29_002": "A242310000651", "P29_003": "16013", "P29_004": "みやまの森こども園", "P29_005": "長崎県諫早市城見町31-21", "P29_006": "4", "P29_007": "0", "P29_008": "00", "P29_009": null }, "geometry": { "type": "Point", "coordinates": [ 130.049839136976885, 32.853151430375405 ] } },
{ "type": "Feature", "properties": { "P29_001": "42204", "P29_002": "A242310000660", "P29_003": "16013", "P29_004": "幼保連携型認定こども園もりやまこども園", "P29_005": "長崎県諫早市森山町慶師野1884-2", "P29_006": "4", "P29_007": "0", "P29_008": "00", "P29_009": null }, "geometry": { "type": "Point", "coordinates": [ 130.116954808753746, 32.823961232966646 ] } },
{ "type": "Feature", "properties": { "P29_001": "42204", "P29_002": "A242310000679", "P29_003": "16013", "P29_004": "幼保連携型認定こども園ふたばこども園", "P29_005": "長崎県諫早市小長井町小川原浦562-1", "P29_006": "4", "P29_007": "0", "P29_008": "00", "P29_009": null }, "geometry": { "type": "Point", "coordinates": [ 130.18665152424802, 32.92950778586593 ] } },
{ "type": "Feature", "properties": { "P29_001": "42201", "P29_002": "A242310000688", "P29_003": "16013", "P29_004": "青山こども園", "P29_005": "長崎県長崎市青山町3-22", "P29_006": "4", "P29_007": "0", "P29_008": "00", "P29_009": null }, "geometry": { "type": "Point", "coordinates": [ 129.851391253268986, 32.778744008363105 ] } },
{ "type": "Feature", "properties": { "P29_001": "42201", "P29_002": "A242310000697", "P29_003": "16013", "P29_004": "幼保連携型認定こども園葉山こども園", "P29_005": "長崎県長崎市葉山1-24-1", "P29_006": "4", "P29_007": "0", "P29_008": "00", "P29_009": null }, "geometry": { "type": "Point", "coordinates": [ 129.84789525109997, 32.803858147261856 ] } },
{ "type": "Feature", "properties": { "P29_001": "42201", "P29_002": "A242310000704", "P29_003": "16013", "P29_004": "幼保連携型ローザ認定こども園", "P29_005": "長崎県長崎市本原町3-27", "P29_006": "4", "P29_007": "0", "P29_008": "00", "P29_009": null }, "geometry": { "type": "Point", "coordinates": [ 129.870737995373304, 32.781628999117473 ] } },
{ "type": "Feature", "properties": { "P29_001": "42202", "P29_002": "A242310000713", "P29_003": "16013", "P29_004": "幼保連携型認定こども園みなとこども園", "P29_005": "長崎県佐世保市若葉町124-1", "P29_006": "4", "P29_007": "0", "P29_008": "00", "P29_009": null }, "geometry": { "type": "Point", "coordinates": [ 129.73267303193316, 33.162915668589378 ] } },
{ "type": "Feature", "properties": { "P29_001": "42207", "P29_002": "A242310000722", "P29_003": "16013", "P29_004": "しおかこども園", "P29_005": "長崎県平戸市鏡川町127-1", "P29_006": "4", "P29_007": "0", "P29_008": "00", "P29_009": null }, "geometry": { "type": "Point", "coordinates": [ 129.542399003127542, 33.375487999637706 ] } },
{ "type": "Feature", "properties": { "P29_001": "42207", "P29_002": "A242310000731", "P29_003": "16013", "P29_004": "幼保連携型認定こども園めばえ", "P29_005": "長崎県平戸市生月町里免3134-3", "P29_006": "4", "P29_007": "0", "P29_008": "00", "P29_009": null }, "geometry": { "type": "Point", "coordinates": [ 129.431651837488829, 33.393420754708522 ] } },
{ "type": "Feature", "properties": { "P29_001": "42207", "P29_002": "A242310000740", "P29_003": "16013", "P29_004": "みのりこども園", "P29_005": "長崎県平戸市鏡川町252", "P29_006": "4", "P29_007": "0", "P29_008": "00", "P29_009": null }, "geometry": { "type": "Point", "coordinates": [ 129.551486996781023, 33.370819001136262 ] } },
{ "type": "Feature", "properties": { "P29_001": "42208", "P29_002": "A242310000759", "P29_003": "16013", "P29_004": "幼保連携型認定こども園たのしか保育園", "P29_005": "長崎県松浦市志佐町栢木免1725", "P29_006": "4", "P29_007": "0", "P29_008": "00", "P29_009": null }, "geometry": { "type": "Point", "coordinates": [ 129.708981004438613, 33.32581400033115 ] } },
{ "type": "Feature", "properties": { "P29_001": "42212", "P29_002": "A242310000768", "P29_003": "16013", "P29_004": "幼保連携型認定こども園こむかえこども園", "P29_005": "長崎県西海市西彼町小迎郷2734-1", "P29_006": "4", "P29_007": "0", "P29_008": "00", "P29_009": null }, "geometry": { "type": "Point", "coordinates": [ 129.746999000107365, 33.043510998908268 ] } },
{ "type": "Feature", "properties": { "P29_001": "42391", "P29_002": "A242310000777", "P29_003": "16013", "P29_004": "幼保連携型認定こども園佐々青い実幼児園", "P29_005": "長崎県北松浦郡佐々町市場免113-7", "P29_006": "4", "P29_007": "0", "P29_008": "00", "P29_009": null }, "geometry": { "type": "Point", "coordinates": [ 129.645978695572609, 33.235037248350096 ] } },
{ "type": "Feature", "properties": { "P29_001": "42201", "P29_002": "A242310000786", "P29_003": "16013", "P29_004": "くるみ幼稚園", "P29_005": "長崎県長崎市片淵3-11-7", "P29_006": "4", "P29_007": "0", "P29_008": "00", "P29_009": null }, "geometry": { "type": "Point", "coordinates": [ 129.890539857207926, 32.758825340415413 ] } },
{ "type": "Feature", "properties": { "P29_001": "42201", "P29_002": "A242310000795", "P29_003": "16013", "P29_004": "あぜかりこども園", "P29_005": "長崎県長崎市畝刈町1005", "P29_006": "4", "P29_007": "0", "P29_008": "00", "P29_009": null }, "geometry": { "type": "Point", "coordinates": [ 129.780295017385953, 32.830493764941181 ] } },
{ "type": "Feature", "properties": { "P29_001": "42201", "P29_002": "A242310000802", "P29_003": "16013", "P29_004": "幼保連携型認定こども園大浦保育園", "P29_005": "長崎県長崎市東山町5-1", "P29_006": "4", "P29_007": "0", "P29_008": "00", "P29_009": null }, "geometry": { "type": "Point", "coordinates": [ 129.873725243757548, 32.733746198005953 ] } },
{ "type": "Feature", "properties": { "P29_001": "42201", "P29_002": "A242310000811", "P29_003": "16013", "P29_004": "花園こども園", "P29_005": "長崎県長崎市花園町7-17", "P29_006": "4", "P29_007": "0", "P29_008": "00", "P29_009": null }, "geometry": { "type": "Point", "coordinates": [ 129.851180497834605, 32.772586194379734 ] } },
{ "type": "Feature", "properties": { "P29_001": "42201", "P29_002": "A242310000820", "P29_003": "16013", "P29_004": "幼保連携型認定こども園三京えのきこども園", "P29_005": "長崎県長崎市三京町805", "P29_006": "4", "P29_007": "0", "P29_008": "00", "P29_009": null }, "geometry": { "type": "Point", "coordinates": [ 129.759024225955557, 32.823578840307086 ] } },
{ "type": "Feature", "properties": { "P29_001": "42202", "P29_002": "A242310000839", "P29_003": "16013", "P29_004": "幼保連携型認定こども園昭徳こども園", "P29_005": "長崎県佐世保市長畑町396-1", "P29_006": "4", "P29_007": "0", "P29_008": "00", "P29_009": null }, "geometry": { "type": "Point", "coordinates": [ 129.802896315785063, 33.085175798951205 ] } },
{ "type": "Feature", "properties": { "P29_001": "42203", "P29_002": "A242310000848", "P29_003": "16013", "P29_004": "認定こども園島原幼稚園", "P29_005": "長崎県島原市弁天町1-107", "P29_006": "4", "P29_007": "0", "P29_008": "00", "P29_009": null }, "geometry": { "type": "Point", "coordinates": [ 130.371651501671096, 32.78372727409522 ] } },
{ "type": "Feature", "properties": { "P29_001": "42205", "P29_002": "A242310000857", "P29_003": "16013", "P29_004": "いけだこども園", "P29_005": "長崎県大村市池田新町763-85", "P29_006": "4", "P29_007": "0", "P29_008": "00", "P29_009": null }, "geometry": { "type": "Point", "coordinates": [ 129.965295000597592, 32.927512998498528 ] } },
{ "type": "Feature", "properties": { "P29_001": "42201", "P29_002": "A242310000866", "P29_003": "16013", "P29_004": "かき道ピノキオこども園乳児分室りんごの木", "P29_005": "長崎県長崎市かき道2-57-16", "P29_006": "4", "P29_007": "0", "P29_008": "00", "P29_009": null }, "geometry": { "type": "Point", "coordinates": [ 129.961859257644562, 32.773384273373097 ] } },
{ "type": "Feature", "properties": { "P29_001": "42201", "P29_002": "A242310000875", "P29_003": "16013", "P29_004": "赤迫こども園", "P29_005": "長崎県長崎市住吉台町11-1", "P29_006": "4", "P29_007": "0", "P29_008": "00", "P29_009": null }, "geometry": { "type": "Point", "coordinates": [ 129.857877345076048, 32.794382442229178 ] } },
{ "type": "Feature", "properties": { "P29_001": "42205", "P29_002": "A242310000884", "P29_003": "16013", "P29_004": "福重みょうせんじこども園", "P29_005": "長崎県大村市福重町142-1", "P29_006": "4", "P29_007": "0", "P29_008": "00", "P29_009": null }, "geometry": { "type": "Point", "coordinates": [ 129.952635174854152, 32.965112988984124 ] } },
{ "type": "Feature", "properties": { "P29_001": "42207", "P29_002": "A242310000893", "P29_003": "16013", "P29_004": "幼保連携型認定こども園小鳩こども園", "P29_005": "長崎県平戸市辻町205", "P29_006": "4", "P29_007": "0", "P29_008": "00", "P29_009": null }, "geometry": { "type": "Point", "coordinates": [ 129.425061999406523, 33.220607000671286 ] } },
{ "type": "Feature", "properties": { "P29_001": "42208", "P29_002": "A242310000900", "P29_003": "16013", "P29_004": "幼保連携型認定こども園みくりや双葉園", "P29_005": "長崎県松浦市御厨町前田免541-1", "P29_006": "4", "P29_007": "0", "P29_008": "00", "P29_009": null }, "geometry": { "type": "Point", "coordinates": [ 129.662566790753061, 33.361968792245953 ] } },
{ "type": "Feature", "properties": { "P29_001": "42205", "P29_002": "A242310000919", "P29_003": "16013", "P29_004": "幼保連携型認定こども園ふるまちこども園", "P29_005": "長崎県大村市古町1-33-3", "P29_006": "4", "P29_007": "0", "P29_008": "00", "P29_009": null }, "geometry": { "type": "Point", "coordinates": [ 129.955009794126795, 32.917062571346733 ] } },
{ "type": "Feature", "properties": { "P29_001": "42207", "P29_002": "A242310000928", "P29_003": "16013", "P29_004": "幼保連携型花園認定こども園", "P29_005": "長崎県平戸市田平町下亀免968-1", "P29_006": "4", "P29_007": "0", "P29_008": "00", "P29_009": null }, "geometry": { "type": "Point", "coordinates": [ 129.610151003615812, 33.355494001326505 ] } },
{ "type": "Feature", "properties": { "P29_001": "42211", "P29_002": "A242310000937", "P29_003": "16013", "P29_004": "幼保連携型認定こども園恵プラザこども園", "P29_005": "長崎県五島市木場町653-2", "P29_006": "4", "P29_007": "0", "P29_008": "00", "P29_009": null }, "geometry": { "type": "Point", "coordinates": [ 128.83266806598661, 32.694329374936643 ] } },
{ "type": "Feature", "properties": { "P29_001": "42212", "P29_002": "A242310000946", "P29_003": "16013", "P29_004": "幼保連携型認定こども園瀬川こども園", "P29_005": "長崎県西海市西海町丹納郷2766-5", "P29_006": "4", "P29_007": "0", "P29_008": "00", "P29_009": null }, "geometry": { "type": "Point", "coordinates": [ 129.702601816232971, 33.059393511251884 ] } },
{ "type": "Feature", "properties": { "P29_001": "42307", "P29_002": "A242310000955", "P29_003": "16013", "P29_004": "認定こども園あやめ幼稚園", "P29_005": "長崎県西彼杵郡長与町嬉里郷855", "P29_006": "4", "P29_007": "0", "P29_008": "00", "P29_009": null }, "geometry": { "type": "Point", "coordinates": [ 129.871248403902001, 32.831307430096658 ] } },
{ "type": "Feature", "properties": { "P29_001": "42201", "P29_002": "A242310000964", "P29_003": "16013", "P29_004": "聖母の騎士幼稚園", "P29_005": "長崎県長崎市本河内2-2-2", "P29_006": "4", "P29_007": "0", "P29_008": "00", "P29_009": null }, "geometry": { "type": "Point", "coordinates": [ 129.898352898694867, 32.750133934445316 ] } },
{ "type": "Feature", "properties": { "P29_001": "42201", "P29_002": "A242310000973", "P29_003": "16013", "P29_004": "認定こども園女の都幼稚園", "P29_005": "長崎県長崎市女の都4-12-5", "P29_006": "4", "P29_007": "0", "P29_008": "00", "P29_009": null }, "geometry": { "type": "Point", "coordinates": [ 129.881618444447611, 32.804657729108492 ] } },
{ "type": "Feature", "properties": { "P29_001": "42202", "P29_002": "A242310000982", "P29_003": "16013", "P29_004": "双葉こども園", "P29_005": "長崎県佐世保市広田3-31-11", "P29_006": "4", "P29_007": "0", "P29_008": "00", "P29_009": null }, "geometry": { "type": "Point", "coordinates": [ 129.803238193310222, 33.120823405168856 ] } },
{ "type": "Feature", "properties": { "P29_001": "42202", "P29_002": "A242310000991", "P29_003": "16013", "P29_004": "幼保連携型認定こども園ＣＡＮＤＹこども園", "P29_005": "長崎県佐世保市上町3-16", "P29_006": "4", "P29_007": "0", "P29_008": "00", "P29_009": null }, "geometry": { "type": "Point", "coordinates": [ 129.713984315277543, 33.17626189540632 ] } },
{ "type": "Feature", "properties": { "P29_001": "42205", "P29_002": "A242310001008", "P29_003": "16013", "P29_004": "エミー認定こども園", "P29_005": "長崎県大村市池田2-925-15", "P29_006": "4", "P29_007": "0", "P29_008": "00", "P29_009": null }, "geometry": { "type": "Point", "coordinates": [ 129.971876470795706, 32.929037431984298 ] } },
{ "type": "Feature", "properties": { "P29_001": "42208", "P29_002": "A242310001017", "P29_003": "16013", "P29_004": "今福こども園", "P29_005": "長崎県松浦市今福町東免2681-1", "P29_006": "4", "P29_007": "0", "P29_008": "00", "P29_009": null }, "geometry": { "type": "Point", "coordinates": [ 129.771469988282206, 33.349197253141753 ] } },
{ "type": "Feature", "properties": { "P29_001": "42211", "P29_002": "A242310001026", "P29_003": "16013", "P29_004": "幼保連携型認定こども園こもれびの舎こども園", "P29_005": "長崎県五島市下大津町550-3", "P29_006": "4", "P29_007": "0", "P29_008": "00", "P29_009": null }, "geometry": { "type": "Point", "coordinates": [ 128.856898143390509, 32.686224643521598 ] } },
{ "type": "Feature", "properties": { "P29_001": "42201", "P29_002": "A242310001035", "P29_003": "16013", "P29_004": "幼保連携型認定こども園小ヶ倉こども園", "P29_005": "長崎県長崎市小ヶ倉2-390", "P29_006": "4", "P29_007": "0", "P29_008": "00", "P29_009": null }, "geometry": { "type": "Point", "coordinates": [ 129.85201505252553, 32.704789024667079 ] } },
{ "type": "Feature", "properties": { "P29_001": "42201", "P29_002": "A242310001044", "P29_003": "16013", "P29_004": "幼保連携型認定こども園滑石保育園", "P29_005": "長崎県長崎市滑石5-2-31", "P29_006": "4", "P29_007": "0", "P29_008": "00", "P29_009": null }, "geometry": { "type": "Point", "coordinates": [ 129.837299668453028, 32.806289401107669 ] } },
{ "type": "Feature", "properties": { "P29_001": "42201", "P29_002": "A242310001053", "P29_003": "16013", "P29_004": "聖母マリアこども園", "P29_005": "長崎県長崎市若草町6-5", "P29_006": "4", "P29_007": "0", "P29_008": "00", "P29_009": null }, "geometry": { "type": "Point", "coordinates": [ 129.851652550922722, 32.775719449633343 ] } },
{ "type": "Feature", "properties": { "P29_001": "42204", "P29_002": "A242310001062", "P29_003": "16013", "P29_004": "認定こども園サンタの家", "P29_005": "長崎県諫早市幸町59-1", "P29_006": "4", "P29_007": "0", "P29_008": "00", "P29_009": null }, "geometry": { "type": "Point", "coordinates": [ 130.069839782842081, 32.838542465897888 ] } },
{ "type": "Feature", "properties": { "P29_001": "42204", "P29_002": "A242310001071", "P29_003": "16013", "P29_004": "幼保連携型認定こども園ながたこども園", "P29_005": "長崎県諫早市長田町2434", "P29_006": "4", "P29_007": "0", "P29_008": "00", "P29_009": null }, "geometry": { "type": "Point", "coordinates": [ 130.078436645470816, 32.862270369542486 ] } },
{ "type": "Feature", "properties": { "P29_001": "42201", "P29_002": "A242310001080", "P29_003": "16013", "P29_004": "幼保連携型認定こども園たんぽぽこども園", "P29_005": "長崎県長崎市出雲3-1-39", "P29_006": "4", "P29_007": "0", "P29_008": "00", "P29_009": null }, "geometry": { "type": "Point", "coordinates": [ 129.871467658907619, 32.725675441721592 ] } }
]
}
