{
"type": "FeatureCollection",
"name": "geo_42_短期入所生活介護",
"crs": { "type": "name", "properties": { "name": "urn:ogc:def:crs:OGC:1.3:CRS84" } },
"features": [
{ "type": "Feature", "properties": { "内容": "ショートステイことほぎ【短期入所生活介護】長崎県長崎市高尾町46番33号", "url": "https://www.kaigokensaku.mhlw.go.jp/42/index.php?action_kouhyou_detail_004_kani=true&JigyosyoCd=4270109541-00&ServiceCd=210&Type=search", "url2": "http://yuujyu-m.jp/" }, "geometry": { "type": "Point", "coordinates": [ 129.8766968, 32.7801243 ] } },
{ "type": "Feature", "properties": { "内容": "ショートステイ　たちばなベイ【短期入所生活介護】長崎県長崎市網場町487番8たちばなベイクリニック", "url": "https://www.kaigokensaku.mhlw.go.jp/42/index.php?action_kouhyou_detail_004_kani=true&JigyosyoCd=4270110648-00&ServiceCd=210&Type=search", "url2": "http://imamura-group.co.jp/" }, "geometry": { "type": "Point", "coordinates": [ 129.946308999336225, 32.755269422683391 ] } },
{ "type": "Feature", "properties": { "内容": "介護老人保健施設　東長崎ナーシングホーム【短期入所生活介護】長崎県長崎市東町1893-5", "url": "https://www.kaigokensaku.mhlw.go.jp/42/index.php?action_kouhyou_detail_004_kani=true&JigyosyoCd=4270136346-00&ServiceCd=210&Type=search", "url2": "http://fusoukai.jp/" }, "geometry": { "type": "Point", "coordinates": [ 129.956445800000012, 32.7791691 ] } },
{ "type": "Feature", "properties": { "内容": "こくら庵【短期入所生活介護】長崎県長崎市興善町5番1号", "url": "https://www.kaigokensaku.mhlw.go.jp/42/index.php?action_kouhyou_detail_004_kani=true&JigyosyoCd=4270108428-00&ServiceCd=210&Type=search", "url2": "http://kokuraan.or.jp/" }, "geometry": { "type": "Point", "coordinates": [ 129.87656990000005, 32.7480664 ] } },
{ "type": "Feature", "properties": { "内容": "ショートステイ王樹【短期入所生活介護】長崎県長崎市古賀町993番地3", "url": "https://www.kaigokensaku.mhlw.go.jp/42/index.php?action_kouhyou_detail_004_kani=true&JigyosyoCd=4270108204-00&ServiceCd=210&Type=search", "url2": "http://life-des.com/enju/" }, "geometry": { "type": "Point", "coordinates": [ 129.957598500000017, 32.7982299 ] } },
{ "type": "Feature", "properties": { "内容": "ショートステイ清原岩見町【短期入所生活介護】長崎県長崎市岩見町20-33岩見町リハビリセンター　3F", "url": "https://www.kaigokensaku.mhlw.go.jp/42/index.php?action_kouhyou_detail_004_kani=true&JigyosyoCd=4270111315-00&ServiceCd=210&Type=search", "url2": "http://kiyohararyu-naika.com" }, "geometry": { "type": "Point", "coordinates": [ 129.854174199999989, 32.7701665 ] } },
{ "type": "Feature", "properties": { "内容": "ショートステイならの木【短期入所生活介護】長崎県長崎市南山手町12番43号", "url": "https://www.kaigokensaku.mhlw.go.jp/42/index.php?action_kouhyou_detail_004_kani=true&JigyosyoCd=4270111182-00&ServiceCd=210&Type=search", "url2": "http://www.naranoki.org/" }, "geometry": { "type": "Point", "coordinates": [ 129.866637500000024, 32.7326758 ] } },
{ "type": "Feature", "properties": { "内容": "ショートステイ　エルフ山の手【短期入所生活介護】長崎県長崎市戸町１丁目5-4エルフ山の手", "url": "https://www.kaigokensaku.mhlw.go.jp/42/index.php?action_kouhyou_detail_004_kani=true&JigyosyoCd=4270108386-00&ServiceCd=210&Type=search", "url2": "http://elf-yamanote.jimdo.com/" }, "geometry": { "type": "Point", "coordinates": [ 129.860388100000023, 32.7250068 ] } },
{ "type": "Feature", "properties": { "内容": "ショートステイあいおい「立山荘」【短期入所生活介護】長崎県長崎市立山５丁目１７番５３号", "url": "https://www.kaigokensaku.mhlw.go.jp/42/index.php?action_kouhyou_detail_004_kani=true&JigyosyoCd=4270110804-00&ServiceCd=210&Type=search", "url2": "http://tateyamaso.com" }, "geometry": { "type": "Point", "coordinates": [ 129.8788667, 32.7615597 ] } },
{ "type": "Feature", "properties": { "内容": "ショートステイあいおい「立山荘Ⅱ」【短期入所生活介護】長崎県長崎市立山５丁目１７番５３号", "url": "https://www.kaigokensaku.mhlw.go.jp/42/index.php?action_kouhyou_detail_004_kani=true&JigyosyoCd=4270112305-00&ServiceCd=210&Type=search", "url2": "http://tateyamaso.com/" }, "geometry": { "type": "Point", "coordinates": [ 129.8786459, 32.7615228 ] } },
{ "type": "Feature", "properties": { "内容": "短期入所生活介護事業所　マーガレット【短期入所生活介護】長崎県長崎市網場町４８５-１", "url": "https://www.kaigokensaku.mhlw.go.jp/42/index.php?action_kouhyou_detail_004_kani=true&JigyosyoCd=4270106679-00&ServiceCd=210&Type=search", "url2": "http://imamura-group.co.jp/marguerite/" }, "geometry": { "type": "Point", "coordinates": [ 129.946697699999959, 32.7544502 ] } },
{ "type": "Feature", "properties": { "内容": "介護支援センターながさき　ショートステイ福田【短期入所生活介護】長崎県長崎市小浦町4番地11", "url": "https://www.kaigokensaku.mhlw.go.jp/42/index.php?action_kouhyou_detail_004_kani=true&JigyosyoCd=4270111539-00&ServiceCd=210&Type=search", "url2": "https://www.human-nw.com/" }, "geometry": { "type": "Point", "coordinates": [ 129.826760400000012, 32.7463348 ] } },
{ "type": "Feature", "properties": { "内容": "戸町ふくし村ショートステイ【短期入所生活介護】長崎県長崎市戸町４丁目７番２０号", "url": "https://www.kaigokensaku.mhlw.go.jp/42/index.php?action_kouhyou_detail_004_kani=true&JigyosyoCd=4270104609-00&ServiceCd=210&Type=search", "url2": "http://www.tomachi-fukushimura.com/" }, "geometry": { "type": "Point", "coordinates": [ 129.861538323076957, 32.72010011939053 ] } },
{ "type": "Feature", "properties": { "内容": "ショートステイさくらの里【短期入所生活介護】長崎県長崎市三京町1539番地1", "url": "https://www.kaigokensaku.mhlw.go.jp/42/index.php?action_kouhyou_detail_004_kani=true&JigyosyoCd=4270105986-00&ServiceCd=210&Type=search", "url2": "http://www.sakuranosato.or.jp/web/main/shortstay.html" }, "geometry": { "type": "Point", "coordinates": [ 129.77213, 32.8345698 ] } },
{ "type": "Feature", "properties": { "内容": "ショ－トステイさくらの里ほほえみ【短期入所生活介護】長崎県長崎市三京町２９６４番地２", "url": "https://www.kaigokensaku.mhlw.go.jp/42/index.php?action_kouhyou_detail_004_kani=true&JigyosyoCd=4270108261-00&ServiceCd=210&Type=search", "url2": "http://www.sakuranosato.or.jp" }, "geometry": { "type": "Point", "coordinates": [ 129.770507899999984, 32.8341949 ] } },
{ "type": "Feature", "properties": { "内容": "ショートステイ女神乃里【短期入所生活介護】長崎県長崎市国分町８番２９号", "url": "https://www.kaigokensaku.mhlw.go.jp/42/index.php?action_kouhyou_detail_004_kani=true&JigyosyoCd=4270112347-00&ServiceCd=210&Type=search", "url2": "sayurikai.jp" }, "geometry": { "type": "Point", "coordinates": [ 129.8591729, 32.7247992 ] } },
{ "type": "Feature", "properties": { "内容": "特別養護老人ホーム　寿限無【短期入所生活介護】長崎県長崎市琴海村松町704番地3", "url": "https://www.kaigokensaku.mhlw.go.jp/42/index.php?action_kouhyou_detail_004_kani=true&JigyosyoCd=4270107859-00&ServiceCd=210&Type=search", "url2": "https://www.seihikai.jp/" }, "geometry": { "type": "Point", "coordinates": [ 129.786992199999986, 32.8636756 ] } },
{ "type": "Feature", "properties": { "内容": "ショートステイよつば【短期入所生活介護】長崎県長崎市滑石５丁目9番51号介護付有料老人ホームよつば", "url": "https://www.kaigokensaku.mhlw.go.jp/42/index.php?action_kouhyou_detail_004_kani=true&JigyosyoCd=4270135629-00&ServiceCd=210&Type=search", "url2": "https://kouranosato.com/workplace/ss-yotsuba" }, "geometry": { "type": "Point", "coordinates": [ 129.8333136, 32.8041739 ] } },
{ "type": "Feature", "properties": { "内容": "短期入所生活介護事業所　古賀の里【短期入所生活介護】長崎県長崎市古賀町806-2", "url": "https://www.kaigokensaku.mhlw.go.jp/42/index.php?action_kouhyou_detail_004_kani=true&JigyosyoCd=4270100441-00&ServiceCd=210&Type=search", "url2": "http://www.koganosato.jp/" }, "geometry": { "type": "Point", "coordinates": [ 129.961251100000027, 32.7971717 ] } },
{ "type": "Feature", "properties": { "内容": "介護老人福祉施設　牧島荘【短期入所生活介護】長崎県長崎市牧島町9番地1", "url": "https://www.kaigokensaku.mhlw.go.jp/42/index.php?action_kouhyou_detail_004_kani=true&JigyosyoCd=4270102173-00&ServiceCd=210&Type=search", "url2": "http://www.makishima.org" }, "geometry": { "type": "Point", "coordinates": [ 129.987475899999936, 32.7498791 ] } },
{ "type": "Feature", "properties": { "内容": "特別養護老人ホーム　琴の浦荘【短期入所生活介護】長崎県長崎市琴海戸根町743番地47", "url": "https://www.kaigokensaku.mhlw.go.jp/42/index.php?action_kouhyou_detail_004_kani=true&JigyosyoCd=4270106901-00&ServiceCd=210&Type=search", "url2": "http://www.gounkai.or.jp" }, "geometry": { "type": "Point", "coordinates": [ 129.791689612828122, 32.88786622944761 ] } },
{ "type": "Feature", "properties": { "内容": "特別養護老人ホーム緑風【短期入所生活介護】長崎県長崎市風頭町1番27号", "url": "https://www.kaigokensaku.mhlw.go.jp/42/index.php?action_kouhyou_detail_004_kani=true&JigyosyoCd=4270111299-00&ServiceCd=210&Type=search", "url2": "http://www.gounkai.or.jp/ryokufu/" }, "geometry": { "type": "Point", "coordinates": [ 129.889366399999972, 32.741684 ] } },
{ "type": "Feature", "properties": { "内容": "サンク・ド・滑石　短期入所生活介護【短期入所生活介護】長崎県長崎市滑石５丁目５番５号", "url": "https://www.kaigokensaku.mhlw.go.jp/42/index.php?action_kouhyou_detail_004_kani=true&JigyosyoCd=4270108014-00&ServiceCd=210&Type=search", "url2": "http://www.mizuhokai.jp/" }, "geometry": { "type": "Point", "coordinates": [ 129.8349455, 32.8062484 ] } },
{ "type": "Feature", "properties": { "内容": "エルダーみずほ【短期入所生活介護】長崎県長崎市岩屋町４５－１", "url": "https://www.kaigokensaku.mhlw.go.jp/42/index.php?action_kouhyou_detail_004_kani=true&JigyosyoCd=4270102009-00&ServiceCd=210&Type=search", "url2": "http://www.mizuhokai.jp" }, "geometry": { "type": "Point", "coordinates": [ 129.848525500000051, 32.7998018 ] } },
{ "type": "Feature", "properties": { "内容": "短期入所生活介護プレジールの丘【短期入所生活介護】長崎県長崎市立山2丁目16番5号", "url": "https://www.kaigokensaku.mhlw.go.jp/42/index.php?action_kouhyou_detail_004_kani=true&JigyosyoCd=4270106000-00&ServiceCd=210&Type=search", "url2": "http://www.juyoukai.com/" }, "geometry": { "type": "Point", "coordinates": [ 129.876628100000062, 32.754913 ] } },
{ "type": "Feature", "properties": { "内容": "短期入所生活介護事業所こえばる【短期入所生活介護】長崎県長崎市小江原4丁目1番30号", "url": "https://www.kaigokensaku.mhlw.go.jp/42/index.php?action_kouhyou_detail_004_kani=true&JigyosyoCd=4270105176-00&ServiceCd=210&Type=search", "url2": "http://syuhoukai.jp" }, "geometry": { "type": "Point", "coordinates": [ 129.83228859999997, 32.7836367 ] } },
{ "type": "Feature", "properties": { "内容": "短期入所生活介護　なの花【短期入所生活介護】長崎県長崎市さくらの里2丁目27番22号", "url": "https://www.kaigokensaku.mhlw.go.jp/42/index.php?action_kouhyou_detail_004_kani=true&JigyosyoCd=4270107941-00&ServiceCd=210&Type=search", "url2": "http://www.shunkoukai.com/" }, "geometry": { "type": "Point", "coordinates": [ 129.76433320000001, 32.8351976 ] } },
{ "type": "Feature", "properties": { "内容": "青葉苑　短期入所介護【短期入所生活介護】長崎県長崎市戸町4丁目７番１７号", "url": "https://www.kaigokensaku.mhlw.go.jp/42/index.php?action_kouhyou_detail_004_kani=true&JigyosyoCd=4270103072-00&ServiceCd=210&Type=search", "url2": "http://aoba-en.jp" }, "geometry": { "type": "Point", "coordinates": [ 129.861302099999989, 32.7197101 ] } },
{ "type": "Feature", "properties": { "内容": "望星荘【短期入所生活介護】長崎県長崎市岩屋町745-4", "url": "https://www.kaigokensaku.mhlw.go.jp/42/index.php?action_kouhyou_detail_004_kani=true&JigyosyoCd=4270103916-00&ServiceCd=210&Type=search", "url2": "https://short.bouseisou@bouseisou.jp" }, "geometry": { "type": "Point", "coordinates": [ 129.845267700000022, 32.7948607 ] } },
{ "type": "Feature", "properties": { "内容": "ショートステイいこいの園【短期入所生活介護】長崎県長崎市牧野町２１６８番地５", "url": "https://www.kaigokensaku.mhlw.go.jp/42/index.php?action_kouhyou_detail_004_kani=true&JigyosyoCd=4270112206-00&ServiceCd=210&Type=search", "url2": "https://kagurakai.or.jp" }, "geometry": { "type": "Point", "coordinates": [ 129.7993941, 32.7963978 ] } },
{ "type": "Feature", "properties": { "内容": "喜楽苑短期入所生活介護事業所【短期入所生活介護】長崎県長崎市竿浦町945番地", "url": "https://www.kaigokensaku.mhlw.go.jp/42/index.php?action_kouhyou_detail_004_kani=true&JigyosyoCd=4270101134-00&ServiceCd=210&Type=search", "url2": "http://www.kirakuen-nagasaki.jp/" }, "geometry": { "type": "Point", "coordinates": [ 129.841201800000022, 32.6761885 ] } },
{ "type": "Feature", "properties": { "内容": "ショートステイサンハイツ青山中央【短期入所生活介護】長崎県長崎市青山町14番1号", "url": "https://www.kaigokensaku.mhlw.go.jp/42/index.php?action_kouhyou_detail_004_kani=true&JigyosyoCd=4270108410-00&ServiceCd=210&Type=search", "url2": "http://www.sanhaitsu.jp/" }, "geometry": { "type": "Point", "coordinates": [ 129.851335100000028, 32.7761851 ] } },
{ "type": "Feature", "properties": { "内容": "ショートステイサンハイツ城栄【短期入所生活介護】長崎県長崎市富士見町23番13号", "url": "https://www.kaigokensaku.mhlw.go.jp/42/index.php?action_kouhyou_detail_004_kani=true&JigyosyoCd=4270136254-00&ServiceCd=210&Type=search", "url2": "http://www.sanhaitsu.jp/" }, "geometry": { "type": "Point", "coordinates": [ 129.8535516, 32.7732986 ] } },
{ "type": "Feature", "properties": { "内容": "ショートステイサンハイツ【短期入所生活介護】長崎県長崎市油木町65番地14", "url": "https://www.kaigokensaku.mhlw.go.jp/42/index.php?action_kouhyou_detail_004_kani=true&JigyosyoCd=4270100821-00&ServiceCd=210&Type=search", "url2": "http://www.sanhaitsu.jp/" }, "geometry": { "type": "Point", "coordinates": [ 129.844110300000011, 32.7803067 ] } },
{ "type": "Feature", "properties": { "内容": "みえ愛の郷ショートステイサービス【短期入所生活介護】長崎県長崎市三京町８１１番地１６", "url": "https://www.kaigokensaku.mhlw.go.jp/42/index.php?action_kouhyou_detail_004_kani=true&JigyosyoCd=4270108097-00&ServiceCd=210&Type=search", "url2": "n-aishinkai-jimu@sirius.ocn.ne.jp" }, "geometry": { "type": "Point", "coordinates": [ 129.7569674, 32.8221626 ] } },
{ "type": "Feature", "properties": { "内容": "鶴舞苑　ショートステイセンター【短期入所生活介護】長崎県長崎市秋月町３８９番地１", "url": "https://www.kaigokensaku.mhlw.go.jp/42/index.php?action_kouhyou_detail_004_kani=true&JigyosyoCd=4270101654-00&ServiceCd=210&Type=search", "url2": "http://www.nagasaki-kouseifukushidan.or.jp" }, "geometry": { "type": "Point", "coordinates": [ 129.851474400000029, 32.7475712 ] } },
{ "type": "Feature", "properties": { "内容": "ショートステイセンター　鶴舞苑II【短期入所生活介護】長崎県長崎市大谷町４１８番地１", "url": "https://www.kaigokensaku.mhlw.go.jp/42/index.php?action_kouhyou_detail_004_kani=true&JigyosyoCd=4270103742-00&ServiceCd=210&Type=search", "url2": "http://www.nagasaki-kouseifukushidan.or.jp/" }, "geometry": { "type": "Point", "coordinates": [ 129.850955, 32.7483184 ] } },
{ "type": "Feature", "properties": { "内容": "短期入所生活介護　橘の丘【短期入所生活介護】長崎県長崎市春日町２８４－２", "url": "https://www.kaigokensaku.mhlw.go.jp/42/index.php?action_kouhyou_detail_004_kani=true&JigyosyoCd=4270104922-00&ServiceCd=210&Type=search", "url2": "http://tachibananooka.jp/" }, "geometry": { "type": "Point", "coordinates": [ 129.952922700000045, 32.7420293 ] } },
{ "type": "Feature", "properties": { "内容": "ショートステイ　ヴィラージュかたふち【短期入所生活介護】長崎県長崎市片淵2丁目4番9号", "url": "https://www.kaigokensaku.mhlw.go.jp/42/index.php?action_kouhyou_detail_004_kani=true&JigyosyoCd=4270135579-00&ServiceCd=210&Type=search", "url2": "https://www.katafuchimura.or.jp/" }, "geometry": { "type": "Point", "coordinates": [ 129.8872398, 32.7557301 ] } },
{ "type": "Feature", "properties": { "内容": "短期入所生活介護事業所　かたふち村【短期入所生活介護】長崎県長崎市片淵３丁目５００番地2", "url": "https://www.kaigokensaku.mhlw.go.jp/42/index.php?action_kouhyou_detail_004_kani=true&JigyosyoCd=4270101340-00&ServiceCd=210&Type=search", "url2": "http://www.katafuchimura.or.jp/" }, "geometry": { "type": "Point", "coordinates": [ 129.894206899999972, 32.7661346 ] } },
{ "type": "Feature", "properties": { "内容": "ショートステイめざめ【短期入所生活介護】長崎県長崎市目覚町7番2号HCS長崎ビル", "url": "https://www.kaigokensaku.mhlw.go.jp/42/index.php?action_kouhyou_detail_004_kani=true&JigyosyoCd=4270111554-00&ServiceCd=210&Type=search", "url2": "http://www.shunkaikai.jp/mezame/" }, "geometry": { "type": "Point", "coordinates": [ 129.864806700000031, 32.7647312 ] } },
{ "type": "Feature", "properties": { "内容": "ショートステイ　みぎわほーむ【短期入所生活介護】長崎県長崎市片淵１丁目１３番２７号", "url": "https://www.kaigokensaku.mhlw.go.jp/42/index.php?action_kouhyou_detail_004_kani=true&JigyosyoCd=4270108741-00&ServiceCd=210&Type=search", "url2": "http://shirayukikai.jp" }, "geometry": { "type": "Point", "coordinates": [ 129.886752300000012, 32.7547327 ] } },
{ "type": "Feature", "properties": { "内容": "短期入所生活介護・プライエム横尾【短期入所生活介護】長崎県長崎市横尾3丁目26番1号", "url": "https://www.kaigokensaku.mhlw.go.jp/42/index.php?action_kouhyou_detail_004_kani=true&JigyosyoCd=4270100698-00&ServiceCd=210&Type=search", "url2": "http://www.heisei-kai.or.jp/" }, "geometry": { "type": "Point", "coordinates": [ 129.838572800000065, 32.8166475 ] } },
{ "type": "Feature", "properties": { "内容": "ショートステイ滑石【短期入所生活介護】長崎県長崎市滑石6丁目4番3号", "url": "https://www.kaigokensaku.mhlw.go.jp/42/index.php?action_kouhyou_detail_004_kani=true&JigyosyoCd=4270105564-00&ServiceCd=210&Type=search", "url2": "http://www.heisei-kai.or.jp" }, "geometry": { "type": "Point", "coordinates": [ 129.834426200000053, 32.8035847 ] } },
{ "type": "Feature", "properties": { "内容": "短期入所生活介護・日見あけぼの荘【短期入所生活介護】長崎県長崎市宿町616番地1", "url": "https://www.kaigokensaku.mhlw.go.jp/42/index.php?action_kouhyou_detail_004_kani=true&JigyosyoCd=4270108089-00&ServiceCd=210&Type=search", "url2": "http://www.heisei-kai.or.jp/" }, "geometry": { "type": "Point", "coordinates": [ 129.937700800000016, 32.7603078 ] } },
{ "type": "Feature", "properties": { "内容": "社会福祉法人朋永会　指定短期入所生活介護事業所びわの園【短期入所生活介護】長崎県長崎市茂木町２２２２番地", "url": "https://www.kaigokensaku.mhlw.go.jp/42/index.php?action_kouhyou_detail_004_kani=true&JigyosyoCd=4270100912-00&ServiceCd=210&Type=search", "url2": "http://biwanosono.com" }, "geometry": { "type": "Point", "coordinates": [ 129.912710699999934, 32.6995432 ] } },
{ "type": "Feature", "properties": { "内容": "老人短期入所事業ひこばえ【短期入所生活介護】長崎県長崎市早坂町1180番地7", "url": "https://www.kaigokensaku.mhlw.go.jp/42/index.php?action_kouhyou_detail_004_kani=true&JigyosyoCd=4270135090-00&ServiceCd=210&Type=search", "url2": "http://hikobae-nagasaki.jp" }, "geometry": { "type": "Point", "coordinates": [ 129.9003434, 32.7344263 ] } },
{ "type": "Feature", "properties": { "内容": "老人短期入所事業ユニットひこばえ【短期入所生活介護】長崎県長崎市早坂町１１８０番地7", "url": "https://www.kaigokensaku.mhlw.go.jp/42/index.php?action_kouhyou_detail_004_kani=true&JigyosyoCd=4270110622-00&ServiceCd=210&Type=search", "url2": "http://hikobae-nagasaki.jp" }, "geometry": { "type": "Point", "coordinates": [ 129.9003434, 32.7344263 ] } },
{ "type": "Feature", "properties": { "内容": "恵珠苑　指定短期入所生活介護事業所【短期入所生活介護】長崎県長崎市田上2丁目15番12号", "url": "https://www.kaigokensaku.mhlw.go.jp/42/index.php?action_kouhyou_detail_004_kani=true&JigyosyoCd=4270100995-00&ServiceCd=210&Type=search", "url2": "http://yuukikai.jp/" }, "geometry": { "type": "Point", "coordinates": [ 129.886578099999952, 32.726513 ] } },
{ "type": "Feature", "properties": { "内容": "長崎県長崎市ダイヤランド3丁目31番8号【短期入所生活介護】長崎県長崎市ダイヤランド3丁目31番8号", "url": "https://www.kaigokensaku.mhlw.go.jp/42/index.php?action_kouhyou_detail_004_kani=true&JigyosyoCd=4270100920-00&ServiceCd=210&Type=search", "url2": "https://hazukikai.p-kit.com/" }, "geometry": { "type": "Point", "coordinates": [ 129.855085, 32.702619800000043 ] } },
{ "type": "Feature", "properties": { "内容": "特別養護老人ホームなでしこ荘短期入所生活介護事業所【短期入所生活介護】長崎県長崎市西山台2丁目32番47号", "url": "https://www.kaigokensaku.mhlw.go.jp/42/index.php?action_kouhyou_detail_004_kani=true&JigyosyoCd=4270101050-00&ServiceCd=210&Type=search", "url2": "http://www.nadeshikosou.com/" }, "geometry": { "type": "Point", "coordinates": [ 129.894398, 32.7828966 ] } },
{ "type": "Feature", "properties": { "内容": "短期入所生活介護事業所　古賀の里【短期入所生活介護】長崎県長崎市古賀町806-2", "url": "https://www.kaigokensaku.mhlw.go.jp/42/index.php?action_kouhyou_detail_004_kani=true&JigyosyoCd=4270109988-00&ServiceCd=210&Type=search", "url2": "http://www.koganosato.jp/" }, "geometry": { "type": "Point", "coordinates": [ 129.961251100000027, 32.7971717 ] } },
{ "type": "Feature", "properties": { "内容": "短期入所生活介護もくれん【短期入所生活介護】長崎県長崎市戸石町1683番地", "url": "https://www.kaigokensaku.mhlw.go.jp/42/index.php?action_kouhyou_detail_004_kani=true&JigyosyoCd=4270108055-00&ServiceCd=210&Type=search", "url2": "http://www.mokuren.or.jp/" }, "geometry": { "type": "Point", "coordinates": [ 129.980817600000023, 32.764572400000034 ] } },
{ "type": "Feature", "properties": { "内容": "ショートステイアスカ【短期入所生活介護】長崎県長崎市みなと坂1丁目5番6号", "url": "https://www.kaigokensaku.mhlw.go.jp/42/index.php?action_kouhyou_detail_004_kani=true&JigyosyoCd=4270109574-00&ServiceCd=210&Type=search", "url2": "https://asukafukushikai.jp/" }, "geometry": { "type": "Point", "coordinates": [ 129.839033699999959, 32.7292448 ] } },
{ "type": "Feature", "properties": { "内容": "短期入所施設　南陽の風【短期入所生活介護】長崎県長崎市蚊焼町649番地1", "url": "https://www.kaigokensaku.mhlw.go.jp/42/index.php?action_kouhyou_detail_004_kani=true&JigyosyoCd=4270109707-00&ServiceCd=210&Type=search", "url2": "http://www.nanyoukai.com/" }, "geometry": { "type": "Point", "coordinates": [ 129.824531, 32.661350400000018 ] } },
{ "type": "Feature", "properties": { "内容": "恵珠苑　指定短期入所生活介護事業所【短期入所生活介護】長崎県長崎市田上２丁目１５番１２号", "url": "https://www.kaigokensaku.mhlw.go.jp/42/index.php?action_kouhyou_detail_004_kani=true&JigyosyoCd=4270110010-00&ServiceCd=210&Type=search", "url2": "http://yuukikai.jp/" }, "geometry": { "type": "Point", "coordinates": [ 129.886578099999952, 32.726513 ] } },
{ "type": "Feature", "properties": { "内容": "短期入所生活介護ひまわり【短期入所生活介護】長崎県長崎市西出津町67番地5", "url": "https://www.kaigokensaku.mhlw.go.jp/42/index.php?action_kouhyou_detail_004_kani=true&JigyosyoCd=4270136155-00&ServiceCd=210&Type=search", "url2": null }, "geometry": { "type": "Point", "coordinates": [ 129.704561880140886, 32.852357773433063 ] } },
{ "type": "Feature", "properties": { "内容": "短期入所生活介護カリタス【短期入所生活介護】長崎県長崎市新牧野１３２番地１", "url": "https://www.kaigokensaku.mhlw.go.jp/42/index.php?action_kouhyou_detail_004_kani=true&JigyosyoCd=4270108568-00&ServiceCd=210&Type=search", "url2": null }, "geometry": { "type": "Point", "coordinates": [ 129.705026399999952, 32.8526114 ] } },
{ "type": "Feature", "properties": { "内容": "ショートステイむつみの燈【短期入所生活介護】長崎県長崎市京泊２丁目９番２２号", "url": "https://www.kaigokensaku.mhlw.go.jp/42/index.php?action_kouhyou_detail_004_kani=true&JigyosyoCd=4270111224-00&ServiceCd=210&Type=search", "url2": "http://tomomedical.net/" }, "geometry": { "type": "Point", "coordinates": [ 129.773803957810969, 32.821130846383014 ] } },
{ "type": "Feature", "properties": { "内容": "短期入所生活介護　厚生ライフ鳴見台【短期入所生活介護】長崎県長崎市鳴見台1丁目28-11", "url": "https://www.kaigokensaku.mhlw.go.jp/42/index.php?action_kouhyou_detail_004_kani=true&JigyosyoCd=4270107065-00&ServiceCd=210&Type=search", "url2": "https://www.kouseilife-nagasaki.net/" }, "geometry": { "type": "Point", "coordinates": [ 129.807047199999943, 32.8202189 ] } },
{ "type": "Feature", "properties": { "内容": "短期入所生活介護　しょ～とすてい　ひがなが【短期入所生活介護】長崎県長崎市矢上町30番3号", "url": "https://www.kaigokensaku.mhlw.go.jp/42/index.php?action_kouhyou_detail_004_kani=true&JigyosyoCd=4270106711-00&ServiceCd=210&Type=search", "url2": null }, "geometry": { "type": "Point", "coordinates": [ 129.951593900000034, 32.7781371 ] } },
{ "type": "Feature", "properties": { "内容": "ショートステイひなみ【短期入所生活介護】長崎県西彼杵郡時津町日並郷1915番地3", "url": "https://www.kaigokensaku.mhlw.go.jp/42/index.php?action_kouhyou_detail_004_kani=true&JigyosyoCd=4271102636-00&ServiceCd=210&Type=search", "url2": null }, "geometry": { "type": "Point", "coordinates": [ 129.822650899999985, 32.8452199 ] } },
{ "type": "Feature", "properties": { "内容": "短期入所生活介護事業所　　三和荘【短期入所生活介護】長崎市布巻町７９２番地", "url": "https://www.kaigokensaku.mhlw.go.jp/42/index.php?action_kouhyou_detail_004_kani=true&JigyosyoCd=4271100853-00&ServiceCd=210&Type=search", "url2": "http://www.minorikai.or.jp/sanwasou/index.html" }, "geometry": { "type": "Point", "coordinates": [ 129.829064199999948, 32.659559 ] } },
{ "type": "Feature", "properties": { "内容": "社会福祉法人　恵豊福祉会【短期入所生活介護】長崎県長崎市以下宿町1912番地", "url": "https://www.kaigokensaku.mhlw.go.jp/42/index.php?action_kouhyou_detail_004_kani=true&JigyosyoCd=4271100036-00&ServiceCd=210&Type=search", "url2": "https://care-net.biz/42/eijyu/" }, "geometry": { "type": "Point", "coordinates": [ 129.794064599999956, 32.6204003 ] } },
{ "type": "Feature", "properties": { "内容": "特別養護老人ホーム　椿ヶ丘荘【短期入所生活介護】長崎県長崎市神浦丸尾町1553番地", "url": "https://www.kaigokensaku.mhlw.go.jp/42/index.php?action_kouhyou_detail_004_kani=true&JigyosyoCd=4271100721-00&ServiceCd=210&Type=search", "url2": "http://www.tsubakigaoka.jp/" }, "geometry": { "type": "Point", "coordinates": [ 129.688107899999977, 32.8812952 ] } },
{ "type": "Feature", "properties": { "内容": "ショートステイ・山の木【短期入所生活介護】長崎県長崎市横尾５丁目９番１８号", "url": "https://www.kaigokensaku.mhlw.go.jp/42/index.php?action_kouhyou_detail_004_kani=true&JigyosyoCd=4270108618-00&ServiceCd=210&Type=search", "url2": "http://www.keiaikai-nagasaki.or.jp/" }, "geometry": { "type": "Point", "coordinates": [ 129.826693, 32.8146504 ] } },
{ "type": "Feature", "properties": { "内容": "短期入所施設　さざ波【短期入所生活介護】長崎県長崎市野母町2283番地7", "url": "https://www.kaigokensaku.mhlw.go.jp/42/index.php?action_kouhyou_detail_004_kani=true&JigyosyoCd=4270110747-00&ServiceCd=210&Type=search", "url2": "https://kouyokai.jp/" }, "geometry": { "type": "Point", "coordinates": [ 129.753548899999942, 32.5796389 ] } },
{ "type": "Feature", "properties": { "内容": "ユニット型特別養護老人ホームやまのたサンタパーク【短期入所生活介護】長崎県佐世保市瀬戸越1丁目1444-1", "url": "https://www.kaigokensaku.mhlw.go.jp/42/index.php?action_kouhyou_detail_004_kani=true&JigyosyoCd=4270204664-00&ServiceCd=210&Type=search", "url2": "https://www.yohkohkai.or.jp/" }, "geometry": { "type": "Point", "coordinates": [ 129.7295087, 33.2023387 ] } },
{ "type": "Feature", "properties": { "内容": "介護老人保健施設すいざん荘【短期入所生活介護】長崎県佐世保市赤崎町74-2", "url": "https://www.kaigokensaku.mhlw.go.jp/42/index.php?action_kouhyou_detail_004_kani=true&JigyosyoCd=4250280031-00&ServiceCd=210&Type=search", "url2": "https://www.suizankai.com" }, "geometry": { "type": "Point", "coordinates": [ 129.693373899999983, 33.1648667 ] } },
{ "type": "Feature", "properties": { "内容": "社会福祉法人アソカ仁寿会　あそかのもり【短期入所生活介護】長崎県佐世保市松瀬町1150番地", "url": "https://www.kaigokensaku.mhlw.go.jp/42/index.php?action_kouhyou_detail_004_kani=true&JigyosyoCd=4270200225-00&ServiceCd=210&Type=search", "url2": "https://www.asoka-sasebo.com/" }, "geometry": { "type": "Point", "coordinates": [ 129.73114973372958, 33.219622245099245 ] } },
{ "type": "Feature", "properties": { "内容": "社会福祉法人寛寿会（海南荘）【短期入所生活介護】長崎県佐世保市俵ヶ浦町210番地", "url": "https://www.kaigokensaku.mhlw.go.jp/42/index.php?action_kouhyou_detail_004_kani=true&JigyosyoCd=4270200134-00&ServiceCd=210&Type=search", "url2": "http://www.kainansou.com/" }, "geometry": { "type": "Point", "coordinates": [ 129.680183299999953, 33.1180546 ] } },
{ "type": "Feature", "properties": { "内容": "社会福祉法人　由起会　（ゆずの里）【短期入所生活介護】長崎県佐世保市上柚木町2515番地ゆずの里", "url": "https://www.kaigokensaku.mhlw.go.jp/42/index.php?action_kouhyou_detail_004_kani=true&JigyosyoCd=4270200423-00&ServiceCd=210&Type=search", "url2": "http://www.cos-mos.jp/cosmos/short" }, "geometry": { "type": "Point", "coordinates": [ 129.769651153303585, 33.211197278696687 ] } },
{ "type": "Feature", "properties": { "内容": "短期入所生活介護　ドリームステイかがやき【短期入所生活介護】長崎県佐世保市鹿子前町９０４－１", "url": "https://www.kaigokensaku.mhlw.go.jp/42/index.php?action_kouhyou_detail_004_kani=true&JigyosyoCd=4270200555-00&ServiceCd=210&Type=search", "url2": "http://www.hakuzyusou.or.jp" }, "geometry": { "type": "Point", "coordinates": [ 129.684780300000057, 33.1618836 ] } },
{ "type": "Feature", "properties": { "内容": "ショートステイさくらプレイス【短期入所生活介護】長崎県佐世保市吉井町直谷１２４２－２介護付有料老人ホームさくらプレイス", "url": "https://www.kaigokensaku.mhlw.go.jp/42/index.php?action_kouhyou_detail_004_kani=true&JigyosyoCd=4270204995-00&ServiceCd=210&Type=search", "url2": "www.sakura-place.jp" }, "geometry": { "type": "Point", "coordinates": [ 129.692838953960063, 33.279748340306568 ] } },
{ "type": "Feature", "properties": { "内容": "短期入所生活介護事業所　ナーシンングホーム日野【短期入所生活介護】長崎県佐世保市日野町856-10", "url": "https://www.kaigokensaku.mhlw.go.jp/42/index.php?action_kouhyou_detail_004_kani=true&JigyosyoCd=4270203591-00&ServiceCd=210&Type=search", "url2": "http://seiaikai-group.or.jp" }, "geometry": { "type": "Point", "coordinates": [ 129.676362444180313, 33.171289766210357 ] } },
{ "type": "Feature", "properties": { "内容": "ドリームステイのぞみ　短期入所生活介護事業所【短期入所生活介護】長崎県佐世保市大和町30番地3", "url": "https://www.kaigokensaku.mhlw.go.jp/42/index.php?action_kouhyou_detail_004_kani=true&JigyosyoCd=4270204714-00&ServiceCd=210&Type=search", "url2": null }, "geometry": { "type": "Point", "coordinates": [ 129.7470023, 33.15630160000002 ] } },
{ "type": "Feature", "properties": { "内容": "介護老人保健施設　長寿苑　短期入所生活介護【短期入所生活介護】長崎県佐世保市日宇町2835番地", "url": "https://www.kaigokensaku.mhlw.go.jp/42/index.php?action_kouhyou_detail_004_kani=true&JigyosyoCd=4270205612-00&ServiceCd=210&Type=search", "url2": "https://hakujyujikai.or.jp/tjn/" }, "geometry": { "type": "Point", "coordinates": [ 129.7677904, 33.1553734 ] } },
{ "type": "Feature", "properties": { "内容": "社会福祉法人　恭敬会　黎明館【短期入所生活介護】佐世保市小佐々町西川内１７５番地１", "url": "https://www.kaigokensaku.mhlw.go.jp/42/index.php?action_kouhyou_detail_004_kani=true&JigyosyoCd=4271500177-00&ServiceCd=210&Type=search", "url2": "http://reimei-kan.com" }, "geometry": { "type": "Point", "coordinates": [ 129.600168199999985, 33.2157884 ] } },
{ "type": "Feature", "properties": { "内容": "短期入所生活介護事業所　サンホーム江上【短期入所生活介護】長崎県佐世保市江上町4847-6", "url": "https://www.kaigokensaku.mhlw.go.jp/42/index.php?action_kouhyou_detail_004_kani=true&JigyosyoCd=4270200837-00&ServiceCd=210&Type=search", "url2": "http://koujukai.or.jp" }, "geometry": { "type": "Point", "coordinates": [ 129.7837816, 33.0699021 ] } },
{ "type": "Feature", "properties": { "内容": "ケアインファースト栄　ショートステイ【短期入所生活介護】長崎県佐世保市栄町5番9号", "url": "https://www.kaigokensaku.mhlw.go.jp/42/index.php?action_kouhyou_detail_004_kani=true&JigyosyoCd=4270204490-00&ServiceCd=210&Type=search", "url2": "http://sazagawa.com/" }, "geometry": { "type": "Point", "coordinates": [ 129.719592899999952, 33.1733992 ] } },
{ "type": "Feature", "properties": { "内容": "ショートステイ　たけんの【短期入所生活介護】長崎県佐世保市岳野町107-1", "url": "https://www.kaigokensaku.mhlw.go.jp/42/index.php?action_kouhyou_detail_004_kani=true&JigyosyoCd=4270203427-00&ServiceCd=210&Type=search", "url2": "http://takenno.com/" }, "geometry": { "type": "Point", "coordinates": [ 129.681087601852369, 33.217625978508835 ] } },
{ "type": "Feature", "properties": { "内容": "特別養護老人ホーム　パールホーム【短期入所生活介護】長崎県佐世保市世知原町栗迎1番地", "url": "https://www.kaigokensaku.mhlw.go.jp/42/index.php?action_kouhyou_detail_004_kani=true&JigyosyoCd=4271500615-00&ServiceCd=210&Type=search", "url2": "http:gps-fukushi.jp" }, "geometry": { "type": "Point", "coordinates": [ 129.746467200000012, 33.2586503 ] } },
{ "type": "Feature", "properties": { "内容": "短期入所生活介護あいのうら【短期入所生活介護】長崎県佐世保市相浦町６０６番地１", "url": "https://www.kaigokensaku.mhlw.go.jp/42/index.php?action_kouhyou_detail_004_kani=true&JigyosyoCd=4270205638-00&ServiceCd=210&Type=search", "url2": "https://syk.or.jo" }, "geometry": { "type": "Point", "coordinates": [ 129.6634104, 33.1940251 ] } },
{ "type": "Feature", "properties": { "内容": "ショートステイ横尾【短期入所生活介護】長崎県佐世保市横尾町2395-1", "url": "https://www.kaigokensaku.mhlw.go.jp/42/index.php?action_kouhyou_detail_004_kani=true&JigyosyoCd=4270204870-00&ServiceCd=210&Type=search", "url2": "http://www.n-yuaikai.jp" }, "geometry": { "type": "Point", "coordinates": [ 129.719254, 33.2002496 ] } },
{ "type": "Feature", "properties": { "内容": "社会福祉法人　長崎友愛会　はなの杜【短期入所生活介護】長崎県佐世保市福田町５９８－１", "url": "https://www.kaigokensaku.mhlw.go.jp/42/index.php?action_kouhyou_detail_004_kani=true&JigyosyoCd=4270203625-00&ServiceCd=210&Type=search", "url2": "http://www.n-yuaikai.jp/" }, "geometry": { "type": "Point", "coordinates": [ 129.7087024, 33.1823595 ] } },
{ "type": "Feature", "properties": { "内容": "特別養護老人ホーム　博仁荘【短期入所生活介護】長崎県佐世保市花高２丁目１番３５号", "url": "https://www.kaigokensaku.mhlw.go.jp/42/index.php?action_kouhyou_detail_004_kani=true&JigyosyoCd=4270200803-00&ServiceCd=210&Type=search", "url2": "http://sasebo-hakujinkai.or.jp/" }, "geometry": { "type": "Point", "coordinates": [ 129.808083399999987, 33.1439433 ] } },
{ "type": "Feature", "properties": { "内容": "老福荘ショートステイセンター【短期入所生活介護】長崎県佐世保市江迎町赤坂282番地24", "url": "https://www.kaigokensaku.mhlw.go.jp/42/index.php?action_kouhyou_detail_004_kani=true&JigyosyoCd=4271501324-00&ServiceCd=210&Type=search", "url2": "http://hakujyukai-emukae.jp/" }, "geometry": { "type": "Point", "coordinates": [ 129.640285400000039, 33.2967798 ] } },
{ "type": "Feature", "properties": { "内容": "特別養護老人ホーム　啓寿園【短期入所生活介護】長崎県佐世保市宇久町平１９０４番地３", "url": "https://www.kaigokensaku.mhlw.go.jp/42/index.php?action_kouhyou_detail_004_kani=true&JigyosyoCd=4271501118-00&ServiceCd=210&Type=search", "url2": "http://uku-fukujyukai.jp" }, "geometry": { "type": "Point", "coordinates": [ 129.127576399999953, 33.2659446 ] } },
{ "type": "Feature", "properties": { "内容": "介護老人保健施設ひまわり　短期入所生活介護【短期入所生活介護】長崎県佐世保市指方町5040番地3", "url": "https://www.kaigokensaku.mhlw.go.jp/42/index.php?action_kouhyou_detail_004_kani=true&JigyosyoCd=4270204607-00&ServiceCd=210&Type=search", "url2": "http://www.hoyukai.info/himawari/" }, "geometry": { "type": "Point", "coordinates": [ 129.784181, 33.091139 ] } },
{ "type": "Feature", "properties": { "内容": "特別養護老人ホーム花ぞ野　短期入所生活介護【短期入所生活介護】長崎県佐世保市折橋町54番地34", "url": "https://www.kaigokensaku.mhlw.go.jp/42/index.php?action_kouhyou_detail_004_kani=true&JigyosyoCd=4270201603-00&ServiceCd=210&Type=search", "url2": "https://www.yourouikuseikai.jp/" }, "geometry": { "type": "Point", "coordinates": [ 129.724005055294782, 33.184718316008414 ] } },
{ "type": "Feature", "properties": { "内容": "短期入所生活介護事業所　サクラ【短期入所生活介護】長崎県佐世保市八幡町1番地の2", "url": "https://www.kaigokensaku.mhlw.go.jp/42/index.php?action_kouhyou_detail_004_kani=true&JigyosyoCd=4270201694-00&ServiceCd=210&Type=search", "url2": "yourouikuseikai/" }, "geometry": { "type": "Point", "coordinates": [ 129.722212, 33.1832511 ] } },
{ "type": "Feature", "properties": { "内容": "短期入所生活介護事業所チューリップ【短期入所生活介護】長崎県佐世保市黒髪町３７２９番地２", "url": "https://www.kaigokensaku.mhlw.go.jp/42/index.php?action_kouhyou_detail_004_kani=true&JigyosyoCd=4270202064-00&ServiceCd=210&Type=search", "url2": "http://www.tulip.or.jp/" }, "geometry": { "type": "Point", "coordinates": [ 129.7747415, 33.173423 ] } },
{ "type": "Feature", "properties": { "内容": "特別養護老人ホームサンフラワー【短期入所生活介護】長崎県佐世保市吉井町直谷368番地6", "url": "https://www.kaigokensaku.mhlw.go.jp/42/index.php?action_kouhyou_detail_004_kani=true&JigyosyoCd=4271500169-00&ServiceCd=210&Type=search", "url2": "http://sunflow19950601.wix.com/sunflower" }, "geometry": { "type": "Point", "coordinates": [ 129.70435509999993, 33.2836939 ] } },
{ "type": "Feature", "properties": { "内容": "短期入所生活介護事業所　やまずみ荘【短期入所生活介護】長崎県佐世保市山祇町388番地", "url": "https://www.kaigokensaku.mhlw.go.jp/42/index.php?action_kouhyou_detail_004_kani=true&JigyosyoCd=4270204805-00&ServiceCd=210&Type=search", "url2": "https://www.yamazumiso.or.jp" }, "geometry": { "type": "Point", "coordinates": [ 129.732744799999978, 33.1687472 ] } },
{ "type": "Feature", "properties": { "内容": "光の子短期入所生活介護【短期入所生活介護】長崎県佐世保市新行江町850番地1", "url": "https://www.kaigokensaku.mhlw.go.jp/42/index.php?action_kouhyou_detail_004_kani=true&JigyosyoCd=4270204144-00&ServiceCd=210&Type=search", "url2": "http://www.hikarinoko-fukushikai.or.jp/care/sisetu/short_stay/index.html" }, "geometry": { "type": "Point", "coordinates": [ 129.832925499999988, 33.1484492 ] } },
{ "type": "Feature", "properties": { "内容": "ショートステイ　あんしんハウス島原【短期入所生活介護】長崎県島原市城見町4950番地1", "url": "https://www.kaigokensaku.mhlw.go.jp/42/index.php?action_kouhyou_detail_004_kani=true&JigyosyoCd=4270300942-00&ServiceCd=210&Type=search", "url2": null }, "geometry": { "type": "Point", "coordinates": [ 130.3596781, 32.7880998 ] } },
{ "type": "Feature", "properties": { "内容": "小規模特別養護老人ホーム淡淡荘【短期入所生活介護】長崎県島原市江里町乙2010番地1", "url": "https://www.kaigokensaku.mhlw.go.jp/42/index.php?action_kouhyou_detail_004_kani=true&JigyosyoCd=4270301304-00&ServiceCd=210&Type=search", "url2": "https://rakuzankai.com/" }, "geometry": { "type": "Point", "coordinates": [ 130.3396563, 32.8025723 ] } },
{ "type": "Feature", "properties": { "内容": "特別養護老人ホーム淡淡荘【短期入所生活介護】長崎県島原市江里町乙2010番地1", "url": "https://www.kaigokensaku.mhlw.go.jp/42/index.php?action_kouhyou_detail_004_kani=true&JigyosyoCd=4270300082-00&ServiceCd=210&Type=search", "url2": "https://rakuzankai.com/" }, "geometry": { "type": "Point", "coordinates": [ 130.33965939999996, 32.8025178 ] } },
{ "type": "Feature", "properties": { "内容": "ショートステイ淡淡荘Ⅱ【短期入所生活介護】長崎県島原市萩が丘二丁目６１２２", "url": "https://www.kaigokensaku.mhlw.go.jp/42/index.php?action_kouhyou_detail_004_kani=true&JigyosyoCd=4270300785-00&ServiceCd=210&Type=search", "url2": "http://rakuzankai.com/publics/index/1/" }, "geometry": { "type": "Point", "coordinates": [ 130.357039799999939, 32.7796866 ] } },
{ "type": "Feature", "properties": { "内容": "社会福祉法人幸和会　特別養護老人ホームびざん【短期入所生活介護】長崎県島原市緑町8200番地", "url": "https://www.kaigokensaku.mhlw.go.jp/42/index.php?action_kouhyou_detail_004_kani=true&JigyosyoCd=4270300595-00&ServiceCd=210&Type=search", "url2": "http://www.shimabara.jp/sh6008845/index.html" }, "geometry": { "type": "Point", "coordinates": [ 130.3676538, 32.7681318 ] } },
{ "type": "Feature", "properties": { "内容": "社会福祉法人勝光会短期入所生活介護【短期入所生活介護】長崎県島原市有明町大三東戊７８３－１", "url": "https://www.kaigokensaku.mhlw.go.jp/42/index.php?action_kouhyou_detail_004_kani=true&JigyosyoCd=4271400923-00&ServiceCd=210&Type=search", "url2": "http://www.shokow-by.or.jp" }, "geometry": { "type": "Point", "coordinates": [ 130.334473399999979, 32.8538162 ] } },
{ "type": "Feature", "properties": { "内容": "短期入所生活介護まゆやまの里【短期入所生活介護】長崎県島原市稗田町甲227番地1", "url": "https://www.kaigokensaku.mhlw.go.jp/42/index.php?action_kouhyou_detail_004_kani=true&JigyosyoCd=4270301239-00&ServiceCd=210&Type=search", "url2": "http://zuikoukai.com" }, "geometry": { "type": "Point", "coordinates": [ 130.35170027790798, 32.809744592271088 ] } },
{ "type": "Feature", "properties": { "内容": "社会福祉法人秩父会指定短期入所生活介護事業所秩父が浦荘【短期入所生活介護】長崎県島原市秩父が浦町丁3552番地", "url": "https://www.kaigokensaku.mhlw.go.jp/42/index.php?action_kouhyou_detail_004_kani=true&JigyosyoCd=4270300207-00&ServiceCd=210&Type=search", "url2": "https://www.chichibukai.or.jp/" }, "geometry": { "type": "Point", "coordinates": [ 130.36930390185239, 32.761313356327875 ] } },
{ "type": "Feature", "properties": { "内容": "ショートステイ十徳【短期入所生活介護】長崎県島原市中堀町28", "url": "https://www.kaigokensaku.mhlw.go.jp/42/index.php?action_kouhyou_detail_004_kani=true&JigyosyoCd=4270301270-00&ServiceCd=210&Type=search", "url2": "http://npo-shimabara/com/" }, "geometry": { "type": "Point", "coordinates": [ 130.369995066194747, 32.780757154171397 ] } },
{ "type": "Feature", "properties": { "内容": "ＨＡＰＰＹ　ＬＩＦＥ【短期入所生活介護】長崎県島原市有明町湯江丁2592", "url": "https://www.kaigokensaku.mhlw.go.jp/42/index.php?action_kouhyou_detail_004_kani=true&JigyosyoCd=4270300918-00&ServiceCd=210&Type=search", "url2": "http://www.shimabara.jp/npo-shimabara/" }, "geometry": { "type": "Point", "coordinates": [ 130.3081479, 32.8505245 ] } },
{ "type": "Feature", "properties": { "内容": "ショートステイあいのわHOMES【短期入所生活介護】長崎県諫早市幸町52－7", "url": "https://www.kaigokensaku.mhlw.go.jp/42/index.php?action_kouhyou_detail_004_kani=true&JigyosyoCd=4270403712-00&ServiceCd=210&Type=search", "url2": "https://www.reha-ainowa.co.jp/" }, "geometry": { "type": "Point", "coordinates": [ 130.06831070000004, 32.83901860000001 ] } },
{ "type": "Feature", "properties": { "内容": "恵愛荘【短期入所生活介護】長崎県諫早市有喜町593番地1", "url": "https://www.kaigokensaku.mhlw.go.jp/42/index.php?action_kouhyou_detail_004_kani=true&JigyosyoCd=4270402805-00&ServiceCd=210&Type=search", "url2": "http://uki-fukushimura.jp/" }, "geometry": { "type": "Point", "coordinates": [ 130.077622384655768, 32.791747917418185 ] } },
{ "type": "Feature", "properties": { "内容": "介護老人保健施設　恵仁荘　短期入所生活介護【短期入所生活介護】長崎県諌早市有喜町６４８", "url": "https://www.kaigokensaku.mhlw.go.jp/42/index.php?action_kouhyou_detail_004_kani=true&JigyosyoCd=4270401559-00&ServiceCd=210&Type=search", "url2": "http://uki-fukushimura.jp/keijinso/" }, "geometry": { "type": "Point", "coordinates": [ 130.077007099999946, 32.7910256 ] } },
{ "type": "Feature", "properties": { "内容": "短期入所生活介護　恵風園【短期入所生活介護】長崎県諫早市多良見町化屋９９５番地", "url": "https://www.kaigokensaku.mhlw.go.jp/42/index.php?action_kouhyou_detail_004_kani=true&JigyosyoCd=4271102289-00&ServiceCd=210&Type=search", "url2": "http://www.jyunseikai-jikei.jp/" }, "geometry": { "type": "Point", "coordinates": [ 129.983048199999985, 32.8282548 ] } },
{ "type": "Feature", "properties": { "内容": "株式会社クオリティ・オブ・ライフ【短期入所生活介護】長崎県諫早市長野町１４１３－３", "url": "https://www.kaigokensaku.mhlw.go.jp/42/index.php?action_kouhyou_detail_004_kani=true&JigyosyoCd=4270403076-00&ServiceCd=210&Type=search", "url2": null }, "geometry": { "type": "Point", "coordinates": [ 130.078121794208329, 32.831304391697941 ] } },
{ "type": "Feature", "properties": { "内容": "短期入所生活介護　しろみ【短期入所生活介護】長崎県諫早市城見町43番1号", "url": "https://www.kaigokensaku.mhlw.go.jp/42/index.php?action_kouhyou_detail_004_kani=true&JigyosyoCd=4270401328-00&ServiceCd=210&Type=search", "url2": "http://shiromi.or.jp/" }, "geometry": { "type": "Point", "coordinates": [ 130.049187, 32.855234 ] } },
{ "type": "Feature", "properties": { "内容": "特別養護老人ホーム諫早ニュータウン【短期入所生活介護】長崎県諫早市白岩町2番地7", "url": "https://www.kaigokensaku.mhlw.go.jp/42/index.php?action_kouhyou_detail_004_kani=true&JigyosyoCd=4270403621-00&ServiceCd=210&Type=search", "url2": "https://uki-fukushimura.jp/newtown/" }, "geometry": { "type": "Point", "coordinates": [ 130.022378320237692, 32.845654493166464 ] } },
{ "type": "Feature", "properties": { "内容": "特別養護老人ホーム諫早中央【短期入所生活介護】長崎県諫早市野中町６４８番７", "url": "https://www.kaigokensaku.mhlw.go.jp/42/index.php?action_kouhyou_detail_004_kani=true&JigyosyoCd=4270402920-00&ServiceCd=210&Type=search", "url2": "http://www.uki-fukushimura.jp/" }, "geometry": { "type": "Point", "coordinates": [ 130.055780760713219, 32.835618642196323 ] } },
{ "type": "Feature", "properties": { "内容": "特別養護老人ホーム天恵荘【短期入所生活介護】長崎県諫早市有喜町537番地5", "url": "https://www.kaigokensaku.mhlw.go.jp/42/index.php?action_kouhyou_detail_004_kani=true&JigyosyoCd=4270400197-00&ServiceCd=210&Type=search", "url2": "http://uki-fukushimura.jp/" }, "geometry": { "type": "Point", "coordinates": [ 130.078848500000049, 32.7924617 ] } },
{ "type": "Feature", "properties": { "内容": "特別養護老人ホーム　特養いいもり【短期入所生活介護】長崎県諫早市飯盛町開48番地", "url": "https://www.kaigokensaku.mhlw.go.jp/42/index.php?action_kouhyou_detail_004_kani=true&JigyosyoCd=4271300198-00&ServiceCd=210&Type=search", "url2": "http://tokuyou-iimori.jp/" }, "geometry": { "type": "Point", "coordinates": [ 130.024260899999945, 32.7716982 ] } },
{ "type": "Feature", "properties": { "内容": "真和荘指定短期入所生活介護事業所【短期入所生活介護】諫早市多良見町元釜５５６番地", "url": "https://www.kaigokensaku.mhlw.go.jp/42/index.php?action_kouhyou_detail_004_kani=true&JigyosyoCd=4271100556-00&ServiceCd=210&Type=search", "url2": "http://sinwakai.net/" }, "geometry": { "type": "Point", "coordinates": [ 129.931262100000026, 32.8566431 ] } },
{ "type": "Feature", "properties": { "内容": "社会福祉法人清和福祉会　秀峰荘短期入所生活介護事業所【短期入所生活介護】長崎県諫早市森山町唐比西１２４番地５", "url": "https://www.kaigokensaku.mhlw.go.jp/42/index.php?action_kouhyou_detail_004_kani=true&JigyosyoCd=4271300131-00&ServiceCd=210&Type=search", "url2": "http://seiwafukushi.jp/carenet/" }, "geometry": { "type": "Point", "coordinates": [ 130.134553099999948, 32.7910482 ] } },
{ "type": "Feature", "properties": { "内容": "ショートステイ小長井希望園【短期入所生活介護】長崎県諌早市小長井町井崎１４０６番地", "url": "https://www.kaigokensaku.mhlw.go.jp/42/index.php?action_kouhyou_detail_004_kani=true&JigyosyoCd=4271300123-00&ServiceCd=210&Type=search", "url2": "http://www.zenyuukai.com/" }, "geometry": { "type": "Point", "coordinates": [ 130.183008200000017, 32.9389016 ] } },
{ "type": "Feature", "properties": { "内容": "短期入所生活介護ききつ【短期入所生活介護】長崎県諫早市多良見町化屋1829", "url": "https://www.kaigokensaku.mhlw.go.jp/42/index.php?action_kouhyou_detail_004_kani=true&JigyosyoCd=4270403423-00&ServiceCd=210&Type=search", "url2": "https://chirokukai.jp/" }, "geometry": { "type": "Point", "coordinates": [ 129.983207906498478, 32.83028363565942 ] } },
{ "type": "Feature", "properties": { "内容": "短期入所生活介護　なかやまの里【短期入所生活介護】長崎県諫早市福田町3350", "url": "https://www.kaigokensaku.mhlw.go.jp/42/index.php?action_kouhyou_detail_004_kani=true&JigyosyoCd=4270403647-00&ServiceCd=210&Type=search", "url2": "https://hukusuikai.com/" }, "geometry": { "type": "Point", "coordinates": [ 130.060746900000026, 32.869458700000024 ] } },
{ "type": "Feature", "properties": { "内容": "社会福祉法人龍美会　指定短期入所生活介護事業所【短期入所生活介護】長崎県諫早市福田町2366番地1", "url": "https://www.kaigokensaku.mhlw.go.jp/42/index.php?action_kouhyou_detail_004_kani=true&JigyosyoCd=4270400114-00&ServiceCd=210&Type=search", "url2": "https://ryubikai.com/" }, "geometry": { "type": "Point", "coordinates": [ 130.056056099999978, 32.8626279 ] } },
{ "type": "Feature", "properties": { "内容": "医療法人　檜山会　短期入所生活介護　うぐいすの丘【短期入所生活介護】長崎県大村市東大村1丁目2526-13", "url": "https://www.kaigokensaku.mhlw.go.jp/42/index.php?action_kouhyou_detail_004_kani=true&JigyosyoCd=4270500574-00&ServiceCd=210&Type=search", "url2": "http://www.hizankai.or.jp/uguisu/" }, "geometry": { "type": "Point", "coordinates": [ 130.0080825, 32.9296165 ] } },
{ "type": "Feature", "properties": { "内容": "慈恵荘短期入所事業【短期入所生活介護】長崎県大村市東大村2丁目1616番地2", "url": "https://www.kaigokensaku.mhlw.go.jp/42/index.php?action_kouhyou_detail_004_kani=true&JigyosyoCd=4270500228-00&ServiceCd=210&Type=search", "url2": "https://keikokai.jp/" }, "geometry": { "type": "Point", "coordinates": [ 129.996987499999932, 32.9272968 ] } },
{ "type": "Feature", "properties": { "内容": "ショートステイ泉の里【短期入所生活介護】長崎県大村市東本町583番地", "url": "https://www.kaigokensaku.mhlw.go.jp/42/index.php?action_kouhyou_detail_004_kani=true&JigyosyoCd=4270500145-00&ServiceCd=210&Type=search", "url2": "http://www.izuminosato.jp" }, "geometry": { "type": "Point", "coordinates": [ 129.961152099999907, 32.9087339 ] } },
{ "type": "Feature", "properties": { "内容": "ショートステイ「湖畔の宿ふる里」【短期入所生活介護】鬼橋町1416番地", "url": "https://www.kaigokensaku.mhlw.go.jp/42/index.php?action_kouhyou_detail_004_kani=true&JigyosyoCd=4270502109-00&ServiceCd=210&Type=search", "url2": "https://ryumei-kai.or.jp/" }, "geometry": { "type": "Point", "coordinates": [ 129.958684869311526, 32.945901286118115 ] } },
{ "type": "Feature", "properties": { "内容": "特別養護老人ホーム　箕望荘【短期入所生活介護】長崎県大村市池田2丁目1163番地23", "url": "https://www.kaigokensaku.mhlw.go.jp/42/index.php?action_kouhyou_detail_004_kani=true&JigyosyoCd=4270500277-00&ServiceCd=210&Type=search", "url2": "http://www.kibouso.or.jp" }, "geometry": { "type": "Point", "coordinates": [ 129.971380899999986, 32.9375928 ] } },
{ "type": "Feature", "properties": { "内容": "ショートステイ　flora【短期入所生活介護】長崎県大村市皆同町438番地３", "url": "https://www.kaigokensaku.mhlw.go.jp/42/index.php?action_kouhyou_detail_004_kani=true&JigyosyoCd=4270501960-00&ServiceCd=210&Type=search", "url2": "f-flora.jp/" }, "geometry": { "type": "Point", "coordinates": [ 129.949644499999977, 32.960214 ] } },
{ "type": "Feature", "properties": { "内容": "短期入所施設　オムズ【短期入所生活介護】長崎県富の原２丁目３２１番地１", "url": "https://www.kaigokensaku.mhlw.go.jp/42/index.php?action_kouhyou_detail_004_kani=true&JigyosyoCd=4270501341-00&ServiceCd=210&Type=search", "url2": "https://www.t-omuzuhome.com/" }, "geometry": { "type": "Point", "coordinates": [ 129.939386, 32.9432358 ] } },
{ "type": "Feature", "properties": { "内容": "ひらどせとショートステイ【短期入所生活介護】長崎県平戸市田平町山内免613-18", "url": "https://www.kaigokensaku.mhlw.go.jp/42/index.php?action_kouhyou_detail_004_kani=true&JigyosyoCd=4271500656-00&ServiceCd=210&Type=search", "url2": "https://hs.seisyukai.jp/" }, "geometry": { "type": "Point", "coordinates": [ 129.574972800000069, 33.3647512 ] } },
{ "type": "Feature", "properties": { "内容": "短期入所生活介護あんのん【短期入所生活介護】長崎県平戸市戸石川町９５０番地", "url": "https://www.kaigokensaku.mhlw.go.jp/42/index.php?action_kouhyou_detail_004_kani=true&JigyosyoCd=4270700703-00&ServiceCd=210&Type=search", "url2": "http://keishokai.jp/" }, "geometry": { "type": "Point", "coordinates": [ 129.549667619712892, 33.361697486723237 ] } },
{ "type": "Feature", "properties": { "内容": "短期入所生活介護事業所　田平ホーム【短期入所生活介護】長崎県平戸市田平町山内免２１４番地１", "url": "https://www.kaigokensaku.mhlw.go.jp/42/index.php?action_kouhyou_detail_004_kani=true&JigyosyoCd=4271500607-00&ServiceCd=210&Type=search", "url2": "http://www.tabira-home.or.jp/" }, "geometry": { "type": "Point", "coordinates": [ 129.5826002, 33.362246211277544 ] } },
{ "type": "Feature", "properties": { "内容": "短期入所生活介護施設　なごみ【短期入所生活介護】長崎県平戸市生月町山田免1889", "url": "https://www.kaigokensaku.mhlw.go.jp/42/index.php?action_kouhyou_detail_004_kani=true&JigyosyoCd=4271501092-00&ServiceCd=210&Type=search", "url2": "https://ikitsukifukushikai.jp/" }, "geometry": { "type": "Point", "coordinates": [ 129.423760499999958, 33.3755245 ] } },
{ "type": "Feature", "properties": { "内容": "特別養護老人ホーム生寿園【短期入所生活介護】長崎県平戸市生月町山田免2963-1", "url": "https://www.kaigokensaku.mhlw.go.jp/42/index.php?action_kouhyou_detail_004_kani=true&JigyosyoCd=4271500193-00&ServiceCd=210&Type=search", "url2": "https://ikitsukifukushikai.jp/" }, "geometry": { "type": "Point", "coordinates": [ 129.423149299999977, 33.3801405 ] } },
{ "type": "Feature", "properties": { "内容": "平戸荘ショートステイセンター【短期入所生活介護】長崎県平戸市紐差町450番地", "url": "https://www.kaigokensaku.mhlw.go.jp/42/index.php?action_kouhyou_detail_004_kani=true&JigyosyoCd=4270700141-00&ServiceCd=210&Type=search", "url2": "http://hakujukai.com" }, "geometry": { "type": "Point", "coordinates": [ 129.475580799999989, 33.2848254 ] } },
{ "type": "Feature", "properties": { "内容": "ほうゆうショートいなほ【短期入所生活介護】長崎県平戸市生月町山田免1655番地6", "url": "https://www.kaigokensaku.mhlw.go.jp/42/index.php?action_kouhyou_detail_004_kani=true&JigyosyoCd=4270700786-00&ServiceCd=210&Type=search", "url2": "http://inaho-group.jp/" }, "geometry": { "type": "Point", "coordinates": [ 129.432932100000016, 33.3707311 ] } },
{ "type": "Feature", "properties": { "内容": "わだつみの里ショートステイ事業所【短期入所生活介護】長崎県平戸市辻町１７８", "url": "https://www.kaigokensaku.mhlw.go.jp/42/index.php?action_kouhyou_detail_004_kani=true&JigyosyoCd=4270700091-00&ServiceCd=210&Type=search", "url2": null }, "geometry": { "type": "Point", "coordinates": [ 129.42609779999998, 33.2170798 ] } },
{ "type": "Feature", "properties": { "内容": "押渕医院併設短期入所事業所はればれ【短期入所生活介護】長崎県松浦市御厨町里免37番地の1", "url": "https://www.kaigokensaku.mhlw.go.jp/42/index.php?action_kouhyou_detail_004_kani=true&JigyosyoCd=4270800610-00&ServiceCd=210&Type=search", "url2": null }, "geometry": { "type": "Point", "coordinates": [ 129.663104299999986, 33.3663135 ] } },
{ "type": "Feature", "properties": { "内容": "指定短期入所生活介護事業所　愛光園【短期入所生活介護】長崎県松浦市志佐町浦免270番地", "url": "https://www.kaigokensaku.mhlw.go.jp/42/index.php?action_kouhyou_detail_004_kani=true&JigyosyoCd=4270800107-00&ServiceCd=210&Type=search", "url2": "https://aikouen-matsuura.com/" }, "geometry": { "type": "Point", "coordinates": [ 129.717479799999978, 33.3453427 ] } },
{ "type": "Feature", "properties": { "内容": "特別養護老人ホーム　春風荘【短期入所生活介護】長崎県松浦市御厨町里免384番地1", "url": "https://www.kaigokensaku.mhlw.go.jp/42/index.php?action_kouhyou_detail_004_kani=true&JigyosyoCd=4270800719-00&ServiceCd=210&Type=search", "url2": "https://seizanso-matsuurashi.net" }, "geometry": { "type": "Point", "coordinates": [ 129.664224978504194, 33.364189921272633 ] } },
{ "type": "Feature", "properties": { "内容": "社会福祉法人福島福祉会　特別養護老人ホーム　いろは島荘【短期入所生活介護】長崎県松浦市福島町塩浜免3002番地", "url": "https://www.kaigokensaku.mhlw.go.jp/42/index.php?action_kouhyou_detail_004_kani=true&JigyosyoCd=4271500375-00&ServiceCd=210&Type=search", "url2": "http：//www．irohajimasou．com" }, "geometry": { "type": "Point", "coordinates": [ 129.823632500000031, 33.3657634 ] } },
{ "type": "Feature", "properties": { "内容": "ショートステイ　お船江の里【短期入所生活介護】長崎県対馬市厳原町久田737-21", "url": "https://www.kaigokensaku.mhlw.go.jp/42/index.php?action_kouhyou_detail_004_kani=true&JigyosyoCd=4271800312-00&ServiceCd=210&Type=search", "url2": "http://asuka-fukushi.or.jp" }, "geometry": { "type": "Point", "coordinates": [ 129.28526839999995, 34.1876109 ] } },
{ "type": "Feature", "properties": { "内容": "ショートステイ　浅茅の丘【短期入所生活介護】長崎県対馬市美津島町鶏知甲７３８番地１０", "url": "https://www.kaigokensaku.mhlw.go.jp/42/index.php?action_kouhyou_detail_004_kani=true&JigyosyoCd=4272000441-00&ServiceCd=210&Type=search", "url2": "http://asuka-fukushi.or.jp/" }, "geometry": { "type": "Point", "coordinates": [ 129.306121263090517, 34.266423103004946 ] } },
{ "type": "Feature", "properties": { "内容": "特別養護老人ホーム　ひとつばたご【短期入所生活介護】長崎県対馬市上対馬町玖須647番地", "url": "https://www.kaigokensaku.mhlw.go.jp/42/index.php?action_kouhyou_detail_004_kani=true&JigyosyoCd=4271900195-00&ServiceCd=210&Type=search", "url2": "http://www.koseikai.or.jp/hitotsubatago" }, "geometry": { "type": "Point", "coordinates": [ 129.442684200000031, 34.6311709 ] } },
{ "type": "Feature", "properties": { "内容": "わたづみ短期入所生活介護事業所【短期入所生活介護】長崎県対馬市豊玉町仁位91番地3", "url": "https://www.kaigokensaku.mhlw.go.jp/42/index.php?action_kouhyou_detail_004_kani=true&JigyosyoCd=4271800213-00&ServiceCd=210&Type=search", "url2": "http://www.koseikai.or.jp/watadumi/" }, "geometry": { "type": "Point", "coordinates": [ 129.313574099999983, 34.3880885 ] } },
{ "type": "Feature", "properties": { "内容": "いづはらショートステイセンター【短期入所生活介護】長崎県対馬市厳原町東里２２３番地３", "url": "https://www.kaigokensaku.mhlw.go.jp/42/index.php?action_kouhyou_detail_004_kani=true&JigyosyoCd=4271800239-00&ServiceCd=210&Type=search", "url2": "http://www.nagasaki-kouseifukushidan.or.jp/" }, "geometry": { "type": "Point", "coordinates": [ 129.296517599999987, 34.20414 ] } },
{ "type": "Feature", "properties": { "内容": "ショートステイセンターいづはらⅡ【短期入所生活介護】長崎県対馬市厳原町東里303番地1", "url": "https://www.kaigokensaku.mhlw.go.jp/42/index.php?action_kouhyou_detail_004_kani=true&JigyosyoCd=4272000565-00&ServiceCd=210&Type=search", "url2": "nagasaki-kouseifukusidan.or.jp" }, "geometry": { "type": "Point", "coordinates": [ 129.295214900000019, 34.1978573 ] } },
{ "type": "Feature", "properties": { "内容": "特別養護老人ホーム　日吉の里【短期入所生活介護】長崎県対馬市上県町佐須奈乙１２２７－１特別養護老人ホーム　日吉の里", "url": "https://www.kaigokensaku.mhlw.go.jp/42/index.php?action_kouhyou_detail_004_kani=true&JigyosyoCd=4272000516-00&ServiceCd=210&Type=search", "url2": "http://asukafukushikai.com" }, "geometry": { "type": "Point", "coordinates": [ 129.383646, 34.6484128 ] } },
{ "type": "Feature", "properties": { "内容": "特別養護老人ホーム壱岐のこころ【短期入所生活介護】長崎県壱岐市勝本町布気触948番地1", "url": "https://www.kaigokensaku.mhlw.go.jp/42/index.php?action_kouhyou_detail_004_kani=true&JigyosyoCd=4272100423-00&ServiceCd=210&Type=search", "url2": "https://www.kokoro.ac.jp/gr/ishinkai-iki/" }, "geometry": { "type": "Point", "coordinates": [ 129.69008069891629, 33.806573670474101 ] } },
{ "type": "Feature", "properties": { "内容": "特別養護老人ホーム　光の苑【短期入所生活介護】長崎県壱岐市郷ノ浦町志原西触1066番地", "url": "https://www.kaigokensaku.mhlw.go.jp/42/index.php?action_kouhyou_detail_004_kani=true&JigyosyoCd=4272100456-00&ServiceCd=210&Type=search", "url2": "http://www.hikarinosono.net/" }, "geometry": { "type": "Point", "coordinates": [ 129.71434526627047, 33.755349261569698 ] } },
{ "type": "Feature", "properties": { "内容": "特別養護老人ホーム　ハッピーヒルズ(幸せの丘)【短期入所生活介護】長崎県壱岐市芦辺町箱崎大左右触2272番地2", "url": "https://www.kaigokensaku.mhlw.go.jp/42/index.php?action_kouhyou_detail_004_kani=true&JigyosyoCd=4272100407-00&ServiceCd=210&Type=search", "url2": "http://happyhills.jp/" }, "geometry": { "type": "Point", "coordinates": [ 129.743395076721185, 33.822487512494682 ] } },
{ "type": "Feature", "properties": { "内容": "特別養護老人ホーム　緑乃園【短期入所生活介護】長崎県五島市野々切町２０３５番地２", "url": "https://www.kaigokensaku.mhlw.go.jp/42/index.php?action_kouhyou_detail_004_kani=true&JigyosyoCd=4270600168-00&ServiceCd=210&Type=search", "url2": "https://gotowakokai.jp" }, "geometry": { "type": "Point", "coordinates": [ 128.832452500000045, 32.649193 ] } },
{ "type": "Feature", "properties": { "内容": "短期入所生活介護事業所　きじの里【短期入所生活介護】長崎県五島市岐宿町二本楠３７５番地", "url": "https://www.kaigokensaku.mhlw.go.jp/42/index.php?action_kouhyou_detail_004_kani=true&JigyosyoCd=4271600183-00&ServiceCd=210&Type=search", "url2": "http://syuhoukai.jp/" }, "geometry": { "type": "Point", "coordinates": [ 128.72382, 32.6737041 ] } },
{ "type": "Feature", "properties": { "内容": "短期入所生活介護事業所　聖マリアの園【短期入所生活介護】長崎県五島市松山町706番地3", "url": "https://www.kaigokensaku.mhlw.go.jp/42/index.php?action_kouhyou_detail_004_kani=true&JigyosyoCd=4270600143-00&ServiceCd=210&Type=search", "url2": "seimarianosono.jp" }, "geometry": { "type": "Point", "coordinates": [ 128.837923600000067, 32.7058709 ] } },
{ "type": "Feature", "properties": { "内容": "只狩荘短期入所事業所【短期入所生活介護】長崎県五島市富江町黒瀬585番地", "url": "https://www.kaigokensaku.mhlw.go.jp/42/index.php?action_kouhyou_detail_004_kani=true&JigyosyoCd=4272200280-00&ServiceCd=210&Type=search", "url2": "http://sayurikai.jp/" }, "geometry": { "type": "Point", "coordinates": [ 128.7459513, 32.6054481 ] } },
{ "type": "Feature", "properties": { "内容": "短期入所生活介護事業所みみらくの里【短期入所生活介護】長崎県五島市三井楽町濱ノ畔1046番地2", "url": "https://www.kaigokensaku.mhlw.go.jp/42/index.php?action_kouhyou_detail_004_kani=true&JigyosyoCd=4271600290-00&ServiceCd=210&Type=search", "url2": "https://mimiraku.info" }, "geometry": { "type": "Point", "coordinates": [ 128.69112210000003, 32.7468726 ] } },
{ "type": "Feature", "properties": { "内容": "かけはし福江短期入所生活介護【短期入所生活介護】長崎県五島市武家屋敷三丁目2番6号", "url": "https://www.kaigokensaku.mhlw.go.jp/42/index.php?action_kouhyou_detail_004_kani=true&JigyosyoCd=4272200561-00&ServiceCd=210&Type=search", "url2": "http://nagomikai-kakehashi.or.jp" }, "geometry": { "type": "Point", "coordinates": [ 128.843298600000026, 32.6909466 ] } },
{ "type": "Feature", "properties": { "内容": "かけはし木場　短期入所生活介護【短期入所生活介護】長崎県五島市木場町493番地1", "url": "https://www.kaigokensaku.mhlw.go.jp/42/index.php?action_kouhyou_detail_004_kani=true&JigyosyoCd=4272200843-00&ServiceCd=210&Type=search", "url2": "http://nagomikai-kakehashi.or.jp" }, "geometry": { "type": "Point", "coordinates": [ 128.829193700000019, 32.6917575 ] } },
{ "type": "Feature", "properties": { "内容": "たまんな　ゆうゆう【短期入所生活介護】長崎県五島市玉之浦町玉之浦1371-1", "url": "https://www.kaigokensaku.mhlw.go.jp/42/index.php?action_kouhyou_detail_004_kani=true&JigyosyoCd=4271600449-00&ServiceCd=210&Type=search", "url2": "http://www.u-u-sato.com/" }, "geometry": { "type": "Point", "coordinates": [ 128.614514900000017, 32.6167594 ] } },
{ "type": "Feature", "properties": { "内容": "（介護予防）なるの里短期入所生活介護事業所【短期入所生活介護】長崎県五島市奈留町船廻８７９番地１", "url": "https://www.kaigokensaku.mhlw.go.jp/42/index.php?action_kouhyou_detail_004_kani=true&JigyosyoCd=4272200645-00&ServiceCd=210&Type=search", "url2": "http://narunosato.or.jp/" }, "geometry": { "type": "Point", "coordinates": [ 128.94326609999996, 32.8445692 ] } },
{ "type": "Feature", "properties": { "内容": "短期入所生活介護ふくにゃん【短期入所生活介護】長崎県西海市大島町1876-59", "url": "https://www.kaigokensaku.mhlw.go.jp/42/index.php?action_kouhyou_detail_004_kani=true&JigyosyoCd=4252380011-00&ServiceCd=210&Type=search", "url2": "http://www.fukuikai.com/" }, "geometry": { "type": "Point", "coordinates": [ 129.6195042, 33.035034 ] } },
{ "type": "Feature", "properties": { "内容": "海風荘短期入所生活事業所【短期入所生活介護】長崎県西海市大瀬戸町瀬戸板浦郷1123番地14", "url": "https://www.kaigokensaku.mhlw.go.jp/42/index.php?action_kouhyou_detail_004_kani=true&JigyosyoCd=4271100127-00&ServiceCd=210&Type=search", "url2": "http://www.kaifuso.com/" }, "geometry": { "type": "Point", "coordinates": [ 129.638221299999941, 32.9437934 ] } },
{ "type": "Feature", "properties": { "内容": "特別養護老人ホーム　ふるさと【短期入所生活介護】長崎県西海市西海町川内郷1484番地", "url": "https://www.kaigokensaku.mhlw.go.jp/42/index.php?action_kouhyou_detail_004_kani=true&JigyosyoCd=4271102115-00&ServiceCd=210&Type=search", "url2": "http://furusato-saikai.jp/" }, "geometry": { "type": "Point", "coordinates": [ 129.728955700000029, 33.0501836 ] } },
{ "type": "Feature", "properties": { "内容": "風和の里【短期入所生活介護】長崎県西海市西彼町鳥加郷２１７１番地", "url": "https://www.kaigokensaku.mhlw.go.jp/42/index.php?action_kouhyou_detail_004_kani=true&JigyosyoCd=4272300221-00&ServiceCd=210&Type=search", "url2": "https://www.seihikai.jp/" }, "geometry": { "type": "Point", "coordinates": [ 129.747513656344609, 32.990919183378701 ] } },
{ "type": "Feature", "properties": { "内容": "短期入所生活介護　さいかい【短期入所生活介護】長崎県西海市大島町１８７６番地５９西海医療福祉センター内（５階）", "url": "https://www.kaigokensaku.mhlw.go.jp/42/index.php?action_kouhyou_detail_004_kani=true&JigyosyoCd=4272300296-00&ServiceCd=210&Type=search", "url2": "http://www.fukuikai.com" }, "geometry": { "type": "Point", "coordinates": [ 129.61842809999996, 33.0348801 ] } },
{ "type": "Feature", "properties": { "内容": "短期入所生活介護うんぜんの里【短期入所生活介護】長崎県雲仙市瑞穂町古部乙1392-1", "url": "https://www.kaigokensaku.mhlw.go.jp/42/index.php?action_kouhyou_detail_004_kani=true&JigyosyoCd=4271400600-00&ServiceCd=210&Type=search", "url2": "http://zuikoukai.com" }, "geometry": { "type": "Point", "coordinates": [ 130.21474360000002, 32.848493 ] } },
{ "type": "Feature", "properties": { "内容": "特別養護老人ホーム湯楽苑【短期入所生活介護】長崎県雲仙市小浜町北本町217番地", "url": "https://www.kaigokensaku.mhlw.go.jp/42/index.php?action_kouhyou_detail_004_kani=true&JigyosyoCd=4271400832-00&ServiceCd=210&Type=search", "url2": "http://www.obamakai.com/" }, "geometry": { "type": "Point", "coordinates": [ 130.209872702516122, 32.736341356310994 ] } },
{ "type": "Feature", "properties": { "内容": "花みずき【短期入所生活介護】雲仙市国見町神代丙192番地1", "url": "https://www.kaigokensaku.mhlw.go.jp/42/index.php?action_kouhyou_detail_004_kani=true&JigyosyoCd=4272400617-00&ServiceCd=210&Type=search", "url2": null }, "geometry": { "type": "Point", "coordinates": [ 130.269414311392211, 32.868901214635784 ] } },
{ "type": "Feature", "properties": { "内容": "ショートステイセンター愛の里【短期入所生活介護】長崎県雲仙市愛野町乙2288番地4", "url": "https://www.kaigokensaku.mhlw.go.jp/42/index.php?action_kouhyou_detail_004_kani=true&JigyosyoCd=4272400716-00&ServiceCd=210&Type=search", "url2": "www.hakujukai.com" }, "geometry": { "type": "Point", "coordinates": [ 130.158544549737599, 32.802742949709888 ] } },
{ "type": "Feature", "properties": { "内容": "やはたの杜【短期入所生活介護】長崎県雲仙市南串山町丙9783番地", "url": "https://www.kaigokensaku.mhlw.go.jp/42/index.php?action_kouhyou_detail_004_kani=true&JigyosyoCd=4272400740-00&ServiceCd=210&Type=search", "url2": "https://www.hachimankai.or.jp" }, "geometry": { "type": "Point", "coordinates": [ 130.1401539, 32.6662237 ] } },
{ "type": "Feature", "properties": { "内容": "老人短期入所事業所　玉成園【短期入所生活介護】長崎県南島原市口之津町甲1190番地1", "url": "https://www.kaigokensaku.mhlw.go.jp/42/index.php?action_kouhyou_detail_004_kani=true&JigyosyoCd=4271400527-00&ServiceCd=210&Type=search", "url2": "https://gyokuseien.com" }, "geometry": { "type": "Point", "coordinates": [ 130.1880827, 32.6053298 ] } },
{ "type": "Feature", "properties": { "内容": "特別養護老人ホーム眉山荘【短期入所生活介護】長崎県南島原市深江町乙857番地", "url": "https://www.kaigokensaku.mhlw.go.jp/42/index.php?action_kouhyou_detail_004_kani=true&JigyosyoCd=4271400121-00&ServiceCd=210&Type=search", "url2": "https://kotobukifukushikai.jp/" }, "geometry": { "type": "Point", "coordinates": [ 130.331821799999943, 32.7244617 ] } },
{ "type": "Feature", "properties": { "内容": "あけぼの荘ショートステイ【短期入所生活介護】長崎県南島原市布津町乙１８６２番地２", "url": "https://www.kaigokensaku.mhlw.go.jp/42/index.php?action_kouhyou_detail_004_kani=true&JigyosyoCd=4271400808-00&ServiceCd=210&Type=search", "url2": "http://k-akebono.com/" }, "geometry": { "type": "Point", "coordinates": [ 130.353031900000019, 32.6941255 ] } },
{ "type": "Feature", "properties": { "内容": "特別養護老人ホーム有宝荘短期入所生活介護事業所【短期入所生活介護】長崎県南島原市有家町尾上字土橋４０８５番地", "url": "https://www.kaigokensaku.mhlw.go.jp/42/index.php?action_kouhyou_detail_004_kani=true&JigyosyoCd=4271400410-00&ServiceCd=210&Type=search", "url2": "http://www.yuhoso.jp/" }, "geometry": { "type": "Point", "coordinates": [ 130.303358941139209, 32.703778321183997 ] } },
{ "type": "Feature", "properties": { "内容": "短期入所生活介護事業所　いきいきハウス若竹【短期入所生活介護】長崎県南島原市有家町中須川170番地", "url": "https://www.kaigokensaku.mhlw.go.jp/42/index.php?action_kouhyou_detail_004_kani=true&JigyosyoCd=4272500655-00&ServiceCd=210&Type=search", "url2": null }, "geometry": { "type": "Point", "coordinates": [ 130.303701749073724, 32.664281476249322 ] } },
{ "type": "Feature", "properties": { "内容": "短期入所生活介護夢の里【短期入所生活介護】長崎県南島原市西有家町龍石5050番地1", "url": "https://www.kaigokensaku.mhlw.go.jp/42/index.php?action_kouhyou_detail_004_kani=true&JigyosyoCd=4272500648-00&ServiceCd=210&Type=search", "url2": "http://touyou-yumenosato.or.jp/" }, "geometry": { "type": "Point", "coordinates": [ 130.2724412, 32.6572889 ] } },
{ "type": "Feature", "properties": { "内容": "ショートステイセンターいわど【短期入所生活介護】長崎県南島原市加津佐町乙９番地アメニティいわど", "url": "https://www.kaigokensaku.mhlw.go.jp/42/index.php?action_kouhyou_detail_004_kani=true&JigyosyoCd=4272500515-00&ServiceCd=210&Type=search", "url2": "http://www.hakujukai.com" }, "geometry": { "type": "Point", "coordinates": [ 130.15886141880182, 32.631333744668694 ] } },
{ "type": "Feature", "properties": { "内容": "特別養護老人ホーム有馬荘【短期入所生活介護】南島原市北有馬町甲３１８１番地８", "url": "https://www.kaigokensaku.mhlw.go.jp/42/index.php?action_kouhyou_detail_004_kani=true&JigyosyoCd=4271400618-00&ServiceCd=210&Type=search", "url2": "ｈｔｔｐ//www.heiwa-kai.com" }, "geometry": { "type": "Point", "coordinates": [ 130.195246600000019, 32.6731009 ] } },
{ "type": "Feature", "properties": { "内容": "のぞみの杜個室ユニット型短期入所生活介護事業所【短期入所生活介護】長崎県西彼杵郡長与町吉無田郷1578番地", "url": "https://www.kaigokensaku.mhlw.go.jp/42/index.php?action_kouhyou_detail_004_kani=true&JigyosyoCd=4271103022-00&ServiceCd=210&Type=search", "url2": "http://www.nozominomori.or.jp/" }, "geometry": { "type": "Point", "coordinates": [ 129.886361599999987, 32.8163345 ] } },
{ "type": "Feature", "properties": { "内容": "ショートステイかがやき【短期入所生活介護】長崎県西彼杵郡長与町本川内郷2-3", "url": "https://www.kaigokensaku.mhlw.go.jp/42/index.php?action_kouhyou_detail_004_kani=true&JigyosyoCd=4271103097-00&ServiceCd=210&Type=search", "url2": "http://nagayo-kousaikai.jp/" }, "geometry": { "type": "Point", "coordinates": [ 129.8975299, 32.8232648 ] } },
{ "type": "Feature", "properties": { "内容": "ショートステイぴーぷる長崎【短期入所生活介護】長崎県西彼杵郡長与町岡郷１６５７番地１", "url": "https://www.kaigokensaku.mhlw.go.jp/42/index.php?action_kouhyou_detail_004_kani=true&JigyosyoCd=4271102693-00&ServiceCd=210&Type=search", "url2": "http://peapl-nagasaki.co.jp/" }, "geometry": { "type": "Point", "coordinates": [ 129.8748167, 32.8520923 ] } },
{ "type": "Feature", "properties": { "内容": "特別養護老人ホーム　悠久荘【短期入所生活介護】長崎県西彼杵郡長与町三根郷592番地", "url": "https://www.kaigokensaku.mhlw.go.jp/42/index.php?action_kouhyou_detail_004_kani=true&JigyosyoCd=4271100523-00&ServiceCd=210&Type=search", "url2": "https://kakuseikai.jp/" }, "geometry": { "type": "Point", "coordinates": [ 129.892993513345658, 32.826231231165742 ] } },
{ "type": "Feature", "properties": { "内容": "鍬先医院ショートステイ【短期入所生活介護】長崎県西彼杵郡時津町日並郷1766-1", "url": "https://www.kaigokensaku.mhlw.go.jp/42/index.php?action_kouhyou_detail_004_kani=true&JigyosyoCd=4271103378-00&ServiceCd=210&Type=search", "url2": "http://www.kuwasaki-clinic.com/" }, "geometry": { "type": "Point", "coordinates": [ 129.817721364079205, 32.844754113256258 ] } },
{ "type": "Feature", "properties": { "内容": "時津荘老人短期入所事業【短期入所生活介護】長崎県西彼杵郡時津町西時津郷１２３５番地", "url": "https://www.kaigokensaku.mhlw.go.jp/42/index.php?action_kouhyou_detail_004_kani=true&JigyosyoCd=4271100317-00&ServiceCd=210&Type=search", "url2": "http://www.togitsukai.jp" }, "geometry": { "type": "Point", "coordinates": [ 129.8560347, 32.8458757 ] } },
{ "type": "Feature", "properties": { "内容": "特別養護老人ホーム　もみの木荘【短期入所生活介護】東彼杵郡東彼杵町里郷２４３５番地", "url": "https://www.kaigokensaku.mhlw.go.jp/42/index.php?action_kouhyou_detail_004_kani=true&JigyosyoCd=4271200182-00&ServiceCd=210&Type=search", "url2": "http://www.mominoki-kai.com/mominokisou/" }, "geometry": { "type": "Point", "coordinates": [ 129.955303599999979, 33.0027688 ] } },
{ "type": "Feature", "properties": { "内容": "養護老人ホームひさご荘【短期入所生活介護】長崎県東彼杵郡川棚町白石郷７番地１３４", "url": "https://www.kaigokensaku.mhlw.go.jp/42/index.php?action_kouhyou_detail_004_kani=true&JigyosyoCd=4271200844-00&ServiceCd=210&Type=search", "url2": null }, "geometry": { "type": "Point", "coordinates": [ 129.853532099999939, 33.0632046 ] } },
{ "type": "Feature", "properties": { "内容": "くじゃくの家　ショートステイセンター【短期入所生活介護】長崎県東彼杵郡川棚町小串郷３５８ー１", "url": "https://www.kaigokensaku.mhlw.go.jp/42/index.php?action_kouhyou_detail_004_kani=true&JigyosyoCd=4271200281-00&ServiceCd=210&Type=search", "url2": "http://www.nagasaki-kouseifukushidan.or.jp/" }, "geometry": { "type": "Point", "coordinates": [ 129.832930799999986, 33.0554103 ] } },
{ "type": "Feature", "properties": { "内容": "社会福祉法人愛隣会　特別養護老人ホームはさみ荘【短期入所生活介護】長崎県東彼杵郡波佐見町稗木場郷794-1", "url": "https://www.kaigokensaku.mhlw.go.jp/42/index.php?action_kouhyou_detail_004_kani=true&JigyosyoCd=4271200174-00&ServiceCd=210&Type=search", "url2": "https://airinkai-hasami.com" }, "geometry": { "type": "Point", "coordinates": [ 129.871984200000043, 33.126588 ] } },
{ "type": "Feature", "properties": { "内容": "短期入所生活介護　養寿園【短期入所生活介護】長崎県北松浦郡小値賀町笛吹郷１７５６番地２", "url": "https://www.kaigokensaku.mhlw.go.jp/42/index.php?action_kouhyou_detail_004_kani=true&JigyosyoCd=4271501373-00&ServiceCd=210&Type=search", "url2": "http://www.chikanosato.sakura.ne.jp/" }, "geometry": { "type": "Point", "coordinates": [ 129.05983249999997, 33.19115 ] } },
{ "type": "Feature", "properties": { "内容": "ショートステイあやめの里【短期入所生活介護】長崎県北松浦郡佐々町八口免805番地3特別養護老人ホームあやめの里", "url": "https://www.kaigokensaku.mhlw.go.jp/42/index.php?action_kouhyou_detail_004_kani=true&JigyosyoCd=4271501464-00&ServiceCd=210&Type=search", "url2": "http://www.sazagawa.com/ayame/" }, "geometry": { "type": "Point", "coordinates": [ 129.682366199999933, 33.2559605 ] } },
{ "type": "Feature", "properties": { "内容": "社会福祉法人佐々川福祉会　虹の里事業所【短期入所生活介護】長崎県北松浦郡佐々町八口免８０５番地３", "url": "https://www.kaigokensaku.mhlw.go.jp/42/index.php?action_kouhyou_detail_004_kani=true&JigyosyoCd=4271500102-00&ServiceCd=210&Type=search", "url2": "http://www.sazagawa.com/ayame/nijinosato.html" }, "geometry": { "type": "Point", "coordinates": [ 129.682366199999933, 33.2559605 ] } },
{ "type": "Feature", "properties": { "内容": "さざ・煌きの里短期入所生活介護事業所【短期入所生活介護】長崎県北松浦郡佐々町八口免８０５－２", "url": "https://www.kaigokensaku.mhlw.go.jp/42/index.php?action_kouhyou_detail_004_kani=true&JigyosyoCd=4271500722-00&ServiceCd=210&Type=search", "url2": "kirameki@sage.ocn.ne.jp" }, "geometry": { "type": "Point", "coordinates": [ 129.683313399999946, 33.2556827 ] } },
{ "type": "Feature", "properties": { "内容": "短期入所生活介護事業所　つばきの里【短期入所生活介護】南松浦郡新上五島町浦桑郷1008-5", "url": "https://www.kaigokensaku.mhlw.go.jp/42/index.php?action_kouhyou_detail_004_kani=true&JigyosyoCd=4271600258-00&ServiceCd=210&Type=search", "url2": "http://syuhoukai.jp/" }, "geometry": { "type": "Point", "coordinates": [ 129.089231400000017, 32.9876421 ] } },
{ "type": "Feature", "properties": { "内容": "芳寿荘【短期入所生活介護】長崎県南松浦郡新上五島町今里郷６１０番地", "url": "https://www.kaigokensaku.mhlw.go.jp/42/index.php?action_kouhyou_detail_004_kani=true&JigyosyoCd=4271600175-00&ServiceCd=210&Type=search", "url2": "http://www.houjusou.net/index.html" }, "geometry": { "type": "Point", "coordinates": [ 129.036386599999986, 32.9474339 ] } },
{ "type": "Feature", "properties": { "内容": "わかまつ短期入所生活介護事業所【短期入所生活介護】長崎県南松浦郡新上五島町若松郷２８８番地", "url": "https://www.kaigokensaku.mhlw.go.jp/42/index.php?action_kouhyou_detail_004_kani=true&JigyosyoCd=4271601355-00&ServiceCd=210&Type=search", "url2": null }, "geometry": { "type": "Point", "coordinates": [ 129.022106099999974, 32.8872172 ] } },
{ "type": "Feature", "properties": { "内容": "短期入所生活介護つくしの里【短期入所生活介護】長崎県新上五島町鯛ノ浦郷４３７－１", "url": "https://www.kaigokensaku.mhlw.go.jp/42/index.php?action_kouhyou_detail_004_kani=true&JigyosyoCd=4271601264-00&ServiceCd=210&Type=search", "url2": "http://syuhoukai.jp/" }, "geometry": { "type": "Point", "coordinates": [ 129.102003500000023, 32.9636835 ] } },
{ "type": "Feature", "properties": { "内容": "短期入所生活介護事業所　つつじが丘【短期入所生活介護】長崎県南松浦郡新上五島町有川郷2369-1", "url": "https://www.kaigokensaku.mhlw.go.jp/42/index.php?action_kouhyou_detail_004_kani=true&JigyosyoCd=4271600241-00&ServiceCd=210&Type=search", "url2": "http//syuhoukai.jp/" }, "geometry": { "type": "Point", "coordinates": [ 129.109969200000023, 32.9800434 ] } },
{ "type": "Feature", "properties": { "内容": "短期入所生活介護事業所　グリーンヒルかみごとう【短期入所生活介護】長崎県南松浦郡新上五島町浦桑郷643番地8", "url": "https://www.kaigokensaku.mhlw.go.jp/42/index.php?action_kouhyou_detail_004_kani=true&JigyosyoCd=4271601231-00&ServiceCd=210&Type=search", "url2": "https://www.greenhill-kamigoto.com/" }, "geometry": { "type": "Point", "coordinates": [ 129.083537200000023, 32.9899778 ] } },
{ "type": "Feature", "properties": { "内容": "特別養護老人ホーム福見の園【短期入所生活介護】長崎県南松浦郡新上五島町岩瀬浦郷31-1", "url": "https://www.kaigokensaku.mhlw.go.jp/42/index.php?action_kouhyou_detail_004_kani=true&JigyosyoCd=4271601439-00&ServiceCd=210&Type=search", "url2": "http://www.seiwakai-kamigoto.jp/" }, "geometry": { "type": "Point", "coordinates": [ 129.076783035057161, 32.862768337786683 ] } }
]
}
