{
"type": "FeatureCollection",
"name": "geo_42_1",
"crs": { "type": "name", "properties": { "name": "urn:ogc:def:crs:OGC:1.3:CRS84" } },
"features": [
{ "type": "Feature", "properties": { "ID": "421hgo0001", "正式名称": "郡家病院", "機関区分": 1, "都道府県コード": 42, "市区町村コード": 211, "所在地": "長崎県五島市末広町１番地９", "緯度": 32.695788, "経度": 128.843134, "url": "https://www.iryou.teikyouseido.mhlw.go.jp/znk-web/juminkanja/S2430/initialize?prefCd=42&kikanCd=hgo0001&kikanKbn=1", "url2": "https://www.gunge-hp.jp", "内容": "郡家病院【1:病院】【診療科目:内科_外科_脳神経外科_消化器外科_肛門外科_整形外科_皮膚科_リハビリテーション科】【一般病床数:50療養病床数:0精神病床数:0感染症病床数:0合計病床数:50】長崎県五島市末広町１番地９" }, "geometry": { "type": "Point", "coordinates": [ 128.843134, 32.695788 ] } },
{ "type": "Feature", "properties": { "ID": "421hgo0002", "正式名称": "聖マリア病院", "機関区分": 1, "都道府県コード": 42, "市区町村コード": 211, "所在地": "長崎県五島市松山町１３３番地２", "緯度": 32.700386, "経度": 128.843053, "url": "https://www.iryou.teikyouseido.mhlw.go.jp/znk-web/juminkanja/S2430/initialize?prefCd=42&kikanCd=hgo0002&kikanKbn=1", "url2": "https://g-maria.jp", "内容": "聖マリア病院【1:病院】【診療科目:内科_呼吸器内科_消化器内科_小児科_リハビリテーション科】【一般病床数:45療養病床数:45精神病床数:0感染症病床数:0合計病床数:90】長崎県五島市松山町１３３番地２" }, "geometry": { "type": "Point", "coordinates": [ 128.843053, 32.700386 ] } },
{ "type": "Feature", "properties": { "ID": "421hgo0003", "正式名称": "長崎県五島中央病院", "機関区分": 1, "都道府県コード": 42, "市区町村コード": 211, "所在地": "長崎県五島市吉久木町２０５番地", "緯度": 32.690022, "経度": 128.817031, "url": "https://www.iryou.teikyouseido.mhlw.go.jp/znk-web/juminkanja/S2430/initialize?prefCd=42&kikanCd=hgo0003&kikanKbn=1", "url2": "http://www.gotocyuoh-hospital.jp/", "内容": "長崎県五島中央病院【1:病院】【診療科目:内科_循環器内科_消化器内科_神経内科_外科_脳神経外科_整形外科_小児科_産婦人科_眼科_耳鼻いんこう科_皮膚科_泌尿器科_精神科_リハビリテーション科_放射線科】【一般病床数:190療養病床数:0精神病床数:60感染症病床数:10合計病床数:264】長崎県五島市吉久木町２０５番地" }, "geometry": { "type": "Point", "coordinates": [ 128.817031, 32.690022 ] } },
{ "type": "Feature", "properties": { "ID": "421hgo0004", "正式名称": "長崎県富江病院", "機関区分": 1, "都道府県コード": 42, "市区町村コード": 211, "所在地": "長崎県五島市富江町狩立４９９", "緯度": 32.613073, "経度": 128.763873, "url": "https://www.iryou.teikyouseido.mhlw.go.jp/znk-web/juminkanja/S2430/initialize?prefCd=42&kikanCd=hgo0004&kikanKbn=1", "url2": "https://www.tomiehospital.com", "内容": "長崎県富江病院【1:病院】【診療科目:内科_外科_整形外科_小児科_眼科_リハビリテーション科】【一般病床数:55療養病床数:0精神病床数:0感染症病床数:0合計病床数:55】長崎県五島市富江町狩立４９９" }, "geometry": { "type": "Point", "coordinates": [ 128.763873, 32.613073 ] } },
{ "type": "Feature", "properties": { "ID": "421hik0001", "正式名称": "赤木病院", "機関区分": 1, "都道府県コード": 42, "市区町村コード": 210, "所在地": "長崎県壱岐市郷ノ浦町本村触１１１", "緯度": 33.751111, "経度": 129.693004, "url": "https://www.iryou.teikyouseido.mhlw.go.jp/znk-web/juminkanja/S2430/initialize?prefCd=42&kikanCd=hik0001&kikanKbn=1", "url2": null, "内容": "赤木病院【1:病院】【診療科目:内科_呼吸器内科_循環器内科_消化器内科_外科_整形外科_精神科】【一般病床数:9療養病床数:15精神病床数:0感染症病床数:0合計病床数:24】長崎県壱岐市郷ノ浦町本村触１１１" }, "geometry": { "type": "Point", "coordinates": [ 129.693004, 33.751111 ] } },
{ "type": "Feature", "properties": { "ID": "421hik0004", "正式名称": "品川内科医院", "機関区分": 1, "都道府県コード": 42, "市区町村コード": 210, "所在地": "長崎県壱岐市勝本町西戸触１８０－１", "緯度": 33.84965, "経度": 129.692914, "url": "https://www.iryou.teikyouseido.mhlw.go.jp/znk-web/juminkanja/S2430/initialize?prefCd=42&kikanCd=hik0004&kikanKbn=1", "url2": "https://shinagawa-iki.com/", "内容": "品川内科医院【1:病院】【診療科目:内科_糖尿病内科_循環器内科_消化器内科_腎臓内科_人工透析内科_小児科】【一般病床数:0療養病床数:0精神病床数:0感染症病床数:0合計病床数:0】長崎県壱岐市勝本町西戸触１８０－１" }, "geometry": { "type": "Point", "coordinates": [ 129.692914, 33.84965 ] } },
{ "type": "Feature", "properties": { "ID": "421hik0005", "正式名称": "医療法人（社団）協生会品川病院", "機関区分": 1, "都道府県コード": 42, "市区町村コード": 210, "所在地": "長崎県壱岐市郷ノ浦町東触８５４－２", "緯度": 33.754733, "経度": 129.70272, "url": "https://www.iryou.teikyouseido.mhlw.go.jp/znk-web/juminkanja/S2430/initialize?prefCd=42&kikanCd=hik0005&kikanKbn=1", "url2": "https://www.shinagawahp-iki.jp", "内容": "医療法人（社団）協生会品川病院【1:病院】【診療科目:内科_消化器内科_外科_脳神経外科_整形外科_小児科_産婦人科_泌尿器科_アレルギー科_リウマチ科_リハビリテーション科】【一般病床数:48療養病床数:0精神病床数:0感染症病床数:0合計病床数:48】長崎県壱岐市郷ノ浦町東触８５４－２" }, "geometry": { "type": "Point", "coordinates": [ 129.70272, 33.754733 ] } },
{ "type": "Feature", "properties": { "ID": "421hik0007", "正式名称": "光武内科循環器科病院", "機関区分": 1, "都道府県コード": 42, "市区町村コード": 210, "所在地": "長崎県壱岐市郷ノ浦町郷ノ浦１５番地３", "緯度": 33.74784, "経度": 129.690913, "url": "https://www.iryou.teikyouseido.mhlw.go.jp/znk-web/juminkanja/S2430/initialize?prefCd=42&kikanCd=hik0007&kikanKbn=1", "url2": "http://www.gensyukai.or.jp/mitsutake/", "内容": "光武内科循環器科病院【1:病院】【診療科目:内科_呼吸器内科_循環器内科_消化器内科_神経内科_皮膚科_リハビリテーション科】【一般病床数:40療養病床数:48精神病床数:0感染症病床数:0合計病床数:88】長崎県壱岐市郷ノ浦町郷ノ浦１５番地３" }, "geometry": { "type": "Point", "coordinates": [ 129.690913, 33.74784 ] } },
{ "type": "Feature", "properties": { "ID": "421hik0008", "正式名称": "長崎県壱岐病院", "機関区分": 1, "都道府県コード": 42, "市区町村コード": 210, "所在地": "長崎県壱岐市郷ノ浦町東触１６２６番地", "緯度": 33.7564, "経度": 129.702116, "url": "https://www.iryou.teikyouseido.mhlw.go.jp/znk-web/juminkanja/S2430/initialize?prefCd=42&kikanCd=hik0008&kikanKbn=1", "url2": "http://iki-hospital.jp", "内容": "長崎県壱岐病院【1:病院】【診療科目:内科_血液内科_糖尿病・内分泌内科_呼吸器内科_循環器内科_消化器内科_腎臓内科_肝臓内科_外科_脳神経外科_乳腺外科_整形外科_形成外科_小児科_産婦人科_眼科_耳鼻いんこう科_皮膚科_泌尿器科_精神科_リウマチ科_リハビリテーション科_放射線科_麻酔科】【一般病床数:120療養病床数:48精神病床数:50感染症病床数:6合計病床数:228】長崎県壱岐市郷ノ浦町東触１６２６番地" }, "geometry": { "type": "Point", "coordinates": [ 129.702116, 33.7564 ] } },
{ "type": "Feature", "properties": { "ID": "421hka0002", "正式名称": "長崎県上五島病院", "機関区分": 1, "都道府県コード": 42, "市区町村コード": 411, "所在地": "長崎県南松浦郡新上五島町青方郷１５４９番地１１", "緯度": 32.982608, "経度": 129.070302, "url": "https://www.iryou.teikyouseido.mhlw.go.jp/znk-web/juminkanja/S2430/initialize?prefCd=42&kikanCd=hka0002&kikanKbn=1", "url2": "https://www.kamigoto-hospital.jp/", "内容": "長崎県上五島病院【1:病院】【診療科目:内科_呼吸器内科_循環器内科_消化器内科_腎臓内科_神経内科_外科_脳神経外科_整形外科_小児科_産婦人科_眼科_耳鼻いんこう科_皮膚科_泌尿器科_精神科_リハビリテーション科_放射線科】【一般病床数:132療養病床数:50精神病床数:0感染症病床数:0合計病床数:186】長崎県南松浦郡新上五島町青方郷１５４９番地１１" }, "geometry": { "type": "Point", "coordinates": [ 129.070302, 32.982608 ] } },
{ "type": "Feature", "properties": { "ID": "421hki0001", "正式名称": "田中病院", "機関区分": 1, "都道府県コード": 42, "市区町村コード": 208, "所在地": "長崎県松浦市御厨町里免８７１", "緯度": 33.36675, "経度": 129.668399, "url": "https://www.iryou.teikyouseido.mhlw.go.jp/znk-web/juminkanja/S2430/initialize?prefCd=42&kikanCd=hki0001&kikanKbn=1", "url2": "http://shotoku-tanaka.jp", "内容": "田中病院【1:病院】【診療科目:内科_循環器内科_外科_脳神経外科_整形外科_皮膚科_リハビリテーション科】【一般病床数:0療養病床数:79精神病床数:0感染症病床数:0合計病床数:79】長崎県松浦市御厨町里免８７１" }, "geometry": { "type": "Point", "coordinates": [ 129.668399, 33.36675 ] } },
{ "type": "Feature", "properties": { "ID": "421hki0004", "正式名称": "青洲会病院", "機関区分": 1, "都道府県コード": 42, "市区町村コード": 207, "所在地": "長崎県平戸市田平町山内免６１２－４", "緯度": 33.364577, "経度": 129.57528, "url": "https://www.iryou.teikyouseido.mhlw.go.jp/znk-web/juminkanja/S2430/initialize?prefCd=42&kikanCd=hki0004&kikanKbn=1", "url2": "https://s.seisyukai.jp/", "内容": "青洲会病院【1:病院】【診療科目:内科_胃腸内科_外科_脳神経外科_整形外科_泌尿器科_リハビリテーション科_放射線科】【一般病床数:50療養病床数:133精神病床数:0感染症病床数:0合計病床数:183】長崎県平戸市田平町山内免６１２－４" }, "geometry": { "type": "Point", "coordinates": [ 129.57528, 33.364577 ] } },
{ "type": "Feature", "properties": { "ID": "421hki0005", "正式名称": "医療法人　みなづき　佐々病院", "機関区分": 1, "都道府県コード": 42, "市区町村コード": 391, "所在地": "長崎県北松浦郡佐々町口石免１１０８－３", "緯度": 33.223231, "経度": 129.658666, "url": "https://www.iryou.teikyouseido.mhlw.go.jp/znk-web/juminkanja/S2430/initialize?prefCd=42&kikanCd=hki0005&kikanKbn=1", "url2": null, "内容": "医療法人　みなづき　佐々病院【1:病院】【診療科目:精神科_心療内科】【一般病床数:0療養病床数:0精神病床数:147感染症病床数:0合計病床数:147】長崎県北松浦郡佐々町口石免１１０８－３" }, "geometry": { "type": "Point", "coordinates": [ 129.658666, 33.223231 ] } },
{ "type": "Feature", "properties": { "ID": "421hki0007", "正式名称": "医療法人医理会　柿添病院", "機関区分": 1, "都道府県コード": 42, "市区町村コード": 207, "所在地": "長崎県平戸市鏡川町２７８番地", "緯度": 33.36955, "経度": 129.551971, "url": "https://www.iryou.teikyouseido.mhlw.go.jp/znk-web/juminkanja/S2430/initialize?prefCd=42&kikanCd=hki0007&kikanKbn=1", "url2": "http://www.kakizoehospital.or.jp/", "内容": "医療法人医理会　柿添病院【1:病院】【診療科目:内科_循環器内科_消化器内科_外科_脳神経外科_整形外科_小児科_小児外科_耳鼻いんこう科_泌尿器科_歯科_リハビリテーション科_放射線科_救急科_麻酔科】【一般病床数:40療養病床数:50精神病床数:0感染症病床数:0合計病床数:90】長崎県平戸市鏡川町２７８番地" }, "geometry": { "type": "Point", "coordinates": [ 129.551971, 33.36955 ] } },
{ "type": "Feature", "properties": { "ID": "421hki0008", "正式名称": "菊地病院", "機関区分": 1, "都道府県コード": 42, "市区町村コード": 208, "所在地": "長崎県松浦市志佐町浦免１７６５－４", "緯度": 33.341347, "経度": 129.704614, "url": "https://www.iryou.teikyouseido.mhlw.go.jp/znk-web/juminkanja/S2430/initialize?prefCd=42&kikanCd=hki0008&kikanKbn=1", "url2": "http://www.kikuchi-hp.com", "内容": "菊地病院【1:病院】【診療科目:内科_呼吸器内科_消化器内科_外科_整形外科_眼科_皮膚科_リハビリテーション科_放射線科】【一般病床数:0療養病床数:52精神病床数:0感染症病床数:0合計病床数:52】長崎県松浦市志佐町浦免１７６５－４" }, "geometry": { "type": "Point", "coordinates": [ 129.704614, 33.341347 ] } },
{ "type": "Feature", "properties": { "ID": "421hki0009", "正式名称": "医療法人光佑会北川病院", "機関区分": 1, "都道府県コード": 42, "市区町村コード": 207, "所在地": "長崎県平戸市浦の町", "緯度": 33.372042, "経度": 129.552103, "url": "https://www.iryou.teikyouseido.mhlw.go.jp/znk-web/juminkanja/S2430/initialize?prefCd=42&kikanCd=hki0009&kikanKbn=1", "url2": "http://www.kouyuukai.or.jp", "内容": "医療法人光佑会北川病院【1:病院】【診療科目:内科_呼吸器内科_循環器内科_消化器内科_小児科_リハビリテーション科_放射線科】【一般病床数:48療養病床数:0精神病床数:0感染症病床数:0合計病床数:48】長崎県平戸市浦の町" }, "geometry": { "type": "Point", "coordinates": [ 129.552103, 33.372042 ] } },
{ "type": "Feature", "properties": { "ID": "421hki0010", "正式名称": "国民健康保険平戸市民病院", "機関区分": 1, "都道府県コード": 42, "市区町村コード": 207, "所在地": "長崎県平戸市草積町１１２５番地１２", "緯度": 33.284427, "経度": 129.465931, "url": "https://www.iryou.teikyouseido.mhlw.go.jp/znk-web/juminkanja/S2430/initialize?prefCd=42&kikanCd=hki0010&kikanKbn=1", "url2": "http://hirado-municipal-hospital.com/", "内容": "国民健康保険平戸市民病院【1:病院】【診療科目:内科_外科_整形外科_小児科_眼科_リハビリテーション科_放射線科_救急科】【一般病床数:58療養病床数:29精神病床数:0感染症病床数:0合計病床数:87】長崎県平戸市草積町１１２５番地１２" }, "geometry": { "type": "Point", "coordinates": [ 129.465931, 33.284427 ] } },
{ "type": "Feature", "properties": { "ID": "421hki0013", "正式名称": "医療法人裕光会　谷川病院", "機関区分": 1, "都道府県コード": 42, "市区町村コード": 207, "所在地": "長崎県平戸市田平町山内免４００番地", "緯度": 33.363459, "経度": 129.582022, "url": "https://www.iryou.teikyouseido.mhlw.go.jp/znk-web/juminkanja/S2430/initialize?prefCd=42&kikanCd=hki0013&kikanKbn=1", "url2": "http://tanigawa-hospital.jp/", "内容": "医療法人裕光会　谷川病院【1:病院】【診療科目:内科_呼吸器内科_循環器内科_消化器内科_小児科_皮膚科_リハビリテーション科】【一般病床数:0療養病床数:46精神病床数:0感染症病床数:0合計病床数:46】長崎県平戸市田平町山内免４００番地" }, "geometry": { "type": "Point", "coordinates": [ 129.582022, 33.363459 ] } },
{ "type": "Feature", "properties": { "ID": "421hki0015", "正式名称": "平戸愛恵病院", "機関区分": 1, "都道府県コード": 42, "市区町村コード": 207, "所在地": "長崎県平戸市田平町野田免２０２", "緯度": 33.369257, "経度": 129.573582, "url": "https://www.iryou.teikyouseido.mhlw.go.jp/znk-web/juminkanja/S2430/initialize?prefCd=42&kikanCd=hki0015&kikanKbn=1", "url2": "https://www.hiradoaikei.com", "内容": "平戸愛恵病院【1:病院】【診療科目:精神科_心療内科】【一般病床数:0療養病床数:0精神病床数:120感染症病床数:0合計病床数:120】長崎県平戸市田平町野田免２０２" }, "geometry": { "type": "Point", "coordinates": [ 129.573582, 33.369257 ] } },
{ "type": "Feature", "properties": { "ID": "421hki0016", "正式名称": "平戸市立生月病院", "機関区分": 1, "都道府県コード": 42, "市区町村コード": 207, "所在地": "長崎県平戸市生月町山田免２９６５番地", "緯度": 33.379556, "経度": 129.42338, "url": "https://www.iryou.teikyouseido.mhlw.go.jp/znk-web/juminkanja/S2430/initialize?prefCd=42&kikanCd=hki0016&kikanKbn=1", "url2": "http://www.ikitsuki-hospital.com/", "内容": "平戸市立生月病院【1:病院】【診療科目:内科_外科_整形外科_小児科_リハビリテーション科】【一般病床数:52療養病床数:0精神病床数:0感染症病床数:0合計病床数:52】長崎県平戸市生月町山田免２９６５番地" }, "geometry": { "type": "Point", "coordinates": [ 129.42338, 33.379556 ] } },
{ "type": "Feature", "properties": { "ID": "421hki0017", "正式名称": "独立行政法人地域医療機能推進機構　松浦中央病院", "機関区分": 1, "都道府県コード": 42, "市区町村コード": 208, "所在地": "長崎県松浦市志佐町浦免８５６番１", "緯度": 33.34212, "経度": 129.709367, "url": "https://www.iryou.teikyouseido.mhlw.go.jp/znk-web/juminkanja/S2430/initialize?prefCd=42&kikanCd=hki0017&kikanKbn=1", "url2": "https://matsuura.jcho.go.jp/", "内容": "独立行政法人地域医療機能推進機構　松浦中央病院【1:病院】【診療科目:内科_呼吸器内科_循環器内科_人工透析内科_外科_消化器外科_肛門外科_整形外科_耳鼻いんこう科_皮膚科_リハビリテーション科_放射線科】【一般病床数:85療養病床数:0精神病床数:0感染症病床数:0合計病床数:67】長崎県松浦市志佐町浦免８５６番１" }, "geometry": { "type": "Point", "coordinates": [ 129.709367, 33.34212 ] } },
{ "type": "Feature", "properties": { "ID": "421hmi0001", "正式名称": "医療法人　伴帥会　愛野記念病院", "機関区分": 1, "都道府県コード": 42, "市区町村コード": 213, "所在地": "長崎県雲仙市愛野町甲３８３８番地１", "緯度": 32.818628, "経度": 130.157569, "url": "https://www.iryou.teikyouseido.mhlw.go.jp/znk-web/juminkanja/S2430/initialize?prefCd=42&kikanCd=hmi0001&kikanKbn=1", "url2": "http://www.ainomhp.jp/", "内容": "医療法人　伴帥会　愛野記念病院【1:病院】【診療科目:内科_糖尿病内科_呼吸器内科_循環器内科_消化器内科_緩和ケア内科_外科_脳神経外科_消化器外科_整形外科_形成外科_耳鼻いんこう科_皮膚科_心療内科_アレルギー科_リウマチ科_リハビリテーション科_放射線科_麻酔科】【一般病床数:175療養病床数:59精神病床数:0感染症病床数:0合計病床数:234】長崎県雲仙市愛野町甲３８３８番地１" }, "geometry": { "type": "Point", "coordinates": [ 130.157569, 32.818628 ] } },
{ "type": "Feature", "properties": { "ID": "421hmi0002", "正式名称": "池田病院", "機関区分": 1, "都道府県コード": 42, "市区町村コード": 203, "所在地": "長崎県島原市湖南町６８９３番地２", "緯度": 32.778264, "経度": 130.368311, "url": "https://www.iryou.teikyouseido.mhlw.go.jp/znk-web/juminkanja/S2430/initialize?prefCd=42&kikanCd=hmi0002&kikanKbn=1", "url2": "https://www.ikeda-hp.or.jp/", "内容": "池田病院【1:病院】【診療科目:内科_呼吸器内科_循環器内科_消化器内科_皮膚泌尿器科_歯科_リハビリテーション科】【一般病床数:43療養病床数:39精神病床数:0感染症病床数:0合計病床数:82】長崎県島原市湖南町６８９３番地２" }, "geometry": { "type": "Point", "coordinates": [ 130.368311, 32.778264 ] } },
{ "type": "Feature", "properties": { "ID": "421hmi0003", "正式名称": "高城病院", "機関区分": 1, "都道府県コード": 42, "市区町村コード": 203, "所在地": "長崎県島原市中野町丙１１６５番地", "緯度": 32.823915, "経度": 130.343044, "url": "https://www.iryou.teikyouseido.mhlw.go.jp/znk-web/juminkanja/S2430/initialize?prefCd=42&kikanCd=hmi0003&kikanKbn=1", "url2": "http://www.takagihp.or.jp", "内容": "高城病院【1:病院】【診療科目:精神科】【一般病床数:0療養病床数:0精神病床数:187感染症病床数:0合計病床数:187】長崎県島原市中野町丙１１６５番地" }, "geometry": { "type": "Point", "coordinates": [ 130.343044, 32.823915 ] } },
{ "type": "Feature", "properties": { "ID": "421hmi0004", "正式名称": "泉川病院", "機関区分": 1, "都道府県コード": 42, "市区町村コード": 214, "所在地": "長崎県南島原市深江町丁２４０５", "緯度": 32.718447, "経度": 130.351203, "url": "https://www.iryou.teikyouseido.mhlw.go.jp/znk-web/juminkanja/S2430/initialize?prefCd=42&kikanCd=hmi0004&kikanKbn=1", "url2": "http://www.izumikawa.or.jp/", "内容": "泉川病院【1:病院】【診療科目:内科_感染症内科_呼吸器内科_循環器内科_消化器内科_腎臓内科_人工透析内科_外科_呼吸器外科_消化器外科_乳腺外科_整形外科_皮膚科_泌尿器科_アレルギー科_リウマチ科_リハビリテーション科_放射線科_麻酔科】【一般病床数:120療養病床数:0精神病床数:0感染症病床数:0合計病床数:120】長崎県南島原市深江町丁２４０５" }, "geometry": { "type": "Point", "coordinates": [ 130.351203, 32.718447 ] } },
{ "type": "Feature", "properties": { "ID": "421hmi0005", "正式名称": "医療法人　弘池会　口之津病院", "機関区分": 1, "都道府県コード": 42, "市区町村コード": 214, "所在地": "長崎県南島原市口之津町丁５６１５番地", "緯度": 32.610781, "経度": 130.194187, "url": "https://www.iryou.teikyouseido.mhlw.go.jp/znk-web/juminkanja/S2430/initialize?prefCd=42&kikanCd=hmi0005&kikanKbn=1", "url2": "http://www.kouchikai.com/", "内容": "医療法人　弘池会　口之津病院【1:病院】【診療科目:内科_外科_整形外科_皮膚科_リハビリテーション科_放射線科】【一般病床数:0療養病床数:89精神病床数:0感染症病床数:0合計病床数:89】長崎県南島原市口之津町丁５６１５番地" }, "geometry": { "type": "Point", "coordinates": [ 130.194187, 32.610781 ] } },
{ "type": "Feature", "properties": { "ID": "421hmi0006", "正式名称": "医療法人社団威光会松岡病院", "機関区分": 1, "都道府県コード": 42, "市区町村コード": 203, "所在地": "長崎県島原市江戸丁１９１９番地", "緯度": 32.788254, "経度": 130.364593, "url": "https://www.iryou.teikyouseido.mhlw.go.jp/znk-web/juminkanja/S2430/initialize?prefCd=42&kikanCd=hmi0006&kikanKbn=1", "url2": "http://www.shimabara.jp/ik-matuokahp/index.html", "内容": "医療法人社団威光会松岡病院【1:病院】【診療科目:内科_糖尿病内科_内分泌内科_呼吸器内科_循環器内科_消化器内科_腎臓内科_漢方内科_整形外科_リウマチ科_リハビリテーション科_放射線科】【一般病床数:34療養病床数:62精神病床数:0感染症病床数:0合計病床数:96】長崎県島原市江戸丁１９１９番地" }, "geometry": { "type": "Point", "coordinates": [ 130.364593, 32.788254 ] } },
{ "type": "Feature", "properties": { "ID": "421hmi0007", "正式名称": "医療法人社団英仁会　愛野ありあけ病院", "機関区分": 1, "都道府県コード": 42, "市区町村コード": 213, "所在地": "長崎県雲仙市愛野町甲３７０", "緯度": 32.818949, "経度": 130.159309, "url": "https://www.iryou.teikyouseido.mhlw.go.jp/znk-web/juminkanja/S2430/initialize?prefCd=42&kikanCd=hmi0007&kikanKbn=1", "url2": "http://www.aino-ariakehp.com", "内容": "医療法人社団英仁会　愛野ありあけ病院【1:病院】【診療科目:内科_精神科_心療内科_歯科】【一般病床数:0療養病床数:10精神病床数:204感染症病床数:0合計病床数:214】長崎県雲仙市愛野町甲３７０" }, "geometry": { "type": "Point", "coordinates": [ 130.159309, 32.818949 ] } },
{ "type": "Feature", "properties": { "ID": "421hmi0008", "正式名称": "新生病院", "機関区分": 1, "都道府県コード": 42, "市区町村コード": 203, "所在地": "長崎県島原市城内１－１１９３", "緯度": 32.788602, "経度": 130.368936, "url": "https://www.iryou.teikyouseido.mhlw.go.jp/znk-web/juminkanja/S2430/initialize?prefCd=42&kikanCd=hmi0008&kikanKbn=1", "url2": "https://www.shinsei-hospital.com/", "内容": "新生病院【1:病院】【診療科目:内科_内分泌内科_呼吸器内科_循環器内科_消化器内科_腎臓内科_形成外科_リハビリテーション科_放射線科】【一般病床数:0療養病床数:51精神病床数:0感染症病床数:0合計病床数:51】長崎県島原市城内１－１１９３" }, "geometry": { "type": "Point", "coordinates": [ 130.368936, 32.788602 ] } },
{ "type": "Feature", "properties": { "ID": "421hmi0009", "正式名称": "医療法人南風会　浦上病院", "機関区分": 1, "都道府県コード": 42, "市区町村コード": 214, "所在地": "長崎県南島原市南有馬町甲１２８５－１", "緯度": 32.611403, "経度": 130.227419, "url": "https://www.iryou.teikyouseido.mhlw.go.jp/znk-web/juminkanja/S2430/initialize?prefCd=42&kikanCd=hmi0009&kikanKbn=1", "url2": null, "内容": "医療法人南風会　浦上病院【1:病院】【診療科目:内科_精神科_神経科_リハビリテーション科】【一般病床数:0療養病床数:96精神病床数:30感染症病床数:0合計病床数:126】長崎県南島原市南有馬町甲１２８５－１" }, "geometry": { "type": "Point", "coordinates": [ 130.227419, 32.611403 ] } },
{ "type": "Feature", "properties": { "ID": "421hmi0010", "正式名称": "医療法人博愛会哲翁病院", "機関区分": 1, "都道府県コード": 42, "市区町村コード": 214, "所在地": "長崎県南島原市口之津町甲１１８１番地", "緯度": 32.605131, "経度": 130.188411, "url": "https://www.iryou.teikyouseido.mhlw.go.jp/znk-web/juminkanja/S2430/initialize?prefCd=42&kikanCd=hmi0010&kikanKbn=1", "url2": "https://www.tetsuou-hp.jp", "内容": "医療法人博愛会哲翁病院【1:病院】【診療科目:内科_循環器内科_消化器内科_神経内科_外科_婦人科_皮膚科_リハビリテーション科】【一般病床数:43療養病床数:45精神病床数:0感染症病床数:0合計病床数:88】長崎県南島原市口之津町甲１１８１番地" }, "geometry": { "type": "Point", "coordinates": [ 130.188411, 32.605131 ] } },
{ "type": "Feature", "properties": { "ID": "421hmi0011", "正式名称": "貴田神経内科・呼吸器科・内科病院", "機関区分": 1, "都道府県コード": 42, "市区町村コード": 203, "所在地": "長崎県島原市有明町大三東戊７９０番地２", "緯度": 32.853896, "経度": 130.332879, "url": "https://www.iryou.teikyouseido.mhlw.go.jp/znk-web/juminkanja/S2430/initialize?prefCd=42&kikanCd=hmi0011&kikanKbn=1", "url2": "http://www.kida-hp.or.jp", "内容": "貴田神経内科・呼吸器科・内科病院【1:病院】【診療科目:内科_呼吸器内科_消化器内科_神経内科_リハビリテーション科_放射線科】【一般病床数:0療養病床数:82精神病床数:0感染症病床数:0合計病床数:82】長崎県島原市有明町大三東戊７９０番地２" }, "geometry": { "type": "Point", "coordinates": [ 130.332879, 32.853896 ] } },
{ "type": "Feature", "properties": { "ID": "421hmi0013", "正式名称": "公立小浜温泉病院", "機関区分": 1, "都道府県コード": 42, "市区町村コード": 213, "所在地": "長崎県雲仙市小浜町マリーナ３－２", "緯度": 32.723486, "経度": 130.202197, "url": "https://www.iryou.teikyouseido.mhlw.go.jp/znk-web/juminkanja/S2430/initialize?prefCd=42&kikanCd=hmi0013&kikanKbn=1", "url2": "http://obama-byoin.com/", "内容": "公立小浜温泉病院【1:病院】【診療科目:内科_血液内科_呼吸器内科_循環器内科_消化器内科_腎臓内科_神経内科_外科_脳神経外科_心臓血管外科_消化器外科_整形外科_形成外科_皮膚科_精神科_リハビリテーション科_放射線科_麻酔科】【一般病床数:90療養病床数:60精神病床数:0感染症病床数:0合計病床数:150】長崎県雲仙市小浜町マリーナ３－２" }, "geometry": { "type": "Point", "coordinates": [ 130.202197, 32.723486 ] } },
{ "type": "Feature", "properties": { "ID": "421hmi0014", "正式名称": "医療法人済家会　柴田長庚堂病院", "機関区分": 1, "都道府県コード": 42, "市区町村コード": 203, "所在地": "長崎県島原市中堀町６８番地", "緯度": 32.782654, "経度": 130.370769, "url": "https://www.iryou.teikyouseido.mhlw.go.jp/znk-web/juminkanja/S2430/initialize?prefCd=42&kikanCd=hmi0014&kikanKbn=1", "url2": "http://www.saikakai.jp", "内容": "医療法人済家会　柴田長庚堂病院【1:病院】【診療科目:内科_呼吸器内科_循環器内科_消化器内科_リハビリテーション科_放射線科】【一般病床数:44療養病床数:60精神病床数:0感染症病床数:0合計病床数:104】長崎県島原市中堀町６８番地" }, "geometry": { "type": "Point", "coordinates": [ 130.370769, 32.782654 ] } },
{ "type": "Feature", "properties": { "ID": "421hmi0015", "正式名称": "島原保養院", "機関区分": 1, "都道府県コード": 42, "市区町村コード": 203, "所在地": "長崎県島原市南下川尻町８１８９ー２", "緯度": 32.766872, "経度": 130.365032, "url": "https://www.iryou.teikyouseido.mhlw.go.jp/znk-web/juminkanja/S2430/initialize?prefCd=42&kikanCd=hmi0015&kikanKbn=1", "url2": null, "内容": "島原保養院【1:病院】【診療科目:内科_精神科_心療内科】【一般病床数:0療養病床数:0精神病床数:148感染症病床数:0合計病床数:148】長崎県島原市南下川尻町８１８９ー２" }, "geometry": { "type": "Point", "coordinates": [ 130.365032, 32.766872 ] } },
{ "type": "Feature", "properties": { "ID": "421hmi0017", "正式名称": "長崎県島原病院", "機関区分": 1, "都道府県コード": 42, "市区町村コード": 203, "所在地": "長崎県島原市下川尻町７８９５番地", "緯度": 32.769375, "経度": 130.367622, "url": "https://www.iryou.teikyouseido.mhlw.go.jp/znk-web/juminkanja/S2430/initialize?prefCd=42&kikanCd=hmi0017&kikanKbn=1", "url2": "https://shimabarabyoin.jp/", "内容": "長崎県島原病院【1:病院】【診療科目:内科_血液内科_呼吸器内科_循環器内科_消化器内科_外科_脳神経外科_整形外科_小児科_眼科_耳鼻いんこう科_皮膚科_泌尿器科_リハビリテーション科_放射線科_病理診断科_臨床検査科_麻酔科】【一般病床数:203療養病床数:0精神病床数:0感染症病床数:4合計病床数:207】長崎県島原市下川尻町７８９５番地" }, "geometry": { "type": "Point", "coordinates": [ 130.367622, 32.769375 ] } },
{ "type": "Feature", "properties": { "ID": "421hna0001", "正式名称": "愛宕病院", "機関区分": 1, "都道府県コード": 42, "市区町村コード": 201, "所在地": "長崎県長崎市愛宕４丁目１４番１号", "緯度": 32.733449, "経度": 129.891928, "url": "https://www.iryou.teikyouseido.mhlw.go.jp/znk-web/juminkanja/S2430/initialize?prefCd=42&kikanCd=hna0001&kikanKbn=1", "url2": "http://hakuwakai.or.jp/", "内容": "愛宕病院【1:病院】【診療科目:内科_胃腸内科_外科_整形外科_リハビリテーション科_放射線科】【一般病床数:0療養病床数:150精神病床数:0感染症病床数:0合計病床数:150】長崎県長崎市愛宕４丁目１４番１号" }, "geometry": { "type": "Point", "coordinates": [ 129.891928, 32.733449 ] } },
{ "type": "Feature", "properties": { "ID": "421hna0002", "正式名称": "井上病院", "機関区分": 1, "都道府県コード": 42, "市区町村コード": 201, "所在地": "長崎県長崎市宝町６番１２号", "緯度": 32.759257, "経度": 129.867405, "url": "https://www.iryou.teikyouseido.mhlw.go.jp/znk-web/juminkanja/S2430/initialize?prefCd=42&kikanCd=hna0002&kikanKbn=1", "url2": "http://www.shunkaikai.jp/inoue/", "内容": "井上病院【1:病院】【診療科目:内科_感染症内科_糖尿病内科_呼吸器内科_循環器内科_消化器内科_腎臓内科_人工透析内科_神経内科_老年内科_内視鏡内科_外科_脳神経外科_消化器外科_大腸外科_大腸・肛門外科_内視鏡外科_整形外科_眼科_皮膚科_リハビリテーション科_放射線科】【一般病床数:112療養病床数:0精神病床数:0感染症病床数:0合計病床数:112】長崎県長崎市宝町６番１２号" }, "geometry": { "type": "Point", "coordinates": [ 129.867405, 32.759257 ] } },
{ "type": "Feature", "properties": { "ID": "421hna0004", "正式名称": "大石共立病院", "機関区分": 1, "都道府県コード": 42, "市区町村コード": 201, "所在地": "長崎県長崎市琴海村松町２４６番地", "緯度": 32.881392, "経度": 129.788673, "url": "https://www.iryou.teikyouseido.mhlw.go.jp/znk-web/juminkanja/S2430/initialize?prefCd=42&kikanCd=hna0004&kikanKbn=1", "url2": "https://oh-ishihospital.jp/", "内容": "大石共立病院【1:病院】【診療科目:内科_呼吸器内科_循環器内科_外科_消化器外科_泌尿器科_リハビリテーション科】【一般病床数:0療養病床数:35精神病床数:0感染症病床数:0合計病床数:35】長崎県長崎市琴海村松町２４６番地" }, "geometry": { "type": "Point", "coordinates": [ 129.788673, 32.881392 ] } },
{ "type": "Feature", "properties": { "ID": "421hna0005", "正式名称": "医療法人光仁会　光仁会病院", "機関区分": 1, "都道府県コード": 42, "市区町村コード": 201, "所在地": "長崎県長崎市三原３丁目６４３", "緯度": 32.778735, "経度": 129.884829, "url": "https://www.iryou.teikyouseido.mhlw.go.jp/znk-web/juminkanja/S2430/initialize?prefCd=42&kikanCd=hna0005&kikanKbn=1", "url2": "kojinkai-hospital.jp", "内容": "医療法人光仁会　光仁会病院【1:病院】【診療科目:内科_精神科_心療内科_リハビリテーション科_放射線科】【一般病床数:0療養病床数:0精神病床数:553感染症病床数:0合計病床数:553】長崎県長崎市三原３丁目６４３" }, "geometry": { "type": "Point", "coordinates": [ 129.884829, 32.778735 ] } },
{ "type": "Feature", "properties": { "ID": "421hna0006", "正式名称": "出島病院", "機関区分": 1, "都道府県コード": 42, "市区町村コード": 201, "所在地": "長崎県長崎市出島町１２－２３", "緯度": 32.742336, "経度": 129.872567, "url": "https://www.iryou.teikyouseido.mhlw.go.jp/znk-web/juminkanja/S2430/initialize?prefCd=42&kikanCd=hna0006&kikanKbn=1", "url2": "http://www.shunkaikai.jp/dejima/", "内容": "出島病院【1:病院】【診療科目:内科_緩和ケア内科_リハビリテーション科】【一般病床数:37療養病床数:0精神病床数:0感染症病床数:0合計病床数:37】長崎県長崎市出島町１２－２３" }, "geometry": { "type": "Point", "coordinates": [ 129.872567, 32.742336 ] } },
{ "type": "Feature", "properties": { "ID": "421hna0007", "正式名称": "特定医療法人光晴会病院", "機関区分": 1, "都道府県コード": 42, "市区町村コード": 201, "所在地": "長崎県長崎市葉山１丁目３番１２号", "緯度": 32.804056, "経度": 129.852204, "url": "https://www.iryou.teikyouseido.mhlw.go.jp/znk-web/juminkanja/S2430/initialize?prefCd=42&kikanCd=hna0007&kikanKbn=1", "url2": "http://www.kouseikai.org", "内容": "特定医療法人光晴会病院【1:病院】【診療科目:内科_糖尿病・内分泌内科_呼吸器内科_循環器内科_消化器内科_腎臓内科_外科_心臓血管外科_肛門外科_形成外科_泌尿器科_リウマチ科_リハビリテーション科_麻酔科】【一般病床数:151療養病床数:0精神病床数:0感染症病床数:0合計病床数:151】長崎県長崎市葉山１丁目３番１２号" }, "geometry": { "type": "Point", "coordinates": [ 129.852204, 32.804056 ] } },
{ "type": "Feature", "properties": { "ID": "421hna0009", "正式名称": "出口病院", "機関区分": 1, "都道府県コード": 42, "市区町村コード": 201, "所在地": "長崎県長崎市柿泊町２２５０", "緯度": 32.777188, "経度": 129.819476, "url": "https://www.iryou.teikyouseido.mhlw.go.jp/znk-web/juminkanja/S2430/initialize?prefCd=42&kikanCd=hna0009&kikanKbn=1", "url2": "http://www.deguchi.or.jp", "内容": "出口病院【1:病院】【診療科目:内科_脳神経外科_精神科_心療内科_老年精神科】【一般病床数:0療養病床数:0精神病床数:120感染症病床数:0合計病床数:120】長崎県長崎市柿泊町２２５０" }, "geometry": { "type": "Point", "coordinates": [ 129.819476, 32.777188 ] } },
{ "type": "Feature", "properties": { "ID": "421hna0012", "正式名称": "医療法人清潮会三和中央病院", "機関区分": 1, "都道府県コード": 42, "市区町村コード": 201, "所在地": "長崎県長崎市布巻町１６５－１", "緯度": 32.655025, "経度": 129.832725, "url": "https://www.iryou.teikyouseido.mhlw.go.jp/znk-web/juminkanja/S2430/initialize?prefCd=42&kikanCd=hna0012&kikanKbn=1", "url2": "http://www.sanwa.or.jp", "内容": "医療法人清潮会三和中央病院【1:病院】【診療科目:内科_精神科_心療内科_歯科】【一般病床数:0療養病床数:0精神病床数:697感染症病床数:0合計病床数:697】長崎県長崎市布巻町１６５－１" }, "geometry": { "type": "Point", "coordinates": [ 129.832725, 32.655025 ] } },
{ "type": "Feature", "properties": { "ID": "421hna0013", "正式名称": "日浦病院", "機関区分": 1, "都道府県コード": 42, "市区町村コード": 201, "所在地": "長崎県長崎市下黒崎町１４０２番地", "緯度": 32.835771, "経度": 129.714594, "url": "https://www.iryou.teikyouseido.mhlw.go.jp/znk-web/juminkanja/S2430/initialize?prefCd=42&kikanCd=hna0013&kikanKbn=1", "url2": "http://hiurahp.jp/", "内容": "日浦病院【1:病院】【診療科目:内科_外科_脳神経外科_整形外科_皮膚科_リハビリテーション科】【一般病床数:95療養病床数:103精神病床数:0感染症病床数:0合計病床数:198】長崎県長崎市下黒崎町１４０２番地" }, "geometry": { "type": "Point", "coordinates": [ 129.714594, 32.835771 ] } },
{ "type": "Feature", "properties": { "ID": "421hna0015", "正式名称": "光風台病院", "機関区分": 1, "都道府県コード": 42, "市区町村コード": 201, "所在地": "長崎県長崎市鳴見台２丁目４５ー２０", "緯度": 32.823607, "経度": 129.806857, "url": "https://www.iryou.teikyouseido.mhlw.go.jp/znk-web/juminkanja/S2430/initialize?prefCd=42&kikanCd=hna0015&kikanKbn=1", "url2": "https://megumikai.org/", "内容": "光風台病院【1:病院】【診療科目:内科_循環器内科_外科_整形外科_小児科_皮膚科_泌尿器科_歯科_リハビリテーション科_放射線科】【一般病床数:100療養病床数:50精神病床数:0感染症病床数:0合計病床数:150】長崎県長崎市鳴見台２丁目４５ー２０" }, "geometry": { "type": "Point", "coordinates": [ 129.806857, 32.823607 ] } },
{ "type": "Feature", "properties": { "ID": "421hna0016", "正式名称": "長崎みどり病院", "機関区分": 1, "都道府県コード": 42, "市区町村コード": 201, "所在地": "長崎県長崎市富士見町１８－２４", "緯度": 32.773146, "経度": 129.854672, "url": "https://www.iryou.teikyouseido.mhlw.go.jp/znk-web/juminkanja/S2430/initialize?prefCd=42&kikanCd=hna0016&kikanKbn=1", "url2": "http://www.midorimidori.jp", "内容": "長崎みどり病院【1:病院】【診療科目:内科_呼吸器内科_循環器内科_消化器内科_神経内科_リハビリテーション科_放射線科】【一般病床数:0療養病床数:36精神病床数:0感染症病床数:0合計病床数:36】長崎県長崎市富士見町１８－２４" }, "geometry": { "type": "Point", "coordinates": [ 129.854672, 32.773146 ] } },
{ "type": "Feature", "properties": { "ID": "421hna0019", "正式名称": "医療法人健正会大久保病院", "機関区分": 1, "都道府県コード": 42, "市区町村コード": 201, "所在地": "長崎県長崎市戸石町１４７０番地１", "緯度": 32.764282, "経度": 129.977163, "url": "https://www.iryou.teikyouseido.mhlw.go.jp/znk-web/juminkanja/S2430/initialize?prefCd=42&kikanCd=hna0019&kikanKbn=1", "url2": "http://www.ohkubo-hp.com", "内容": "医療法人健正会大久保病院【1:病院】【診療科目:内科_循環器内科_消化器内科_外科_脳神経外科_整形外科_皮膚科_リハビリテーション科】【一般病床数:32療養病床数:142精神病床数:0感染症病床数:0合計病床数:174】長崎県長崎市戸石町１４７０番地１" }, "geometry": { "type": "Point", "coordinates": [ 129.977163, 32.764282 ] } },
{ "type": "Feature", "properties": { "ID": "421hna0020", "正式名称": "社会医療法人健友会上戸町病院", "機関区分": 1, "都道府県コード": 42, "市区町村コード": 201, "所在地": "長崎県長崎市上戸町４丁目２－２０", "緯度": 32.719405, "経度": 129.86977, "url": "https://www.iryou.teikyouseido.mhlw.go.jp/znk-web/juminkanja/S2430/initialize?prefCd=42&kikanCd=hna0020&kikanKbn=1", "url2": "http://www.kenyukai.or.jp", "内容": "社会医療法人健友会上戸町病院【1:病院】【診療科目:内科_外科_整形外科_リウマチ科_リハビリテーション科】【一般病床数:60療養病床数:44精神病床数:0感染症病床数:0合計病床数:104】長崎県長崎市上戸町４丁目２－２０" }, "geometry": { "type": "Point", "coordinates": [ 129.86977, 32.719405 ] } },
{ "type": "Feature", "properties": { "ID": "421hna0021", "正式名称": "医療法人慈恵会　小江原中央病院", "機関区分": 1, "都道府県コード": 42, "市区町村コード": 201, "所在地": "長崎県長崎市小江原２丁目１番２０号", "緯度": 32.781849, "経度": 129.84173, "url": "https://www.iryou.teikyouseido.mhlw.go.jp/znk-web/juminkanja/S2430/initialize?prefCd=42&kikanCd=hna0021&kikanKbn=1", "url2": "https://www.koebaru.com/", "内容": "医療法人慈恵会　小江原中央病院【1:病院】【診療科目:内科_呼吸器内科_循環器内科_消化器内科_外科_整形外科_リハビリテーション科_放射線科】【一般病床数:46療養病床数:103精神病床数:0感染症病床数:0合計病床数:149】長崎県長崎市小江原２丁目１番２０号" }, "geometry": { "type": "Point", "coordinates": [ 129.84173, 32.781849 ] } },
{ "type": "Feature", "properties": { "ID": "421hna0022", "正式名称": "医療法人　同仁会　小林病院", "機関区分": 1, "都道府県コード": 42, "市区町村コード": 201, "所在地": "長崎県長崎市金屋町２番９号", "緯度": 32.748455, "経度": 129.873967, "url": "https://www.iryou.teikyouseido.mhlw.go.jp/znk-web/juminkanja/S2430/initialize?prefCd=42&kikanCd=hna0022&kikanKbn=1", "url2": "http://kobayashi-hp.jp/", "内容": "医療法人　同仁会　小林病院【1:病院】【診療科目:内科_循環器内科_リハビリテーション科_麻酔科】【一般病床数:0療養病床数:30精神病床数:0感染症病床数:0合計病床数:30】長崎県長崎市金屋町２番９号" }, "geometry": { "type": "Point", "coordinates": [ 129.873967, 32.748455 ] } },
{ "type": "Feature", "properties": { "ID": "421hna0023", "正式名称": "三景台病院", "機関区分": 1, "都道府県コード": 42, "市区町村コード": 201, "所在地": "長崎県長崎市弥生町７番４３号", "緯度": 32.7302, "経度": 129.892575, "url": "https://www.iryou.teikyouseido.mhlw.go.jp/znk-web/juminkanja/S2430/initialize?prefCd=42&kikanCd=hna0023&kikanKbn=1", "url2": "https://sankeidai-hospital.com", "内容": "三景台病院【1:病院】【診療科目:内科_外科_整形外科_リハビリテーション科】【一般病床数:0療養病床数:82精神病床数:0感染症病床数:0合計病床数:82】長崎県長崎市弥生町７番４３号" }, "geometry": { "type": "Point", "coordinates": [ 129.892575, 32.7302 ] } },
{ "type": "Feature", "properties": { "ID": "421hna0026", "正式名称": "十善会病院", "機関区分": 1, "都道府県コード": 42, "市区町村コード": 201, "所在地": "長崎県長崎市淵町２０番５号", "緯度": 32.760698, "経度": 129.858956, "url": "https://www.iryou.teikyouseido.mhlw.go.jp/znk-web/juminkanja/S2430/initialize?prefCd=42&kikanCd=hna0026&kikanKbn=1", "url2": "http://www.juzenkai-hospital.or.jp/", "内容": "十善会病院【1:病院】【診療科目:内科_呼吸器内科_循環器内科_消化器内科_神経内科_外科_脳神経外科_肛門外科_整形外科_形成外科_泌尿器科_リハビリテーション科_放射線科】【一般病床数:188療養病床数:0精神病床数:0感染症病床数:0合計病床数:188】長崎県長崎市淵町２０番５号" }, "geometry": { "type": "Point", "coordinates": [ 129.858956, 32.760698 ] } },
{ "type": "Feature", "properties": { "ID": "421hna0027", "正式名称": "医療法人　昭和会　昭和会病院", "機関区分": 1, "都道府県コード": 42, "市区町村コード": 201, "所在地": "長崎県長崎市東山手町", "緯度": 32.736753, "経度": 129.873091, "url": "https://www.iryou.teikyouseido.mhlw.go.jp/znk-web/juminkanja/S2430/initialize?prefCd=42&kikanCd=hna0027&kikanKbn=1", "url2": "http://www.showakai-hp.jp", "内容": "医療法人　昭和会　昭和会病院【1:病院】【診療科目:内科_呼吸器内科_循環器内科_消化器内科_外科_脳神経外科_消化器外科_肛門外科_整形外科_皮膚科_泌尿器科_リハビリテーション科_放射線科】【一般病床数:0療養病床数:286精神病床数:0感染症病床数:0合計病床数:286】長崎県長崎市東山手町" }, "geometry": { "type": "Point", "coordinates": [ 129.873091, 32.736753 ] } },
{ "type": "Feature", "properties": { "ID": "421hna0028", "正式名称": "聖フランシスコ病院", "機関区分": 1, "都道府県コード": 42, "市区町村コード": 201, "所在地": "長崎県長崎市小峰町", "緯度": 32.783196, "経度": 129.873099, "url": "https://www.iryou.teikyouseido.mhlw.go.jp/znk-web/juminkanja/S2430/initialize?prefCd=42&kikanCd=hna0028&kikanKbn=1", "url2": "http://www.sfh.or.jp/", "内容": "聖フランシスコ病院【1:病院】【診療科目:内科_糖尿病・内分泌内科_呼吸器内科_循環器内科_消化器内科_腎臓内科_人工透析内科_緩和ケア内科_外科_呼吸器外科_消化器外科_乳腺外科_整形外科_泌尿器科_リウマチ科_リハビリテーション科_放射線科】【一般病床数:157療養病床数:0精神病床数:0感染症病床数:0合計病床数:157】長崎県長崎市小峰町" }, "geometry": { "type": "Point", "coordinates": [ 129.873099, 32.783196 ] } },
{ "type": "Feature", "properties": { "ID": "421hna0029", "正式名称": "長崎リハビリテーション病院", "機関区分": 1, "都道府県コード": 42, "市区町村コード": 201, "所在地": "長崎県長崎市銀屋町４番１１号", "緯度": 32.745716, "経度": 129.880774, "url": "https://www.iryou.teikyouseido.mhlw.go.jp/znk-web/juminkanja/S2430/initialize?prefCd=42&kikanCd=hna0029&kikanKbn=1", "url2": "https://www.zeshinkai.or.jp", "内容": "長崎リハビリテーション病院【1:病院】【診療科目:内科_神経内科_外科_脳神経外科_整形外科_リハビリテーション科】【一般病床数:0療養病床数:143精神病床数:0感染症病床数:0合計病床数:143】長崎県長崎市銀屋町４番１１号" }, "geometry": { "type": "Point", "coordinates": [ 129.880774, 32.745716 ] } },
{ "type": "Feature", "properties": { "ID": "421hna0031", "正式名称": "医療法人保善会　田上病院", "機関区分": 1, "都道府県コード": 42, "市区町村コード": 201, "所在地": "長崎県長崎市田上２丁目１４番１５号", "緯度": 32.725886, "経度": 129.88744, "url": "https://www.iryou.teikyouseido.mhlw.go.jp/znk-web/juminkanja/S2430/initialize?prefCd=42&kikanCd=hna0031&kikanKbn=1", "url2": "http://www.tagami-hp.com", "内容": "医療法人保善会　田上病院【1:病院】【診療科目:内科_呼吸器内科_循環器内科_消化器内科_外科_消化器外科_整形外科_リハビリテーション科_放射線科】【一般病床数:75療養病床数:78精神病床数:0感染症病床数:0合計病床数:153】長崎県長崎市田上２丁目１４番１５号" }, "geometry": { "type": "Point", "coordinates": [ 129.88744, 32.725886 ] } },
{ "type": "Feature", "properties": { "ID": "421hna0032", "正式名称": "医療法人友愛会田川療養所", "機関区分": 1, "都道府県コード": 42, "市区町村コード": 201, "所在地": "長崎県長崎市錦２丁目１番１号", "緯度": 32.788731, "経度": 129.85542, "url": "https://www.iryou.teikyouseido.mhlw.go.jp/znk-web/juminkanja/S2430/initialize?prefCd=42&kikanCd=hna0032&kikanKbn=1", "url2": "https://www.youi-med-psychiatry.com/tagawa/", "内容": "医療法人友愛会田川療養所【1:病院】【診療科目:内科_精神科_心療内科_歯科】【一般病床数:0療養病床数:0精神病床数:229感染症病床数:0合計病床数:229】長崎県長崎市錦２丁目１番１号" }, "geometry": { "type": "Point", "coordinates": [ 129.85542, 32.788731 ] } },
{ "type": "Feature", "properties": { "ID": "421hna0033", "正式名称": "独立行政法人国立病院機構長崎病院", "機関区分": 1, "都道府県コード": 42, "市区町村コード": 201, "所在地": "長崎県長崎市桜木町６－４１", "緯度": 32.728564, "経度": 129.890009, "url": "https://www.iryou.teikyouseido.mhlw.go.jp/znk-web/juminkanja/S2430/initialize?prefCd=42&kikanCd=hna0033&kikanKbn=1", "url2": "https://nagasaki-hp.hosp.go.jp/", "内容": "独立行政法人国立病院機構長崎病院【1:病院】【診療科目:内科_血液内科_呼吸器内科_循環器内科_消化器内科_神経内科_外科_整形外科_形成外科_小児科_小児外科_精神科_心療内科_リハビリテーション科】【一般病床数:280療養病床数:0精神病床数:0感染症病床数:0合計病床数:280】長崎県長崎市桜木町６－４１" }, "geometry": { "type": "Point", "coordinates": [ 129.890009, 32.728564 ] } },
{ "type": "Feature", "properties": { "ID": "421hna0034", "正式名称": "長崎記念病院", "機関区分": 1, "都道府県コード": 42, "市区町村コード": 201, "所在地": "長崎県長崎市深堀町１丁目１１番地５４", "緯度": 32.685444, "経度": 129.83345, "url": "https://www.iryou.teikyouseido.mhlw.go.jp/znk-web/juminkanja/S2430/initialize?prefCd=42&kikanCd=hna0034&kikanKbn=1", "url2": "http//www.nmhp.or.jp", "内容": "長崎記念病院【1:病院】【診療科目:内科_外科_脳神経外科_心臓血管外科_肛門外科_整形外科_形成外科_小児科_泌尿器科_リハビリテーション科_放射線科】【一般病床数:117療養病床数:96精神病床数:0感染症病床数:0合計病床数:213】長崎県長崎市深堀町１丁目１１番地５４" }, "geometry": { "type": "Point", "coordinates": [ 129.83345, 32.685444 ] } },
{ "type": "Feature", "properties": { "ID": "421hna0036", "正式名称": "地方独立行政法人長崎市立病院機構長崎みなとメディカルセンター", "機関区分": 1, "都道府県コード": 42, "市区町村コード": 201, "所在地": "長崎県長崎市新地町６ー３９", "緯度": 32.739729, "経度": 129.872554, "url": "https://www.iryou.teikyouseido.mhlw.go.jp/znk-web/juminkanja/S2430/initialize?prefCd=42&kikanCd=hna0036&kikanKbn=1", "url2": "http://shibyo.nmh.jp/", "内容": "地方独立行政法人長崎市立病院機構長崎みなとメディカルセンター【1:病院】【診療科目:内科_血液内科_糖尿病・内分泌内科_脳神経内科_呼吸器内科_心臓血管内科_消化器内科_腎臓内科_神経内科_外科_脳神経外科_呼吸器外科_心臓血管外科_消化器外科_乳腺・内分泌外科_肛門外科_整形外科_形成外科_緩和ケア外科_小児科_小児外科_新生児内科_産科_婦人科_眼科_耳鼻いんこう科_皮膚科_泌尿器科_精神科_心療内科_歯科_リハビリテーション科_放射線科_病理診断科_救急科_麻酔科_臨床腫瘍科】【一般病床数:494療養病床数:0精神病床数:0感染症病床数:13合計病床数:513】長崎県長崎市新地町６ー３９" }, "geometry": { "type": "Point", "coordinates": [ 129.872554, 32.739729 ] } },
{ "type": "Feature", "properties": { "ID": "421hna0039", "正式名称": "長崎大学病院", "機関区分": 1, "都道府県コード": 42, "市区町村コード": 201, "所在地": "長崎県長崎市坂本１丁目７－１", "緯度": 32.769456, "経度": 129.868227, "url": "https://www.iryou.teikyouseido.mhlw.go.jp/znk-web/juminkanja/S2430/initialize?prefCd=42&kikanCd=hna0039&kikanKbn=1", "url2": "https://www.mh.nagasaki-u.ac.jp/", "内容": "長崎大学病院【1:病院】【診療科目:内科_感染症内科_血液内科_代謝・内分泌内科_脳神経内科_呼吸器内科_循環器内科_消化器内科_腎臓内科_外科_脳神経外科_呼吸器外科_心臓血管外科_消化器外科_肝臓・胆のう・膵臓外科_乳腺・内分泌外科_大腸・肛門外科_移植外科_整形外科_形成外科_泌尿器科・腎移植外科，胃・食道外科，肝胆膵外科・肝移植外科_小児科_小児外科_産婦人科_眼科_耳鼻いんこう科_皮膚科_精神科_歯科_矯正歯科_歯科口腔外科_小児歯科_リウマチ科_リハビリテーション科_放射線科_病理診断科_臨床検査科_救急科_麻酔科】【一般病床数:729療養病床数:0精神病床数:39感染症病床数:2合計病床数:776】長崎県長崎市坂本１丁目７－１" }, "geometry": { "type": "Point", "coordinates": [ 129.868227, 32.769456 ] } },
{ "type": "Feature", "properties": { "ID": "421hna0041", "正式名称": "長崎友愛病院", "機関区分": 1, "都道府県コード": 42, "市区町村コード": 201, "所在地": "長崎県長崎市蚊焼町２３１４番地１", "緯度": 32.651919, "経度": 129.82481, "url": "https://www.iryou.teikyouseido.mhlw.go.jp/znk-web/juminkanja/S2430/initialize?prefCd=42&kikanCd=hna0041&kikanKbn=1", "url2": "http://www.nagasaki-yuuai.com/", "内容": "長崎友愛病院【1:病院】【診療科目:内科_外科_整形外科_形成外科_眼科_皮膚科_リハビリテーション科】【一般病床数:70療養病床数:0精神病床数:0感染症病床数:0合計病床数:70】長崎県長崎市蚊焼町２３１４番地１" }, "geometry": { "type": "Point", "coordinates": [ 129.82481, 32.651919 ] } },
{ "type": "Feature", "properties": { "ID": "421hna0042", "正式名称": "医療法人厚生会虹が丘病院", "機関区分": 1, "都道府県コード": 42, "市区町村コード": 201, "所在地": "長崎県長崎市虹が丘町１番１号", "緯度": 32.798477, "経度": 129.846327, "url": "https://www.iryou.teikyouseido.mhlw.go.jp/znk-web/juminkanja/S2430/initialize?prefCd=42&kikanCd=hna0042&kikanKbn=1", "url2": "http://www.nijigaoka.org", "内容": "医療法人厚生会虹が丘病院【1:病院】【診療科目:内科_糖尿病内科_脂質代謝内科_呼吸器内科_循環器内科_消化器内科_腎臓内科_人工透析内科_神経内科_外科_血管外科_消化器外科_肛門外科_整形外科_眼科_皮膚科_リウマチ科_リハビリテーション科_放射線科】【一般病床数:150療養病床数:0精神病床数:0感染症病床数:0合計病床数:150】長崎県長崎市虹が丘町１番１号" }, "geometry": { "type": "Point", "coordinates": [ 129.846327, 32.798477 ] } },
{ "type": "Feature", "properties": { "ID": "421hna0043", "正式名称": "医療法人志仁会西脇病院", "機関区分": 1, "都道府県コード": 42, "市区町村コード": 201, "所在地": "長崎県長崎市桜木町３－１４", "緯度": 32.730688, "経度": 129.891095, "url": "https://www.iryou.teikyouseido.mhlw.go.jp/znk-web/juminkanja/S2430/initialize?prefCd=42&kikanCd=hna0043&kikanKbn=1", "url2": "http://www.nishiwaki.or.jp", "内容": "医療法人志仁会西脇病院【1:病院】【診療科目:精神科_神経科_心療内科】【一般病床数:0療養病床数:0精神病床数:217感染症病床数:0合計病床数:217】長崎県長崎市桜木町３－１４" }, "geometry": { "type": "Point", "coordinates": [ 129.891095, 32.730688 ] } },
{ "type": "Feature", "properties": { "ID": "421hna0044", "正式名称": "長崎掖済会病院", "機関区分": 1, "都道府県コード": 42, "市区町村コード": 201, "所在地": "長崎県長崎市樺島町５番１６号", "緯度": 32.746332, "経度": 129.872923, "url": "https://www.iryou.teikyouseido.mhlw.go.jp/znk-web/juminkanja/S2430/initialize?prefCd=42&kikanCd=hna0044&kikanKbn=1", "url2": "http://ekisaikai-nagasaki.jp/", "内容": "長崎掖済会病院【1:病院】【診療科目:内科_感染症内科_糖尿病内科_脂質代謝内科_呼吸器内科_気管食道内科_心臓内科_消化器内科_腎臓内科_老年内科_内視鏡内科_外科_脳神経外科_消化器外科_肛門外科_腫瘍外科_整形外科_内分泌外科_皮膚科_泌尿器科_リウマチ科_リハビリテーション科_放射線科_麻酔科】【一般病床数:124療養病床数:0精神病床数:0感染症病床数:0合計病床数:124】長崎県長崎市樺島町５番１６号" }, "geometry": { "type": "Point", "coordinates": [ 129.872923, 32.746332 ] } },
{ "type": "Feature", "properties": { "ID": "421hna0045", "正式名称": "日本赤十字社長崎原爆病院", "機関区分": 1, "都道府県コード": 42, "市区町村コード": 201, "所在地": "長崎県長崎市茂里町３－１５", "緯度": 32.765181, "経度": 129.862573, "url": "https://www.iryou.teikyouseido.mhlw.go.jp/znk-web/juminkanja/S2430/initialize?prefCd=42&kikanCd=hna0045&kikanKbn=1", "url2": "https://www.nagasaki-med.jrc.or.jp/care/come/traffic/", "内容": "日本赤十字社長崎原爆病院【1:病院】【診療科目:内科_血液内科_糖尿病・内分泌内科_脳神経内科_呼吸器内科_循環器内科_消化器内科_腎臓内科_緩和ケア内科_外科_呼吸器外科_消化器外科_乳腺・内分泌外科_整形外科_形成外科_婦人科_眼科_耳鼻いんこう科_皮膚科_泌尿器科_歯科口腔外科_リウマチ科_リハビリテーション科_放射線科_放射線治療科_病理診断科_麻酔科】【一般病床数:315療養病床数:0精神病床数:0感染症病床数:0合計病床数:315】長崎県長崎市茂里町３－１５" }, "geometry": { "type": "Point", "coordinates": [ 129.862573, 32.765181 ] } },
{ "type": "Feature", "properties": { "ID": "421hna0046", "正式名称": "日見中央病院", "機関区分": 1, "都道府県コード": 42, "市区町村コード": 201, "所在地": "長崎県長崎市芒塚町", "緯度": 32.758548, "経度": 129.931579, "url": "https://www.iryou.teikyouseido.mhlw.go.jp/znk-web/juminkanja/S2430/initialize?prefCd=42&kikanCd=hna0046&kikanKbn=1", "url2": "https://himi-mental.com/", "内容": "日見中央病院【1:病院】【診療科目:内科_精神科_心療内科】【一般病床数:106療養病床数:60精神病床数:166感染症病床数:0合計病床数:166】長崎県長崎市芒塚町" }, "geometry": { "type": "Point", "coordinates": [ 129.931579, 32.758548 ] } },
{ "type": "Feature", "properties": { "ID": "421hna0047", "正式名称": "廣中病院", "機関区分": 1, "都道府県コード": 42, "市区町村コード": 201, "所在地": "長崎県長崎市田手原町　８１１番地９", "緯度": 32.735426, "経度": 129.900712, "url": "https://www.iryou.teikyouseido.mhlw.go.jp/znk-web/juminkanja/S2430/initialize?prefCd=42&kikanCd=hna0047&kikanKbn=1", "url2": "www.hironaka-hp.e-doctor.info/", "内容": "廣中病院【1:病院】【診療科目:精神科】【一般病床数:0療養病床数:0精神病床数:277感染症病床数:0合計病床数:277】長崎県長崎市田手原町　８１１番地９" }, "geometry": { "type": "Point", "coordinates": [ 129.900712, 32.735426 ] } },
{ "type": "Feature", "properties": { "ID": "421hna0048", "正式名称": "道ノ尾病院", "機関区分": 1, "都道府県コード": 42, "市区町村コード": 201, "所在地": "長崎県長崎市虹が丘町１番１号", "緯度": 32.798477, "経度": 129.846327, "url": "https://www.iryou.teikyouseido.mhlw.go.jp/znk-web/juminkanja/S2430/initialize?prefCd=42&kikanCd=hna0048&kikanKbn=1", "url2": "http://michinoo.or.jp/", "内容": "道ノ尾病院【1:病院】【診療科目:内科_皮膚科_精神科_心療内科_歯科】【一般病床数:0療養病床数:0精神病床数:785感染症病床数:0合計病床数:785】長崎県長崎市虹が丘町１番１号" }, "geometry": { "type": "Point", "coordinates": [ 129.846327, 32.798477 ] } },
{ "type": "Feature", "properties": { "ID": "421hna0049", "正式名称": "医療法人重工記念長崎病院", "機関区分": 1, "都道府県コード": 42, "市区町村コード": 201, "所在地": "長崎県長崎市丸尾町６番１７号", "緯度": 32.747019, "経度": 129.860805, "url": "https://www.iryou.teikyouseido.mhlw.go.jp/znk-web/juminkanja/S2430/initialize?prefCd=42&kikanCd=hna0049&kikanKbn=1", "url2": "http://www.jmnh.or.jp/", "内容": "医療法人重工記念長崎病院【1:病院】【診療科目:内科_外科_整形外科_形成外科_婦人科_眼科_耳鼻いんこう科_皮膚科_泌尿器科_心療内科_歯科_歯科口腔外科_リハビリテーション科_放射線科_臨床検査科_麻酔科】【一般病床数:165療養病床数:0精神病床数:0感染症病床数:0合計病床数:165】長崎県長崎市丸尾町６番１７号" }, "geometry": { "type": "Point", "coordinates": [ 129.860805, 32.747019 ] } },
{ "type": "Feature", "properties": { "ID": "421hna0050", "正式名称": "医療法人　稲仁会　三原台病院", "機関区分": 1, "都道府県コード": 42, "市区町村コード": 201, "所在地": "長崎県長崎市三原１－８－３５", "緯度": 32.781152, "経度": 129.876175, "url": "https://www.iryou.teikyouseido.mhlw.go.jp/znk-web/juminkanja/S2430/initialize?prefCd=42&kikanCd=hna0050&kikanKbn=1", "url2": "http://www.miharadai.or.jp/", "内容": "医療法人　稲仁会　三原台病院【1:病院】【診療科目:内科_循環器内科_消化器内科_神経内科_整形外科_眼科_耳鼻いんこう科_皮膚科_泌尿器科_歯科_リハビリテーション科_放射線科】【一般病床数:55療養病床数:177精神病床数:0感染症病床数:0合計病床数:232】長崎県長崎市三原１－８－３５" }, "geometry": { "type": "Point", "coordinates": [ 129.876175, 32.781152 ] } },
{ "type": "Feature", "properties": { "ID": "421hna0051", "正式名称": "杠葉病院", "機関区分": 1, "都道府県コード": 42, "市区町村コード": 201, "所在地": "長崎県長崎市三和町４１３番地", "緯度": 32.691807, "経度": 129.849282, "url": "https://www.iryou.teikyouseido.mhlw.go.jp/znk-web/juminkanja/S2430/initialize?prefCd=42&kikanCd=hna0051&kikanKbn=1", "url2": "https://www.yuzuriha.or.jp/", "内容": "杠葉病院【1:病院】【診療科目:内科_精神科_心療内科_歯科_矯正歯科_歯科口腔外科】【一般病床数:0療養病床数:0精神病床数:355感染症病床数:0合計病床数:355】長崎県長崎市三和町４１３番地" }, "geometry": { "type": "Point", "coordinates": [ 129.849282, 32.691807 ] } },
{ "type": "Feature", "properties": { "ID": "421hna0052", "正式名称": "和仁会病院", "機関区分": 1, "都道府県コード": 42, "市区町村コード": 201, "所在地": "長崎県長崎市中里町９６", "緯度": 32.797768, "経度": 129.962216, "url": "https://www.iryou.teikyouseido.mhlw.go.jp/znk-web/juminkanja/S2430/initialize?prefCd=42&kikanCd=hna0052&kikanKbn=1", "url2": "https://wajinkaihp.jp/", "内容": "和仁会病院【1:病院】【診療科目:内科_糖尿病内科_循環器内科_腎臓内科_人工透析内科_外科_脳神経外科_整形外科_泌尿器科_リウマチ科_リハビリテーション科_放射線科】【一般病床数:57療養病床数:142精神病床数:0感染症病床数:0合計病床数:199】長崎県長崎市中里町９６" }, "geometry": { "type": "Point", "coordinates": [ 129.962216, 32.797768 ] } },
{ "type": "Feature", "properties": { "ID": "421hna0053", "正式名称": "社会福祉法人恩賜財団済生会支部済生会長崎病院", "機関区分": 1, "都道府県コード": 42, "市区町村コード": 201, "所在地": "長崎県長崎市片淵２丁目５番１号", "緯度": 32.756248, "経度": 129.886521, "url": "https://www.iryou.teikyouseido.mhlw.go.jp/znk-web/juminkanja/S2430/initialize?prefCd=42&kikanCd=hna0053&kikanKbn=1", "url2": "http://www.nsaisei.or.jp", "内容": "社会福祉法人恩賜財団済生会支部済生会長崎病院【1:病院】【診療科目:内科_糖尿病内科_代謝内科_内分泌内科_呼吸器内科_循環器内科_消化器内科_腎臓内科_人工透析内科_外科_脳神経外科_消化器外科_大腸外科_整形外科_小児科_産婦人科_頭頸部・耳鼻いんこう科_皮膚科_泌尿器科_リウマチ科_リハビリテーション科_放射線科_放射線診断科_病理診断科_救急科_麻酔科】【一般病床数:205療養病床数:0精神病床数:0感染症病床数:0合計病床数:205】長崎県長崎市片淵２丁目５番１号" }, "geometry": { "type": "Point", "coordinates": [ 129.886521, 32.756248 ] } },
{ "type": "Feature", "properties": { "ID": "421hna0054", "正式名称": "ニュー琴海病院", "機関区分": 1, "都道府県コード": 42, "市区町村コード": 201, "所在地": "長崎県長崎市琴海形上町１８４９－７", "緯度": 32.948313, "経度": 129.785417, "url": "https://www.iryou.teikyouseido.mhlw.go.jp/znk-web/juminkanja/S2430/initialize?prefCd=42&kikanCd=hna0054&kikanKbn=1", "url2": "http://newkinkai.or.jp/", "内容": "ニュー琴海病院【1:病院】【診療科目:内科_循環器内科_外科_消化器外科_整形外科_眼科_皮膚科_泌尿器科_リハビリテーション科】【一般病床数:60療養病床数:0精神病床数:0感染症病床数:0合計病床数:60】長崎県長崎市琴海形上町１８４９－７" }, "geometry": { "type": "Point", "coordinates": [ 129.785417, 32.948313 ] } },
{ "type": "Feature", "properties": { "ID": "421hna0055", "正式名称": "医療法人　衆和会　長崎腎病院", "機関区分": 1, "都道府県コード": 42, "市区町村コード": 201, "所在地": "長崎県長崎市興善町５番１号", "緯度": 32.747942, "経度": 129.876561, "url": "https://www.iryou.teikyouseido.mhlw.go.jp/znk-web/juminkanja/S2430/initialize?prefCd=42&kikanCd=hna0055&kikanKbn=1", "url2": "http://www.nagajin.jp", "内容": "医療法人　衆和会　長崎腎病院【1:病院】【診療科目:内科_腎臓内科_泌尿器科】【一般病床数:79療養病床数:0精神病床数:0感染症病床数:0合計病床数:79】長崎県長崎市興善町５番１号" }, "geometry": { "type": "Point", "coordinates": [ 129.876561, 32.747942 ] } },
{ "type": "Feature", "properties": { "ID": "421hni0001", "正式名称": "真珠園療養所", "機関区分": 1, "都道府県コード": 42, "市区町村コード": 212, "所在地": "長崎県西海市西彼町八木原郷３４５３番地１", "緯度": 33.014908, "経度": 129.732621, "url": "https://www.iryou.teikyouseido.mhlw.go.jp/znk-web/juminkanja/S2430/initialize?prefCd=42&kikanCd=hni0001&kikanKbn=1", "url2": "https://www.sinjyuen.com", "内容": "真珠園療養所【1:病院】【診療科目:内科_精神科_心療内科_リハビリテーション科】【一般病床数:0療養病床数:0精神病床数:224感染症病床数:0合計病床数:224】長崎県西海市西彼町八木原郷３４５３番地１" }, "geometry": { "type": "Point", "coordinates": [ 129.732621, 33.014908 ] } },
{ "type": "Feature", "properties": { "ID": "421hni0002", "正式名称": "長崎百合野病院", "機関区分": 1, "都道府県コード": 42, "市区町村コード": 308, "所在地": "長崎県西彼杵郡時津町元村郷１１５５ー２", "緯度": 32.814747, "経度": 129.849673, "url": "https://www.iryou.teikyouseido.mhlw.go.jp/znk-web/juminkanja/S2430/initialize?prefCd=42&kikanCd=hni0002&kikanKbn=1", "url2": "http://www.yurinohp.jp/", "内容": "長崎百合野病院【1:病院】【診療科目:内科_呼吸器内科_循環器内科_消化器内科_外科_脳神経外科_消化器外科_肛門外科_整形外科_リハビリテーション科_放射線科_麻酔科】【一般病床数:112療養病床数:48精神病床数:0感染症病床数:0合計病床数:160】長崎県西彼杵郡時津町元村郷１１５５ー２" }, "geometry": { "type": "Point", "coordinates": [ 129.849673, 32.814747 ] } },
{ "type": "Feature", "properties": { "ID": "421hni0003", "正式名称": "女の都病院", "機関区分": 1, "都道府県コード": 42, "市区町村コード": 307, "所在地": "長崎県西彼杵郡長与町高田郷８４９番地１８", "緯度": 32.807619, "経度": 129.879423, "url": "https://www.iryou.teikyouseido.mhlw.go.jp/znk-web/juminkanja/S2430/initialize?prefCd=42&kikanCd=hni0003&kikanKbn=1", "url2": "http://www.menoto-hp.jp", "内容": "女の都病院【1:病院】【診療科目:内科_呼吸器内科_循環器内科_消化器内科_外科_整形外科_形成外科_小児科_婦人科_皮膚科_リハビリテーション科_放射線科】【一般病床数:45療養病床数:75精神病床数:0感染症病床数:0合計病床数:120】長崎県西彼杵郡長与町高田郷８４９番地１８" }, "geometry": { "type": "Point", "coordinates": [ 129.879423, 32.807619 ] } },
{ "type": "Feature", "properties": { "ID": "421hni0005", "正式名称": "清水病院", "機関区分": 1, "都道府県コード": 42, "市区町村コード": 308, "所在地": "長崎県西彼杵郡時津町浜田郷５７２番地", "緯度": 32.833165, "経度": 129.859629, "url": "https://www.iryou.teikyouseido.mhlw.go.jp/znk-web/juminkanja/S2430/initialize?prefCd=42&kikanCd=hni0005&kikanKbn=1", "url2": "http://keiseikai.biz.", "内容": "清水病院【1:病院】【診療科目:内科_呼吸器内科_循環器内科_胃腸内科_外科_整形外科_小児科_リハビリテーション科_放射線科】【一般病床数:0療養病床数:181精神病床数:0感染症病床数:0合計病床数:181】長崎県西彼杵郡時津町浜田郷５７２番地" }, "geometry": { "type": "Point", "coordinates": [ 129.859629, 32.833165 ] } },
{ "type": "Feature", "properties": { "ID": "421hni0006", "正式名称": "長崎北病院", "機関区分": 1, "都道府県コード": 42, "市区町村コード": 308, "所在地": "長崎県西彼杵郡時津町元村郷８００番地", "緯度": 32.820425, "経度": 129.848862, "url": "https://www.iryou.teikyouseido.mhlw.go.jp/znk-web/juminkanja/S2430/initialize?prefCd=42&kikanCd=hni0006&kikanKbn=1", "url2": "http://www.shunkaikai.jp/kita/", "内容": "長崎北病院【1:病院】【診療科目:内科_脳神経内科_呼吸器内科_循環器内科_消化器内科_リハビリテーション科_放射線科】【一般病床数:80療養病床数:119精神病床数:0感染症病床数:0合計病床数:199】長崎県西彼杵郡時津町元村郷８００番地" }, "geometry": { "type": "Point", "coordinates": [ 129.848862, 32.820425 ] } },
{ "type": "Feature", "properties": { "ID": "421hni0007", "正式名称": "長崎セント・ノーヴァ病院", "機関区分": 1, "都道府県コード": 42, "市区町村コード": 212, "所在地": "長崎県西海市西彼町伊ノ浦郷１２７番地", "緯度": 33.055587, "経度": 129.746678, "url": "https://www.iryou.teikyouseido.mhlw.go.jp/znk-web/juminkanja/S2430/initialize?prefCd=42&kikanCd=hni0007&kikanKbn=1", "url2": "http://sentnova.jp", "内容": "長崎セント・ノーヴァ病院【1:病院】【診療科目:内科_循環器内科_消化器内科_老年内科_外科_整形外科_リハビリテーション科】【一般病床数:0療養病床数:110精神病床数:0感染症病床数:0合計病床数:110】長崎県西海市西彼町伊ノ浦郷１２７番地" }, "geometry": { "type": "Point", "coordinates": [ 129.746678, 33.055587 ] } },
{ "type": "Feature", "properties": { "ID": "421hni0008", "正式名称": "医療法人常葉会長与病院", "機関区分": 1, "都道府県コード": 42, "市区町村コード": 307, "所在地": "長崎県西彼杵郡長与町吉無田郷６４７", "緯度": 32.811285, "経度": 129.871527, "url": "https://www.iryou.teikyouseido.mhlw.go.jp/znk-web/juminkanja/S2430/initialize?prefCd=42&kikanCd=hni0008&kikanKbn=1", "url2": "http://www.tokohakai.com/", "内容": "医療法人常葉会長与病院【1:病院】【診療科目:内科_血液内科_糖尿病内科_代謝内科_循環器内科_消化器内科_老年内科_外科_心臓血管外科_整形外科_皮膚科_リハビリテーション科_放射線科】【一般病床数:0療養病床数:120精神病床数:0感染症病床数:0合計病床数:120】長崎県西彼杵郡長与町吉無田郷６４７" }, "geometry": { "type": "Point", "coordinates": [ 129.871527, 32.811285 ] } },
{ "type": "Feature", "properties": { "ID": "421hni0010", "正式名称": "医療法人　徳洲会　長崎北徳洲会病院", "機関区分": 1, "都道府県コード": 42, "市区町村コード": 307, "所在地": "長崎県西彼杵郡長与町北陽台１丁目５番１", "緯度": 32.824114, "経度": 129.872296, "url": "https://www.iryou.teikyouseido.mhlw.go.jp/znk-web/juminkanja/S2430/initialize?prefCd=42&kikanCd=hni0010&kikanKbn=1", "url2": "https://www.nk-toku.jp", "内容": "医療法人　徳洲会　長崎北徳洲会病院【1:病院】【診療科目:内科_呼吸器内科_消化器内科_腎臓内科_外科_脳神経外科_整形外科_形成外科_小児科_泌尿器科_精神科_心療内科_リハビリテーション科_放射線科_麻酔科】【一般病床数:108療養病床数:0精神病床数:0感染症病床数:0合計病床数:108】長崎県西彼杵郡長与町北陽台１丁目５番１" }, "geometry": { "type": "Point", "coordinates": [ 129.872296, 32.824114 ] } },
{ "type": "Feature", "properties": { "ID": "421hoh0001", "正式名称": "諫早記念病院", "機関区分": 1, "都道府県コード": 42, "市区町村コード": 204, "所在地": "長崎県諫早市天満町２－２１", "緯度": 32.849938, "経度": 130.045346, "url": "https://www.iryou.teikyouseido.mhlw.go.jp/znk-web/juminkanja/S2430/initialize?prefCd=42&kikanCd=hoh0001&kikanKbn=1", "url2": "http://www.kohzenkai.or.jp/", "内容": "諫早記念病院【1:病院】【診療科目:内科_糖尿病内科_代謝内科_呼吸器内科_循環器内科_心臓内科_消化器内科_神経内科_老年内科_アレルギー疾患内科_外科_消化器外科_肛門外科_整形外科_形成外科_リウマチ科_リハビリテーション科_放射線科】【一般病床数:83療養病床数:29精神病床数:0感染症病床数:0合計病床数:112】長崎県諫早市天満町２－２１" }, "geometry": { "type": "Point", "coordinates": [ 130.045346, 32.849938 ] } },
{ "type": "Feature", "properties": { "ID": "421hoh0002", "正式名称": "社会福祉法人幸生会　諫早療育センター", "機関区分": 1, "都道府県コード": 42, "市区町村コード": 204, "所在地": "長崎県諫早市有喜町５３７番地２", "緯度": 32.79289, "経度": 130.078086, "url": "https://www.iryou.teikyouseido.mhlw.go.jp/znk-web/juminkanja/S2430/initialize?prefCd=42&kikanCd=hoh0002&kikanKbn=1", "url2": "http://www.koseikai.or.jp/", "内容": "社会福祉法人幸生会　諫早療育センター【1:病院】【診療科目:内科_外科_形成外科_小児科_眼科_耳鼻いんこう科_皮膚科_リハビリテーション科】【一般病床数:180療養病床数:0精神病床数:0感染症病床数:0合計病床数:180】長崎県諫早市有喜町５３７番地２" }, "geometry": { "type": "Point", "coordinates": [ 130.078086, 32.79289 ] } },
{ "type": "Feature", "properties": { "ID": "421hoh0003", "正式名称": "貞松病院", "機関区分": 1, "都道府県コード": 42, "市区町村コード": 205, "所在地": "長崎県大村市東本町５３７", "緯度": 32.900025, "経度": 129.957863, "url": "https://www.iryou.teikyouseido.mhlw.go.jp/znk-web/juminkanja/S2430/initialize?prefCd=42&kikanCd=hoh0003&kikanKbn=1", "url2": "https://sadamatsu-hp.wixsite.com/home", "内容": "貞松病院【1:病院】【診療科目:内科_整形外科_形成外科_リウマチ科_リハビリテーション科_麻酔科】【一般病床数:76療養病床数:0精神病床数:0感染症病床数:0合計病床数:76】長崎県大村市東本町５３７" }, "geometry": { "type": "Point", "coordinates": [ 129.957863, 32.900025 ] } },
{ "type": "Feature", "properties": { "ID": "421hoh0004", "正式名称": "医療法人見松会　あきやま病院", "機関区分": 1, "都道府県コード": 42, "市区町村コード": 204, "所在地": "長崎県諫早市目代町７３７－１", "緯度": 32.894914, "経度": 130.057111, "url": "https://www.iryou.teikyouseido.mhlw.go.jp/znk-web/juminkanja/S2430/initialize?prefCd=42&kikanCd=hoh0004&kikanKbn=1", "url2": "https://www.akiyamahp.or.jp/", "内容": "医療法人見松会　あきやま病院【1:病院】【診療科目:内科_精神科_心療内科】【一般病床数:0療養病床数:0精神病床数:354感染症病床数:0合計病床数:354】長崎県諫早市目代町７３７－１" }, "geometry": { "type": "Point", "coordinates": [ 130.057111, 32.894914 ] } },
{ "type": "Feature", "properties": { "ID": "421hoh0005", "正式名称": "医療法人さざなみ鈴木病院", "機関区分": 1, "都道府県コード": 42, "市区町村コード": 321, "所在地": "長崎県東彼杵郡東彼杵町彼杵宿郷１０８５", "緯度": 33.029822, "経度": 129.928556, "url": "https://www.iryou.teikyouseido.mhlw.go.jp/znk-web/juminkanja/S2430/initialize?prefCd=42&kikanCd=hoh0005&kikanKbn=1", "url2": "http://www.sazanami.or.jp/", "内容": "医療法人さざなみ鈴木病院【1:病院】【診療科目:内科_皮膚科_精神科_神経科_心療内科_リハビリテーション科】【一般病床数:0療養病床数:85精神病床数:101感染症病床数:0合計病床数:186】長崎県東彼杵郡東彼杵町彼杵宿郷１０８５" }, "geometry": { "type": "Point", "coordinates": [ 129.928556, 33.029822 ] } },
{ "type": "Feature", "properties": { "ID": "421hoh0006", "正式名称": "社会医療法人三佼会　宮崎病院", "機関区分": 1, "都道府県コード": 42, "市区町村コード": 204, "所在地": "長崎県諫早市久山町１５７５番地１", "緯度": 32.830542, "経度": 130.002124, "url": "https://www.iryou.teikyouseido.mhlw.go.jp/znk-web/juminkanja/S2430/initialize?prefCd=42&kikanCd=hoh0006&kikanKbn=1", "url2": "http://www.sankoukai.net", "内容": "社会医療法人三佼会　宮崎病院【1:病院】【診療科目:内科_呼吸器内科_循環器内科_消化器内科_腎臓内科_老年内科_外科_脳神経外科_消化器外科_整形外科_形成外科_皮膚科_泌尿器科_リハビリテーション科_放射線科_救急科_麻酔科】【一般病床数:133療養病床数:0精神病床数:0感染症病床数:0合計病床数:133】長崎県諫早市久山町１５７５番地１" }, "geometry": { "type": "Point", "coordinates": [ 130.002124, 32.830542 ] } },
{ "type": "Feature", "properties": { "ID": "421hoh0007", "正式名称": "医療法人社団大塚会　唐比病院", "機関区分": 1, "都道府県コード": 42, "市区町村コード": 204, "所在地": "長崎県諫早市森山町唐比西１１６５番地", "緯度": 32.796783, "経度": 130.124833, "url": "https://www.iryou.teikyouseido.mhlw.go.jp/znk-web/juminkanja/S2430/initialize?prefCd=42&kikanCd=hoh0007&kikanKbn=1", "url2": null, "内容": "医療法人社団大塚会　唐比病院【1:病院】【診療科目:内科_外科_整形外科_リハビリテーション科_放射線科】【一般病床数:0療養病床数:80精神病床数:0感染症病床数:0合計病床数:80】長崎県諫早市森山町唐比西１１６５番地" }, "geometry": { "type": "Point", "coordinates": [ 130.124833, 32.796783 ] } },
{ "type": "Feature", "properties": { "ID": "421hoh0008", "正式名称": "医療法人祥仁会　西諫早病院", "機関区分": 1, "都道府県コード": 42, "市区町村コード": 204, "所在地": "長崎県諫早市貝津町３０１５番地", "緯度": 32.836649, "経度": 130.020402, "url": "https://www.iryou.teikyouseido.mhlw.go.jp/znk-web/juminkanja/S2430/initialize?prefCd=42&kikanCd=hoh0008&kikanKbn=1", "url2": "http://www.syoujinkai.com", "内容": "医療法人祥仁会　西諫早病院【1:病院】【診療科目:内科_呼吸器内科_循環器内科_外科_脳神経外科_消化器外科_乳腺・内分泌外科_整形外科_リハビリテーション科_放射線科】【一般病床数:63療養病床数:0精神病床数:0感染症病床数:0合計病床数:63】長崎県諫早市貝津町３０１５番地" }, "geometry": { "type": "Point", "coordinates": [ 130.020402, 32.836649 ] } },
{ "type": "Feature", "properties": { "ID": "421hoh0009", "正式名称": "南野病院", "機関区分": 1, "都道府県コード": 42, "市区町村コード": 205, "所在地": "長崎県大村市東三城町３３番地", "緯度": 32.912188, "経度": 129.960417, "url": "https://www.iryou.teikyouseido.mhlw.go.jp/znk-web/juminkanja/S2430/initialize?prefCd=42&kikanCd=hoh0009&kikanKbn=1", "url2": "http://www.minamino-hosp.jp", "内容": "南野病院【1:病院】【診療科目:内科_循環器内科_消化器内科_リハビリテーション科_放射線科】【一般病床数:18療養病床数:77精神病床数:0感染症病床数:0合計病床数:95】長崎県大村市東三城町３３番地" }, "geometry": { "type": "Point", "coordinates": [ 129.960417, 32.912188 ] } },
{ "type": "Feature", "properties": { "ID": "421hoh0010", "正式名称": "みどりの園病院", "機関区分": 1, "都道府県コード": 42, "市区町村コード": 204, "所在地": "長崎県諫早市上大渡野町１１５７番地４", "緯度": 32.902826, "経度": 130.014444, "url": "https://www.iryou.teikyouseido.mhlw.go.jp/znk-web/juminkanja/S2430/initialize?prefCd=42&kikanCd=hoh0010&kikanKbn=1", "url2": null, "内容": "みどりの園病院【1:病院】【診療科目:精神科_心療内科】【一般病床数:0療養病床数:0精神病床数:176感染症病床数:0合計病床数:176】長崎県諫早市上大渡野町１１５７番地４" }, "geometry": { "type": "Point", "coordinates": [ 130.014444, 32.902826 ] } },
{ "type": "Feature", "properties": { "ID": "421hoh0011", "正式名称": "医療法人衷心会小鳥居病院", "機関区分": 1, "都道府県コード": 42, "市区町村コード": 323, "所在地": "長崎県東彼杵郡波佐見町岳辺田郷７７８", "緯度": 33.109216, "経度": 129.875296, "url": "https://www.iryou.teikyouseido.mhlw.go.jp/znk-web/juminkanja/S2430/initialize?prefCd=42&kikanCd=hoh0011&kikanKbn=1", "url2": "https://kotorii-hp.jp", "内容": "医療法人衷心会小鳥居病院【1:病院】【診療科目:精神科_神経科_心療内科】【一般病床数:48療養病床数:60精神病床数:108感染症病床数:0合計病床数:108】長崎県東彼杵郡波佐見町岳辺田郷７７８" }, "geometry": { "type": "Point", "coordinates": [ 129.875296, 33.109216 ] } },
{ "type": "Feature", "properties": { "ID": "421hoh0012", "正式名称": "医療法人二輝会佐藤病院", "機関区分": 1, "都道府県コード": 42, "市区町村コード": 204, "所在地": "長崎県諫早市小長井町井崎９８", "緯度": 32.931427, "経度": 130.197282, "url": "https://www.iryou.teikyouseido.mhlw.go.jp/znk-web/juminkanja/S2430/initialize?prefCd=42&kikanCd=hoh0012&kikanKbn=1", "url2": "sato-hosp.or.jp", "内容": "医療法人二輝会佐藤病院【1:病院】【診療科目:内科_呼吸器内科_循環器内科_消化器内科_外科_整形外科_小児科_眼科_リハビリテーション科_放射線科】【一般病床数:40療養病床数:0精神病床数:0感染症病床数:0合計病床数:40】長崎県諫早市小長井町井崎９８" }, "geometry": { "type": "Point", "coordinates": [ 130.197282, 32.931427 ] } },
{ "type": "Feature", "properties": { "ID": "421hoh0013", "正式名称": "中澤病院", "機関区分": 1, "都道府県コード": 42, "市区町村コード": 205, "所在地": "長崎県大村市東大村１丁目２５２４番地３", "緯度": 32.930228, "経度": 130.008318, "url": "https://www.iryou.teikyouseido.mhlw.go.jp/znk-web/juminkanja/S2430/initialize?prefCd=42&kikanCd=hoh0013&kikanKbn=1", "url2": "http://www.hizankai.or.jp/nakazawa/", "内容": "中澤病院【1:病院】【診療科目:内科_精神科_心療内科】【一般病床数:0療養病床数:59精神病床数:100感染症病床数:0合計病床数:159】長崎県大村市東大村１丁目２５２４番地３" }, "geometry": { "type": "Point", "coordinates": [ 130.008318, 32.930228 ] } },
{ "type": "Feature", "properties": { "ID": "421hoh0014", "正式名称": "医療法人祐里会姉川病院", "機関区分": 1, "都道府県コード": 42, "市区町村コード": 204, "所在地": "長崎県諫早市小野島町２３７８番地２", "緯度": 32.851037, "経度": 130.088434, "url": "https://www.iryou.teikyouseido.mhlw.go.jp/znk-web/juminkanja/S2430/initialize?prefCd=42&kikanCd=hoh0014&kikanKbn=1", "url2": "https://anegawa-hp.jp/", "内容": "医療法人祐里会姉川病院【1:病院】【診療科目:内科_リハビリテーション科】【一般病床数:0療養病床数:111精神病床数:0感染症病床数:0合計病床数:111】長崎県諫早市小野島町２３７８番地２" }, "geometry": { "type": "Point", "coordinates": [ 130.088434, 32.851037 ] } },
{ "type": "Feature", "properties": { "ID": "421hoh0015", "正式名称": "医療法人　横尾病院", "機関区分": 1, "都道府県コード": 42, "市区町村コード": 204, "所在地": "長崎県諫早市川床町３９５番地２", "緯度": 32.830438, "経度": 130.068766, "url": "https://www.iryou.teikyouseido.mhlw.go.jp/znk-web/juminkanja/S2430/initialize?prefCd=42&kikanCd=hoh0015&kikanKbn=1", "url2": "http://yokoo-hosp.com", "内容": "医療法人　横尾病院【1:病院】【診療科目:内科_精神科】【一般病床数:0療養病床数:0精神病床数:240感染症病床数:0合計病床数:240】長崎県諫早市川床町３９５番地２" }, "geometry": { "type": "Point", "coordinates": [ 130.068766, 32.830438 ] } },
{ "type": "Feature", "properties": { "ID": "421hoh0016", "正式名称": "大村共立病院", "機関区分": 1, "都道府県コード": 42, "市区町村コード": 205, "所在地": "長崎県大村市上諏訪町１０９５番地", "緯度": 32.925622, "経度": 129.975579, "url": "https://www.iryou.teikyouseido.mhlw.go.jp/znk-web/juminkanja/S2430/initialize?prefCd=42&kikanCd=hoh0016&kikanKbn=1", "url2": "http://www.camellia.or.jp", "内容": "大村共立病院【1:病院】【診療科目:児童精神科_精神科_心療内科】【一般病床数:0療養病床数:0精神病床数:198感染症病床数:0合計病床数:198】長崎県大村市上諏訪町１０９５番地" }, "geometry": { "type": "Point", "coordinates": [ 129.975579, 32.925622 ] } },
{ "type": "Feature", "properties": { "ID": "421hoh0017", "正式名称": "市立大村市民病院", "機関区分": 1, "都道府県コード": 42, "市区町村コード": 205, "所在地": "長崎県大村市古賀島町１３３番地２２", "緯度": 32.924979, "経度": 129.946013, "url": "https://www.iryou.teikyouseido.mhlw.go.jp/znk-web/juminkanja/S2430/initialize?prefCd=42&kikanCd=hoh0017&kikanKbn=1", "url2": "https://omura.jadecom.or.jp/", "内容": "市立大村市民病院【1:病院】【診療科目:内科_感染症内科_呼吸器内科_循環器内科_消化器内科_腎臓内科_神経内科_外科_脳神経外科_血管外科_心臓血管外科_整形外科_小児科_婦人科_眼科_耳鼻いんこう科_皮膚科_泌尿器科_精神科_歯科口腔外科_リハビリテーション科_放射線科_救急科_麻酔科】【一般病床数:212療養病床数:0精神病床数:0感染症病床数:0合計病床数:212】長崎県大村市古賀島町１３３番地２２" }, "geometry": { "type": "Point", "coordinates": [ 129.946013, 32.924979 ] } },
{ "type": "Feature", "properties": { "ID": "421hoh0018", "正式名称": "恵寿病院", "機関区分": 1, "都道府県コード": 42, "市区町村コード": 204, "所在地": "長崎県諫早市有喜町５９３番地１", "緯度": 32.7917, "経度": 130.077774, "url": "https://www.iryou.teikyouseido.mhlw.go.jp/znk-web/juminkanja/S2430/initialize?prefCd=42&kikanCd=hoh0018&kikanKbn=1", "url2": "http://uki-fukushimura.jp/keijyu/", "内容": "恵寿病院【1:病院】【診療科目:内科_歯科_リハビリテーション科】【一般病床数:0療養病床数:133精神病床数:0感染症病床数:0合計病床数:133】長崎県諫早市有喜町５９３番地１" }, "geometry": { "type": "Point", "coordinates": [ 130.077774, 32.7917 ] } },
{ "type": "Feature", "properties": { "ID": "421hoh0019", "正式名称": "独立行政法人地域医療機能推進機構　諫早総合病院", "機関区分": 1, "都道府県コード": 42, "市区町村コード": 204, "所在地": "長崎県諫早市永昌東町２４番１号", "緯度": 32.855356, "経度": 130.042288, "url": "https://www.iryou.teikyouseido.mhlw.go.jp/znk-web/juminkanja/S2430/initialize?prefCd=42&kikanCd=hoh0019&kikanKbn=1", "url2": "https://isahaya.jcho.go.jp/", "内容": "独立行政法人地域医療機能推進機構　諫早総合病院【1:病院】【診療科目:内科_血液内科_糖尿病・内分泌内科_脳神経内科_呼吸器内科_循環器内科_消化器内科_腎臓内科_腫瘍内科_外科_脳神経外科_呼吸器外科_消化器外科_整形外科_小児科_産婦人科_眼科_耳鼻いんこう科_皮膚科_泌尿器科_精神科_歯科口腔外科_リウマチ科_リハビリテーション科_放射線科_放射線治療科_病理診断科_麻酔科】【一般病床数:315療養病床数:0精神病床数:0感染症病床数:4合計病床数:323】長崎県諫早市永昌東町２４番１号" }, "geometry": { "type": "Point", "coordinates": [ 130.042288, 32.855356 ] } },
{ "type": "Feature", "properties": { "ID": "421hoh0020", "正式名称": "小鳥居諫早病院", "機関区分": 1, "都道府県コード": 42, "市区町村コード": 204, "所在地": "長崎県諫早市栄田町３８ー１６", "緯度": 32.85075, "経度": 130.042899, "url": "https://www.iryou.teikyouseido.mhlw.go.jp/znk-web/juminkanja/S2430/initialize?prefCd=42&kikanCd=hoh0020&kikanKbn=1", "url2": "http://www.kotorii.or.jp", "内容": "小鳥居諫早病院【1:病院】【診療科目:精神科_心療内科】【一般病床数:0療養病床数:0精神病床数:274感染症病床数:0合計病床数:274】長崎県諫早市栄田町３８ー１６" }, "geometry": { "type": "Point", "coordinates": [ 130.042899, 32.85075 ] } },
{ "type": "Feature", "properties": { "ID": "421hoh0021", "正式名称": "慈恵病院", "機関区分": 1, "都道府県コード": 42, "市区町村コード": 204, "所在地": "長崎県諫早市多良見町化屋９９５番地", "緯度": 32.828289, "経度": 129.983039, "url": "https://www.iryou.teikyouseido.mhlw.go.jp/znk-web/juminkanja/S2430/initialize?prefCd=42&kikanCd=hoh0021&kikanKbn=1", "url2": "http://www.jyunseikai-jikei.jp/", "内容": "慈恵病院【1:病院】【診療科目:内科_呼吸器内科_循環器内科_消化器内科_外科_肛門外科_リハビリテーション科_放射線科】【一般病床数:32療養病床数:198精神病床数:0感染症病床数:0合計病床数:230】長崎県諫早市多良見町化屋９９５番地" }, "geometry": { "type": "Point", "coordinates": [ 129.983039, 32.828289 ] } },
{ "type": "Feature", "properties": { "ID": "421hoh0022", "正式名称": "医療法人緑光会　城谷病院", "機関区分": 1, "都道府県コード": 42, "市区町村コード": 204, "所在地": "長崎県諫早市堂崎町１２８８番地", "緯度": 32.844797, "経度": 130.015736, "url": "https://www.iryou.teikyouseido.mhlw.go.jp/znk-web/juminkanja/S2430/initialize?prefCd=42&kikanCd=hoh0022&kikanKbn=1", "url2": "https://joya.or.jp/", "内容": "医療法人緑光会　城谷病院【1:病院】【診療科目:内科_精神科_心療内科】【一般病床数:0療養病床数:0精神病床数:78感染症病床数:0合計病床数:78】長崎県諫早市堂崎町１２８８番地" }, "geometry": { "type": "Point", "coordinates": [ 130.015736, 32.844797 ] } },
{ "type": "Feature", "properties": { "ID": "421hoh0023", "正式名称": "医療法人社団　尚整会　菅整形外科病院", "機関区分": 1, "都道府県コード": 42, "市区町村コード": 204, "所在地": "長崎県諫早市小野町３３２", "緯度": 32.835624, "経度": 130.095055, "url": "https://www.iryou.teikyouseido.mhlw.go.jp/znk-web/juminkanja/S2430/initialize?prefCd=42&kikanCd=hoh0023&kikanKbn=1", "url2": "http://suga-seikei.jp/", "内容": "医療法人社団　尚整会　菅整形外科病院【1:病院】【診療科目:内科_整形外科_ペインクリニック整形外科_リウマチ科_リハビリテーション科_麻酔科】【一般病床数:67療養病床数:0精神病床数:0感染症病床数:0合計病床数:67】長崎県諫早市小野町３３２" }, "geometry": { "type": "Point", "coordinates": [ 130.095055, 32.835624 ] } },
{ "type": "Feature", "properties": { "ID": "421hoh0024", "正式名称": "独立行政法人国立病院機構長崎医療センター", "機関区分": 1, "都道府県コード": 42, "市区町村コード": 205, "所在地": "長崎県大村市久原２丁目１００１－１", "緯度": 32.895502, "経度": 129.972812, "url": "https://www.iryou.teikyouseido.mhlw.go.jp/znk-web/juminkanja/S2430/initialize?prefCd=42&kikanCd=hoh0024&kikanKbn=1", "url2": "https://nagasaki-mc.hosp.go.jp/", "内容": "独立行政法人国立病院機構長崎医療センター【1:病院】【診療科目:内科_感染症内科_血液内科_代謝・内分泌内科_呼吸器内科_循環器内科_消化器内科_腎臓内科_肝臓内科_神経内科_腫瘍内科_緩和ケア内科_内分泌・代謝内科_外科_脳神経外科_呼吸器外科_心臓血管外科_消化器外科_乳腺外科_整形外科_形成外科_緩和ケア外科_内分泌外科_小児科_小児外科_産婦人科_眼科_耳鼻いんこう科_皮膚科_泌尿器科_精神科_リウマチ科_リハビリテーション科_放射線科_病理診断科_臨床検査科_救急科_麻酔科】【一般病床数:606療養病床数:0精神病床数:33感染症病床数:4合計病床数:643】長崎県大村市久原２丁目１００１－１" }, "geometry": { "type": "Point", "coordinates": [ 129.972812, 32.895502 ] } },
{ "type": "Feature", "properties": { "ID": "421hoh0025", "正式名称": "独立行政法人国立病院機構長崎川棚医療センター", "機関区分": 1, "都道府県コード": 42, "市区町村コード": 322, "所在地": "長崎県東彼杵郡川棚町下組郷２００５－１", "緯度": 33.069115, "経度": 129.856103, "url": "https://www.iryou.teikyouseido.mhlw.go.jp/znk-web/juminkanja/S2430/initialize?prefCd=42&kikanCd=hoh0025&kikanKbn=1", "url2": "https://nkmc.hosp.go.jp/", "内容": "独立行政法人国立病院機構長崎川棚医療センター【1:病院】【診療科目:内科_感染症内科_代謝内科_脳神経内科_呼吸器内科_循環器内科_消化器内科_神経内科_外科_脳神経外科_呼吸器外科_整形外科_小児科_皮膚科_泌尿器科_歯科_リハビリテーション科_放射線科】【一般病床数:240療養病床数:0精神病床数:0感染症病床数:0合計病床数:240】長崎県東彼杵郡川棚町下組郷２００５－１" }, "geometry": { "type": "Point", "coordinates": [ 129.856103, 33.069115 ] } },
{ "type": "Feature", "properties": { "ID": "421hoh0026", "正式名称": "長崎県立こども医療福祉センター", "機関区分": 1, "都道府県コード": 42, "市区町村コード": 204, "所在地": "長崎県諫早市永昌東町２４番３号", "緯度": 32.85643, "経度": 130.04182, "url": "https://www.iryou.teikyouseido.mhlw.go.jp/znk-web/juminkanja/S2430/initialize?prefCd=42&kikanCd=hoh0026&kikanKbn=1", "url2": "http://www.pref.nagasaki.jp/section/kodomo-iryo-c/index.htm/", "内容": "長崎県立こども医療福祉センター【1:病院】【診療科目:整形外科_小児科_小児心療内科・小児神経内科_耳鼻いんこう科_泌尿器科_精神科_歯科_リハビリテーション科】【一般病床数:60療養病床数:0精神病床数:0感染症病床数:0合計病床数:60】長崎県諫早市永昌東町２４番３号" }, "geometry": { "type": "Point", "coordinates": [ 130.04182, 32.85643 ] } },
{ "type": "Feature", "properties": { "ID": "421hoh0027", "正式名称": "長崎県精神医療センター", "機関区分": 1, "都道府県コード": 42, "市区町村コード": 205, "所在地": "長崎県大村市西部町１５７５－２", "緯度": 32.86923, "経度": 129.975878, "url": "https://www.iryou.teikyouseido.mhlw.go.jp/znk-web/juminkanja/S2430/initialize?prefCd=42&kikanCd=hoh0027&kikanKbn=1", "url2": "http://www.nha-seishin.or.jp", "内容": "長崎県精神医療センター【1:病院】【診療科目:内科_精神科_歯科】【一般病床数:0療養病床数:0精神病床数:139感染症病床数:0合計病床数:139】長崎県大村市西部町１５７５－２" }, "geometry": { "type": "Point", "coordinates": [ 129.975878, 32.86923 ] } },
{ "type": "Feature", "properties": { "ID": "421hoh0028", "正式名称": "日本赤十字社長崎原爆諫早病院", "機関区分": 1, "都道府県コード": 42, "市区町村コード": 204, "所在地": "長崎県諫早市多良見町化屋９８６番地２", "緯度": 32.826204, "経度": 129.983442, "url": "https://www.iryou.teikyouseido.mhlw.go.jp/znk-web/juminkanja/S2430/initialize?prefCd=42&kikanCd=hoh0028&kikanKbn=1", "url2": "http://www.isahaya.jrc.or.jp", "内容": "日本赤十字社長崎原爆諫早病院【1:病院】【診療科目:内科_呼吸器内科_循環器内科_消化器内科_リハビリテーション科_放射線科】【一般病床数:110療養病床数:0精神病床数:0感染症病床数:0合計病床数:130】長崎県諫早市多良見町化屋９８６番地２" }, "geometry": { "type": "Point", "coordinates": [ 129.983442, 32.826204 ] } },
{ "type": "Feature", "properties": { "ID": "421hoh0029", "正式名称": "波佐見病院", "機関区分": 1, "都道府県コード": 42, "市区町村コード": 323, "所在地": "長崎県東彼杵郡波佐見町稗木場郷７９２番地１", "緯度": 33.126834, "経度": 129.871363, "url": "https://www.iryou.teikyouseido.mhlw.go.jp/znk-web/juminkanja/S2430/initialize?prefCd=42&kikanCd=hoh0029&kikanKbn=1", "url2": "https://hasamihp.sakura.ne.jp", "内容": "波佐見病院【1:病院】【診療科目:内科_血液内科_循環器内科_人工透析内科_外科_整形外科_皮膚科_リハビリテーション科】【一般病床数:0療養病床数:154精神病床数:0感染症病床数:0合計病床数:154】長崎県東彼杵郡波佐見町稗木場郷７９２番地１" }, "geometry": { "type": "Point", "coordinates": [ 129.871363, 33.126834 ] } },
{ "type": "Feature", "properties": { "ID": "421hoh0030", "正式名称": "みさかえの園あゆみの家", "機関区分": 1, "都道府県コード": 42, "市区町村コード": 205, "所在地": "長崎県大村市久原２丁目１３４６番地１", "緯度": 32.89455, "経度": 129.977576, "url": "https://www.iryou.teikyouseido.mhlw.go.jp/znk-web/juminkanja/S2430/initialize?prefCd=42&kikanCd=hoh0030&kikanKbn=1", "url2": "http://www.misakae.or.jp/ayuminoie/", "内容": "みさかえの園あゆみの家【1:病院】【診療科目:内科_小児科_精神科_歯科_リハビリテーション科】【一般病床数:110療養病床数:0精神病床数:0感染症病床数:0合計病床数:110】長崎県大村市久原２丁目１３４６番地１" }, "geometry": { "type": "Point", "coordinates": [ 129.977576, 32.89455 ] } },
{ "type": "Feature", "properties": { "ID": "421hoh0031", "正式名称": "みさかえの園総合発達医療福祉センターむつみの家", "機関区分": 1, "都道府県コード": 42, "市区町村コード": 204, "所在地": "長崎県諫早市小長井町牧５７０番地１", "緯度": 32.924182, "経度": 130.170783, "url": "https://www.iryou.teikyouseido.mhlw.go.jp/znk-web/juminkanja/S2430/initialize?prefCd=42&kikanCd=hoh0031&kikanKbn=1", "url2": "http//www.misakae.or.jp/mutsumi/", "内容": "みさかえの園総合発達医療福祉センターむつみの家【1:病院】【診療科目:内科_小児科_精神科_歯科_リハビリテーション科】【一般病床数:180療養病床数:0精神病床数:0感染症病床数:0合計病床数:180】長崎県諫早市小長井町牧５７０番地１" }, "geometry": { "type": "Point", "coordinates": [ 130.170783, 32.924182 ] } },
{ "type": "Feature", "properties": { "ID": "421hoh0032", "正式名称": "山崎病院", "機関区分": 1, "都道府県コード": 42, "市区町村コード": 204, "所在地": "長崎県諫早市小長井町小川原浦６５６番地", "緯度": 32.926933, "経度": 130.188181, "url": "https://www.iryou.teikyouseido.mhlw.go.jp/znk-web/juminkanja/S2430/initialize?prefCd=42&kikanCd=hoh0032&kikanKbn=1", "url2": "https://yamasaki-hospital.com/", "内容": "山崎病院【1:病院】【診療科目:内科_小児科_リハビリテーション科】【一般病床数:0療養病床数:38精神病床数:0感染症病床数:0合計病床数:38】長崎県諫早市小長井町小川原浦６５６番地" }, "geometry": { "type": "Point", "coordinates": [ 130.188181, 32.926933 ] } },
{ "type": "Feature", "properties": { "ID": "421hsa0002", "正式名称": "医療法人敬仁会松浦病院", "機関区分": 1, "都道府県コード": 42, "市区町村コード": 202, "所在地": "長崎県佐世保市世知原町栗迎９番地１", "緯度": 33.258924, "経度": 129.747121, "url": "https://www.iryou.teikyouseido.mhlw.go.jp/znk-web/juminkanja/S2430/initialize?prefCd=42&kikanCd=hsa0002&kikanKbn=1", "url2": "www.heart-matsuura.or.jp", "内容": "医療法人敬仁会松浦病院【1:病院】【診療科目:精神科_神経科_心療内科】【一般病床数:0療養病床数:0精神病床数:120感染症病床数:0合計病床数:120】長崎県佐世保市世知原町栗迎９番地１" }, "geometry": { "type": "Point", "coordinates": [ 129.747121, 33.258924 ] } },
{ "type": "Feature", "properties": { "ID": "421hsa0003", "正式名称": "福田外科病院", "機関区分": 1, "都道府県コード": 42, "市区町村コード": 202, "所在地": "長崎県佐世保市藤原町３８－３", "緯度": 33.161341, "経度": 129.740497, "url": "https://www.iryou.teikyouseido.mhlw.go.jp/znk-web/juminkanja/S2430/initialize?prefCd=42&kikanCd=hsa0003&kikanKbn=1", "url2": "http://www.fukudageka.or.jp./", "内容": "福田外科病院【1:病院】【診療科目:内科_胃腸内科_外科_整形外科_リハビリテーション科_放射線科_麻酔科】【一般病床数:62療養病床数:0精神病床数:0感染症病床数:0合計病床数:62】長崎県佐世保市藤原町３８－３" }, "geometry": { "type": "Point", "coordinates": [ 129.740497, 33.161341 ] } },
{ "type": "Feature", "properties": { "ID": "421hsa0004", "正式名称": "医療法人成蹊会　佐世保北病院", "機関区分": 1, "都道府県コード": 42, "市区町村コード": 202, "所在地": "長崎県佐世保市下本山町４３２－１", "緯度": 33.207859, "経度": 129.683137, "url": "https://www.iryou.teikyouseido.mhlw.go.jp/znk-web/juminkanja/S2430/initialize?prefCd=42&kikanCd=hsa0004&kikanKbn=1", "url2": "https://www.sasebokitabyouin.net/", "内容": "医療法人成蹊会　佐世保北病院【1:病院】【診療科目:内科_精神科_心療内科】【一般病床数:0療養病床数:0精神病床数:123感染症病床数:0合計病床数:123】長崎県佐世保市下本山町４３２－１" }, "geometry": { "type": "Point", "coordinates": [ 129.683137, 33.207859 ] } },
{ "type": "Feature", "properties": { "ID": "421hsa0005", "正式名称": "俵町浜野病院", "機関区分": 1, "都道府県コード": 42, "市区町村コード": 202, "所在地": "長崎県佐世保市俵町", "緯度": 33.187812, "経度": 129.718289, "url": "https://www.iryou.teikyouseido.mhlw.go.jp/znk-web/juminkanja/S2430/initialize?prefCd=42&kikanCd=hsa0005&kikanKbn=1", "url2": "https://wakabakai.or.jp", "内容": "俵町浜野病院【1:病院】【診療科目:内科_呼吸器科、循環器科_外科_整形外科_消化器科、肛門科_リハビリテーション科】【一般病床数:26療養病床数:38精神病床数:0感染症病床数:0合計病床数:64】長崎県佐世保市俵町" }, "geometry": { "type": "Point", "coordinates": [ 129.718289, 33.187812 ] } },
{ "type": "Feature", "properties": { "ID": "421hsa0006", "正式名称": "医療法人アリス会京町病院", "機関区分": 1, "都道府県コード": 42, "市区町村コード": 202, "所在地": "長崎県佐世保市常盤町４－１５", "緯度": 33.17108, "経度": 129.723084, "url": "https://www.iryou.teikyouseido.mhlw.go.jp/znk-web/juminkanja/S2430/initialize?prefCd=42&kikanCd=hsa0006&kikanKbn=1", "url2": "http://www.kyomachinaika.or.jp/", "内容": "医療法人アリス会京町病院【1:病院】【診療科目:内科_糖尿病内科_循環器内科_消化器内科_リハビリテーション科】【一般病床数:48療養病床数:0精神病床数:0感染症病床数:0合計病床数:48】長崎県佐世保市常盤町４－１５" }, "geometry": { "type": "Point", "coordinates": [ 129.723084, 33.17108 ] } },
{ "type": "Feature", "properties": { "ID": "421hsa0008", "正式名称": "医療法人是心会　久保内科病院", "機関区分": 1, "都道府県コード": 42, "市区町村コード": 202, "所在地": "長崎県佐世保市田原町１１－９", "緯度": 33.207378, "経度": 129.721189, "url": "https://www.iryou.teikyouseido.mhlw.go.jp/znk-web/juminkanja/S2430/initialize?prefCd=42&kikanCd=hsa0008&kikanKbn=1", "url2": "http://www.kubonaika.or.jp/", "内容": "医療法人是心会　久保内科病院【1:病院】【診療科目:内科_消化器内科_リハビリテーション科_放射線科】【一般病床数:60療養病床数:23精神病床数:0感染症病床数:0合計病床数:83】長崎県佐世保市田原町１１－９" }, "geometry": { "type": "Point", "coordinates": [ 129.721189, 33.207378 ] } },
{ "type": "Feature", "properties": { "ID": "421hsa0009", "正式名称": "国家公務員共済組合連合会佐世保共済病院", "機関区分": 1, "都道府県コード": 42, "市区町村コード": 202, "所在地": "長崎県佐世保市島地町１０番１７号", "緯度": 33.170567, "経度": 129.719437, "url": "https://www.iryou.teikyouseido.mhlw.go.jp/znk-web/juminkanja/S2430/initialize?prefCd=42&kikanCd=hsa0009&kikanKbn=1", "url2": "https://sb.kkr.or.jp", "内容": "国家公務員共済組合連合会佐世保共済病院【1:病院】【診療科目:糖尿病内科_脳神経内科_呼吸器内科_循環器内科_消化器内科_腎臓内科_腫瘍内科_脳神経外科_消化器外科_乳腺外科_胸部外科_整形外科_小児科_産婦人科_眼科_耳鼻いんこう科_皮膚科_泌尿器科_歯科口腔外科_リハビリテーション科_放射線科_病理診断科_麻酔科】【一般病床数:266療養病床数:40精神病床数:0感染症病床数:0合計病床数:306】長崎県佐世保市島地町１０番１７号" }, "geometry": { "type": "Point", "coordinates": [ 129.719437, 33.170567 ] } },
{ "type": "Feature", "properties": { "ID": "421hsa0010", "正式名称": "医療法人　慶友会　西海病院", "機関区分": 1, "都道府県コード": 42, "市区町村コード": 202, "所在地": "長崎県佐世保市権常寺町１５００番地", "緯度": 33.131117, "経度": 129.803366, "url": "https://www.iryou.teikyouseido.mhlw.go.jp/znk-web/juminkanja/S2430/initialize?prefCd=42&kikanCd=hsa0010&kikanKbn=1", "url2": "http://www.saikai-hp.jp", "内容": "医療法人　慶友会　西海病院【1:病院】【診療科目:精神科_心療内科】【一般病床数:0療養病床数:0精神病床数:224感染症病床数:0合計病床数:224】長崎県佐世保市権常寺町１５００番地" }, "geometry": { "type": "Point", "coordinates": [ 129.803366, 33.131117 ] } },
{ "type": "Feature", "properties": { "ID": "421hsa0011", "正式名称": "佐世保愛恵病院", "機関区分": 1, "都道府県コード": 42, "市区町村コード": 202, "所在地": "長崎県佐世保市瀬戸越４‐２⁻１５", "緯度": 33.207655, "経度": 129.725803, "url": "https://www.iryou.teikyouseido.mhlw.go.jp/znk-web/juminkanja/S2430/initialize?prefCd=42&kikanCd=hsa0011&kikanKbn=1", "url2": null, "内容": "佐世保愛恵病院【1:病院】【診療科目:精神科_心療内科】【一般病床数:0療養病床数:0精神病床数:219感染症病床数:0合計病床数:219】長崎県佐世保市瀬戸越４‐２⁻１５" }, "geometry": { "type": "Point", "coordinates": [ 129.725803, 33.207655 ] } },
{ "type": "Feature", "properties": { "ID": "421hsa0012", "正式名称": "佐世保記念病院", "機関区分": 1, "都道府県コード": 42, "市区町村コード": 202, "所在地": "長崎県佐世保市鹿子前町１０４番地", "緯度": 33.156945, "経度": 129.683268, "url": "https://www.iryou.teikyouseido.mhlw.go.jp/znk-web/juminkanja/S2430/initialize?prefCd=42&kikanCd=hsa0012&kikanKbn=1", "url2": "http://seiaikai-group.or.jp", "内容": "佐世保記念病院【1:病院】【診療科目:内科_外科_整形外科_歯科_リハビリテーション科】【一般病床数:0療養病床数:105精神病床数:0感染症病床数:0合計病床数:105】長崎県佐世保市鹿子前町１０４番地" }, "geometry": { "type": "Point", "coordinates": [ 129.683268, 33.156945 ] } },
{ "type": "Feature", "properties": { "ID": "421hsa0013", "正式名称": "地方独立行政法人　佐世保市総合医療センター", "機関区分": 1, "都道府県コード": 42, "市区町村コード": 202, "所在地": "長崎県佐世保市平瀬町９番地３", "緯度": 33.172899, "経度": 129.716043, "url": "https://www.iryou.teikyouseido.mhlw.go.jp/znk-web/juminkanja/S2430/initialize?prefCd=42&kikanCd=hsa0013&kikanKbn=1", "url2": "http://www.hospital.sasebo.nagasaki.jp", "内容": "地方独立行政法人　佐世保市総合医療センター【1:病院】【診療科目:内科_血液内科_糖尿病・内分泌内科_脳神経内科_呼吸器内科_循環器内科_消化器内科_腎臓内科_緩和ケア内科_外科_脳神経外科_呼吸器外科_心臓血管外科_消化器外科_乳腺外科_整形外科_形成外科_小児科_産婦人科_眼科_耳鼻いんこう科_皮膚科_泌尿器科_歯科_リウマチ科_リハビリテーション科_放射線科_病理診断科_臨床検査科_麻酔科_救急集中治療科】【一般病床数:539療養病床数:0精神病床数:0感染症病床数:4合計病床数:563】長崎県佐世保市平瀬町９番地３" }, "geometry": { "type": "Point", "coordinates": [ 129.716043, 33.172899 ] } },
{ "type": "Feature", "properties": { "ID": "421hsa0014", "正式名称": "佐世保中央病院", "機関区分": 1, "都道府県コード": 42, "市区町村コード": 202, "所在地": "長崎県佐世保市大和町１５番地", "緯度": 33.157479, "経度": 129.748992, "url": "https://www.iryou.teikyouseido.mhlw.go.jp/znk-web/juminkanja/S2430/initialize?prefCd=42&kikanCd=hsa0014&kikanKbn=1", "url2": "http://hakujyujikai.or.jp/chuo/", "内容": "佐世保中央病院【1:病院】【診療科目:内科_糖尿病内科_内分泌内科_脳神経内科_呼吸器内科_循環器内科_消化器内科_腎臓内科_人工透析内科_内視鏡内科_脳血管内科_外科_脳神経外科_呼吸器外科_心臓血管外科_消化器外科_乳腺外科_大腸・肛門外科_胸部外科_内視鏡外科_整形外科_内分泌外科_小児科_眼科_耳鼻いんこう科_皮膚科_泌尿器科_歯科口腔外科_リウマチ科_リハビリテーション科_放射線科_放射線治療科_病理診断科_臨床検査科_救急科_麻酔科】【一般病床数:312療養病床数:0精神病床数:0感染症病床数:0合計病床数:312】長崎県佐世保市大和町１５番地" }, "geometry": { "type": "Point", "coordinates": [ 129.748992, 33.157479 ] } },
{ "type": "Feature", "properties": { "ID": "421hsa0016", "正式名称": "サン・レモ　リハビリ病院", "機関区分": 1, "都道府県コード": 42, "市区町村コード": 202, "所在地": "長崎県佐世保市江上町４８４８－１", "緯度": 33.069125, "経度": 129.784585, "url": "https://www.iryou.teikyouseido.mhlw.go.jp/znk-web/juminkanja/S2430/initialize?prefCd=42&kikanCd=hsa0016&kikanKbn=1", "url2": "https://www.kokowakai-sanremo.com", "内容": "サン・レモ　リハビリ病院【1:病院】【診療科目:内科_呼吸器内科_循環器内科_消化器内科_腎臓内科_神経内科_外科_整形外科_アレルギー科_リウマチ科_リハビリテーション科_放射線科】【一般病床数:0療養病床数:216精神病床数:0感染症病床数:0合計病床数:216】長崎県佐世保市江上町４８４８－１" }, "geometry": { "type": "Point", "coordinates": [ 129.784585, 33.069125 ] } },
{ "type": "Feature", "properties": { "ID": "421hsa0018", "正式名称": "特定医療法人雄博会　千住病院", "機関区分": 1, "都道府県コード": 42, "市区町村コード": 202, "所在地": "長崎県佐世保市宮地町５番５号", "緯度": 33.174365, "経度": 129.722252, "url": "https://www.iryou.teikyouseido.mhlw.go.jp/znk-web/juminkanja/S2430/initialize?prefCd=42&kikanCd=hsa0018&kikanKbn=1", "url2": "https://www.1010hosp.or.jp", "内容": "特定医療法人雄博会　千住病院【1:病院】【診療科目:内科_糖尿病内科_内分泌内科_脳神経内科_呼吸器内科_循環器内科_消化器内科_腎臓内科_人工透析内科_リハビリテーション科】【一般病床数:71療養病床数:74精神病床数:0感染症病床数:0合計病床数:145】長崎県佐世保市宮地町５番５号" }, "geometry": { "type": "Point", "coordinates": [ 129.722252, 33.174365 ] } },
{ "type": "Feature", "properties": { "ID": "421hsa0019", "正式名称": "医療法人慶仁会天神病院", "機関区分": 1, "都道府県コード": 42, "市区町村コード": 202, "所在地": "長崎県佐世保市天神５丁目２３番３１号", "緯度": 33.147287, "経度": 129.735673, "url": "https://www.iryou.teikyouseido.mhlw.go.jp/znk-web/juminkanja/S2430/initialize?prefCd=42&kikanCd=hsa0019&kikanKbn=1", "url2": "http://tenjinbyouin.com/", "内容": "医療法人慶仁会天神病院【1:病院】【診療科目:精神科_心療内科】【一般病床数:0療養病床数:0精神病床数:206感染症病床数:0合計病床数:206】長崎県佐世保市天神５丁目２３番３１号" }, "geometry": { "type": "Point", "coordinates": [ 129.735673, 33.147287 ] } },
{ "type": "Feature", "properties": { "ID": "421hsa0020", "正式名称": "独立行政法人労働者健康安全機構長崎労災病院", "機関区分": 1, "都道府県コード": 42, "市区町村コード": 202, "所在地": "長崎県佐世保市瀬戸越２丁目１２番５号", "緯度": 33.209773, "経度": 129.733034, "url": "https://www.iryou.teikyouseido.mhlw.go.jp/znk-web/juminkanja/S2430/initialize?prefCd=42&kikanCd=hsa0020&kikanKbn=1", "url2": "https://nagasakih.johas.go.jp/", "内容": "独立行政法人労働者健康安全機構長崎労災病院【1:病院】【診療科目:内科_循環器内科_外科_脳神経外科_整形外科_形成外科_眼科_耳鼻いんこう科_皮膚科_泌尿器科_リハビリテーション科_放射線科_病理診断科_臨床検査科_救急科_麻酔科】【一般病床数:304療養病床数:0精神病床数:0感染症病床数:0合計病床数:304】長崎県佐世保市瀬戸越２丁目１２番５号" }, "geometry": { "type": "Point", "coordinates": [ 129.733034, 33.209773 ] } },
{ "type": "Feature", "properties": { "ID": "421hsa0021", "正式名称": "三川内病院", "機関区分": 1, "都道府県コード": 42, "市区町村コード": 202, "所在地": "長崎県佐世保市三川内本町２９０番地", "緯度": 33.151496, "経度": 129.829027, "url": "https://www.iryou.teikyouseido.mhlw.go.jp/znk-web/juminkanja/S2430/initialize?prefCd=42&kikanCd=hsa0021&kikanKbn=1", "url2": "http://mikawachi.or.jp/", "内容": "三川内病院【1:病院】【診療科目:内科_胃腸内科_外科_肛門外科_整形外科_リハビリテーション科_麻酔科】【一般病床数:24療養病床数:31精神病床数:0感染症病床数:0合計病床数:55】長崎県佐世保市三川内本町２９０番地" }, "geometry": { "type": "Point", "coordinates": [ 129.829027, 33.151496 ] } },
{ "type": "Feature", "properties": { "ID": "421hsa0022", "正式名称": "医療法人陽明会宮原病院", "機関区分": 1, "都道府県コード": 42, "市区町村コード": 202, "所在地": "長崎県佐世保市藤原町４６ー５", "緯度": 33.161324, "経度": 129.744061, "url": "https://www.iryou.teikyouseido.mhlw.go.jp/znk-web/juminkanja/S2430/initialize?prefCd=42&kikanCd=hsa0022&kikanKbn=1", "url2": "http://www.miyahara-hospital.net/", "内容": "医療法人陽明会宮原病院【1:病院】【診療科目:精神科】【一般病床数:0療養病床数:0精神病床数:180感染症病床数:0合計病床数:180】長崎県佐世保市藤原町４６ー５" }, "geometry": { "type": "Point", "coordinates": [ 129.744061, 33.161324 ] } },
{ "type": "Feature", "properties": { "ID": "421hsa0023", "正式名称": "医療法人佐世保晩翠会村上病院", "機関区分": 1, "都道府県コード": 42, "市区町村コード": 202, "所在地": "長崎県佐世保市早岐１丁目６番２２号", "緯度": 33.13656, "経度": 129.797161, "url": "https://www.iryou.teikyouseido.mhlw.go.jp/znk-web/juminkanja/S2430/initialize?prefCd=42&kikanCd=hsa0023&kikanKbn=1", "url2": "http://murakami-obgy.or.jp", "内容": "医療法人佐世保晩翠会村上病院【1:病院】【診療科目:産婦人科】【一般病床数:30療養病床数:0精神病床数:0感染症病床数:0合計病床数:30】長崎県佐世保市早岐１丁目６番２２号" }, "geometry": { "type": "Point", "coordinates": [ 129.797161, 33.13656 ] } },
{ "type": "Feature", "properties": { "ID": "421hsa0024", "正式名称": "燿光リハビリテーション病院", "機関区分": 1, "都道府県コード": 42, "市区町村コード": 202, "所在地": "長崎県佐世保市山手町８５５―１", "緯度": 33.182134, "経度": 129.730006, "url": "https://www.iryou.teikyouseido.mhlw.go.jp/znk-web/juminkanja/S2430/initialize?prefCd=42&kikanCd=hsa0024&kikanKbn=1", "url2": "http://www.hakujyujikai.or.jp/yohkoh", "内容": "燿光リハビリテーション病院【1:病院】【診療科目:内科_リハビリテーション科】【一般病床数:0療養病床数:330精神病床数:0感染症病床数:0合計病床数:330】長崎県佐世保市山手町８５５―１" }, "geometry": { "type": "Point", "coordinates": [ 129.730006, 33.182134 ] } },
{ "type": "Feature", "properties": { "ID": "421hsa0025", "正式名称": "医療法人十全会潜竜徳田循環器科内科整形外科病院", "機関区分": 1, "都道府県コード": 42, "市区町村コード": 202, "所在地": "長崎県佐世保市佐世保市江迎町田ノ元４６７番地", "緯度": 33.281964, "経度": 129.682331, "url": "https://www.iryou.teikyouseido.mhlw.go.jp/znk-web/juminkanja/S2430/initialize?prefCd=42&kikanCd=hsa0025&kikanKbn=1", "url2": null, "内容": "医療法人十全会潜竜徳田循環器科内科整形外科病院【1:病院】【診療科目:内科_循環器内科_外科_整形外科_小児科_皮膚科_リハビリテーション科】【一般病床数:0療養病床数:40精神病床数:0感染症病床数:0合計病床数:40】長崎県佐世保市佐世保市江迎町田ノ元４６７番地" }, "geometry": { "type": "Point", "coordinates": [ 129.682331, 33.281964 ] } },
{ "type": "Feature", "properties": { "ID": "421hsa0026", "正式名称": "地方独立行政法人　北松中央病院", "機関区分": 1, "都道府県コード": 42, "市区町村コード": 202, "所在地": "長崎県佐世保市江迎町赤坂２９９番地", "緯度": 33.297677, "経度": 129.639275, "url": "https://www.iryou.teikyouseido.mhlw.go.jp/znk-web/juminkanja/S2430/initialize?prefCd=42&kikanCd=hsa0026&kikanKbn=1", "url2": "www.hokusho.dr-clinic.jp", "内容": "地方独立行政法人　北松中央病院【1:病院】【診療科目:内科_糖尿病内科_代謝内科_内分泌内科_脳神経内科_呼吸器内科_循環器内科_消化器内科_腎臓内科_整形外科_リハビリテーション科_放射線科】【一般病床数:183療養病床数:0精神病床数:0感染症病床数:2合計病床数:185】長崎県佐世保市江迎町赤坂２９９番地" }, "geometry": { "type": "Point", "coordinates": [ 129.639275, 33.297677 ] } },
{ "type": "Feature", "properties": { "ID": "421hsa0027", "正式名称": "医療法人　心々和会　佐世保国際通り病院", "機関区分": 1, "都道府県コード": 42, "市区町村コード": 202, "所在地": "長崎県佐世保市浜田町１番６号", "緯度": 33.175715, "経度": 129.717488, "url": "https://www.iryou.teikyouseido.mhlw.go.jp/znk-web/juminkanja/S2430/initialize?prefCd=42&kikanCd=hsa0027&kikanKbn=1", "url2": "http://kokowakai-sish.com/", "内容": "医療法人　心々和会　佐世保国際通り病院【1:病院】【診療科目:内科_感染症内科_呼吸器内科_循環器内科_消化器内科_胃腸内科_内視鏡内科_アレルギー疾患内科_整形外科_リハビリテーション科_放射線診断科】【一般病床数:0療養病床数:94精神病床数:0感染症病床数:0合計病床数:94】長崎県佐世保市浜田町１番６号" }, "geometry": { "type": "Point", "coordinates": [ 129.717488, 33.175715 ] } },
{ "type": "Feature", "properties": { "ID": "421htu0001", "正式名称": "長崎県上対馬病院", "機関区分": 1, "都道府県コード": 42, "市区町村コード": 209, "所在地": "長崎県対馬市上対馬町比田勝６３０番地", "緯度": 34.654696, "経度": 129.459052, "url": "https://www.iryou.teikyouseido.mhlw.go.jp/znk-web/juminkanja/S2430/initialize?prefCd=42&kikanCd=htu0001&kikanKbn=1", "url2": "http://www.kamibyo.jp/", "内容": "長崎県上対馬病院【1:病院】【診療科目:内科_神経内科_外科_脳神経外科_整形外科_小児科_産婦人科_眼科_耳鼻いんこう科_皮膚科_泌尿器科_精神科_リハビリテーション科_放射線科】【一般病床数:60療養病床数:0精神病床数:0感染症病床数:0合計病床数:60】長崎県対馬市上対馬町比田勝６３０番地" }, "geometry": { "type": "Point", "coordinates": [ 129.459052, 34.654696 ] } },
{ "type": "Feature", "properties": { "ID": "421htu0004", "正式名称": "長崎県対馬病院", "機関区分": 1, "都道府県コード": 42, "市区町村コード": 209, "所在地": "長崎県対馬市美津島町鶏知乙１１６８番７", "緯度": 34.267448, "経度": 129.315743, "url": "https://www.iryou.teikyouseido.mhlw.go.jp/znk-web/juminkanja/S2430/initialize?prefCd=42&kikanCd=htu0004&kikanKbn=1", "url2": "http://www.tsushima-hospital.jp/", "内容": "長崎県対馬病院【1:病院】【診療科目:内科_血液内科_循環器内科_消化器内科_人工透析内科_神経内科_腫瘍内科_外科_脳神経外科_腫瘍外科_整形外科_小児科_産婦人科_眼科_耳鼻いんこう科_皮膚科_泌尿器科_精神科_リウマチ科_リハビリテーション科_放射線科_臨床検査科_救急科_麻酔科_緩和ケア放射線科】【一般病床数:222療養病床数:0精神病床数:45感染症病床数:4合計病床数:275】長崎県対馬市美津島町鶏知乙１１６８番７" }, "geometry": { "type": "Point", "coordinates": [ 129.315743, 34.267448 ] } }
]
}
