{
"type": "FeatureCollection",
"name": "geo_42_高校",
"crs": { "type": "name", "properties": { "name": "urn:ogc:def:crs:EPSG::6668" } },
"features": [
{ "type": "Feature", "properties": { "P29_001": "42201", "P29_002": "D142210000015", "P29_003": "16004", "P29_004": "長崎県立長崎東高等学校", "P29_005": "長崎県長崎市立山5-13-1", "P29_006": "2", "P29_007": "0", "P29_008": "00", "P29_009": null }, "geometry": { "type": "Point", "coordinates": [ 129.877872822073812, 32.760383689774613 ] } },
{ "type": "Feature", "properties": { "P29_001": "42201", "P29_002": "D142210000024", "P29_003": "16004", "P29_004": "長崎県立長崎西高等学校", "P29_005": "長崎県長崎市竹の久保町12-9", "P29_006": "2", "P29_007": "0", "P29_008": "00", "P29_009": null }, "geometry": { "type": "Point", "coordinates": [ 129.859232705825434, 32.766050899964064 ] } },
{ "type": "Feature", "properties": { "P29_001": "42201", "P29_002": "D142210000033", "P29_003": "16004", "P29_004": "長崎県立長崎南高等学校", "P29_005": "長崎県長崎市上小島4-13-1", "P29_006": "2", "P29_007": "0", "P29_008": "00", "P29_009": null }, "geometry": { "type": "Point", "coordinates": [ 129.885429147349015, 32.730623414867942 ] } },
{ "type": "Feature", "properties": { "P29_001": "42201", "P29_002": "D142210000042", "P29_003": "16004", "P29_004": "長崎県立長崎北高等学校", "P29_005": "長崎県長崎市小江原1-1-1", "P29_006": "2", "P29_007": "0", "P29_008": "00", "P29_009": null }, "geometry": { "type": "Point", "coordinates": [ 129.839869135151702, 32.783039607030908 ] } },
{ "type": "Feature", "properties": { "P29_001": "42202", "P29_002": "D142210000051", "P29_003": "16004", "P29_004": "長崎県立佐世保南高等学校", "P29_005": "長崎県佐世保市日宇町2526", "P29_006": "2", "P29_007": "0", "P29_008": "00", "P29_009": null }, "geometry": { "type": "Point", "coordinates": [ 129.766814514253696, 33.162016134912477 ] } },
{ "type": "Feature", "properties": { "P29_001": "42202", "P29_002": "D142210000060", "P29_003": "16004", "P29_004": "長崎県立佐世保北高等学校", "P29_005": "長崎県佐世保市八幡町6-31", "P29_006": "2", "P29_007": "0", "P29_008": "00", "P29_009": null }, "geometry": { "type": "Point", "coordinates": [ 129.719624401540045, 33.180520967621199 ] } },
{ "type": "Feature", "properties": { "P29_001": "42203", "P29_002": "D142210000079", "P29_003": "16004", "P29_004": "長崎県立島原高等学校", "P29_005": "長崎県島原市城内2-1130", "P29_006": "2", "P29_007": "0", "P29_008": "00", "P29_009": null }, "geometry": { "type": "Point", "coordinates": [ 130.365547739617085, 32.793563544307595 ] } },
{ "type": "Feature", "properties": { "P29_001": "42204", "P29_002": "D142210000088", "P29_003": "16004", "P29_004": "長崎県立諫早高等学校", "P29_005": "長崎県諫早市東小路町1-7", "P29_006": "2", "P29_007": "0", "P29_008": "00", "P29_009": null }, "geometry": { "type": "Point", "coordinates": [ 130.051735589842821, 32.844469658269865 ] } },
{ "type": "Feature", "properties": { "P29_001": "42205", "P29_002": "D142210000097", "P29_003": "16004", "P29_004": "長崎県立大村高等学校", "P29_005": "長崎県大村市久原1-591", "P29_006": "2", "P29_007": "0", "P29_008": "00", "P29_009": null }, "geometry": { "type": "Point", "coordinates": [ 129.963273846901217, 32.896122563651403 ] } },
{ "type": "Feature", "properties": { "P29_001": "42211", "P29_002": "D142210000104", "P29_003": "16004", "P29_004": "長崎県立五島高等学校", "P29_005": "長崎県五島市池田町1-1", "P29_006": "2", "P29_007": "0", "P29_008": "00", "P29_009": null }, "geometry": { "type": "Point", "coordinates": [ 128.846553066581663, 32.693355218873215 ] } },
{ "type": "Feature", "properties": { "P29_001": "42211", "P29_002": "D142210000113", "P29_003": "16004", "P29_004": "長崎県立奈留高等学校", "P29_005": "長崎県五島市奈留町浦1246-2", "P29_006": "2", "P29_007": "0", "P29_008": "00", "P29_009": null }, "geometry": { "type": "Point", "coordinates": [ 128.930685180725277, 32.830116658159326 ] } },
{ "type": "Feature", "properties": { "P29_001": "42207", "P29_002": "D142210000122", "P29_003": "16004", "P29_004": "長崎県立猶興館高等学校", "P29_005": "長崎県平戸市岩の上町1443", "P29_006": "2", "P29_007": "0", "P29_008": "00", "P29_009": null }, "geometry": { "type": "Point", "coordinates": [ 129.557503396882055, 33.366356070871426 ] } },
{ "type": "Feature", "properties": { "P29_001": "42207", "P29_002": "D142210000131", "P29_003": "16004", "P29_004": "長崎県立平戸高等学校", "P29_005": "長崎県平戸市草積町261", "P29_006": "2", "P29_007": "0", "P29_008": "00", "P29_009": null }, "geometry": { "type": "Point", "coordinates": [ 129.457610124544971, 33.268245294192916 ] } },
{ "type": "Feature", "properties": { "P29_001": "42208", "P29_002": "D142210000140", "P29_003": "16004", "P29_004": "長崎県立松浦高等学校", "P29_005": "長崎県松浦市志佐町浦免738-1", "P29_006": "2", "P29_007": "0", "P29_008": "00", "P29_009": null }, "geometry": { "type": "Point", "coordinates": [ 129.711011751415867, 33.341074922537082 ] } },
{ "type": "Feature", "properties": { "P29_001": "42212", "P29_002": "D142210000159", "P29_003": "16004", "P29_004": "長崎県立大崎高等学校", "P29_005": "長崎県西海市大島町3468-1", "P29_006": "2", "P29_007": "0", "P29_008": "00", "P29_009": null }, "geometry": { "type": "Point", "coordinates": [ 129.590081050624093, 33.027983675272871 ] } },
{ "type": "Feature", "properties": { "P29_001": "42212", "P29_002": "D142210000168", "P29_003": "16004", "P29_004": "長崎県立西彼杵高等学校", "P29_005": "長崎県西海市大瀬戸町瀬戸西浜郷663", "P29_006": "2", "P29_007": "0", "P29_008": "00", "P29_009": null }, "geometry": { "type": "Point", "coordinates": [ 129.651202417835776, 32.936944545740147 ] } },
{ "type": "Feature", "properties": { "P29_001": "42322", "P29_002": "D142210000177", "P29_003": "16004", "P29_004": "長崎県立川棚高等学校", "P29_005": "長崎県東彼杵郡川棚町白石郷64-1", "P29_006": "2", "P29_007": "0", "P29_008": "00", "P29_009": null }, "geometry": { "type": "Point", "coordinates": [ 129.852401541254892, 33.065769304811361 ] } },
{ "type": "Feature", "properties": { "P29_001": "42213", "P29_002": "D142210000186", "P29_003": "16004", "P29_004": "長崎県立国見高等学校", "P29_005": "長崎県雲仙市国見町多比良甲1020", "P29_006": "2", "P29_007": "0", "P29_008": "00", "P29_009": null }, "geometry": { "type": "Point", "coordinates": [ 130.305701524843499, 32.865905049515391 ] } },
{ "type": "Feature", "properties": { "P29_001": "42213", "P29_002": "D142210000195", "P29_003": "16004", "P29_004": "長崎県立小浜高等学校", "P29_005": "長崎県雲仙市小浜町北野623", "P29_006": "2", "P29_007": "0", "P29_008": "00", "P29_009": null }, "geometry": { "type": "Point", "coordinates": [ 130.212988620810478, 32.748179434364793 ] } },
{ "type": "Feature", "properties": { "P29_001": "42214", "P29_002": "D142210000202", "P29_003": "16004", "P29_004": "長崎県立口加高等学校", "P29_005": "長崎県南島原市口之津町甲3272", "P29_006": "2", "P29_007": "0", "P29_008": "00", "P29_009": null }, "geometry": { "type": "Point", "coordinates": [ 130.176274904567833, 32.615401028399525 ] } },
{ "type": "Feature", "properties": { "P29_001": "42383", "P29_002": "D142210000211", "P29_003": "16004", "P29_004": "長崎県立北松西高等学校", "P29_005": "長崎県北松浦郡小値賀町笛吹郷2657-3", "P29_006": "2", "P29_007": "0", "P29_008": "00", "P29_009": null }, "geometry": { "type": "Point", "coordinates": [ 129.059385935775737, 33.198017017576873 ] } },
{ "type": "Feature", "properties": { "P29_001": "42202", "P29_002": "D142210000220", "P29_003": "16004", "P29_004": "長崎県立宇久高等学校", "P29_005": "長崎県佐世保市宇久町平1042", "P29_006": "2", "P29_007": "0", "P29_008": "00", "P29_009": null }, "geometry": { "type": "Point", "coordinates": [ 129.125793567235405, 33.264340120578943 ] } },
{ "type": "Feature", "properties": { "P29_001": "42391", "P29_002": "D142210000239", "P29_003": "16004", "P29_004": "長崎県立清峰高等学校", "P29_005": "長崎県北松浦郡佐々町中川原免111", "P29_006": "2", "P29_007": "0", "P29_008": "00", "P29_009": null }, "geometry": { "type": "Point", "coordinates": [ 129.657168930746337, 33.24912330349472 ] } },
{ "type": "Feature", "properties": { "P29_001": "42211", "P29_002": "D142210000248", "P29_003": "16004", "P29_004": "長崎県立五島南高等学校", "P29_005": "長崎県五島市岐宿町川原3487", "P29_006": "2", "P29_007": "0", "P29_008": "00", "P29_009": null }, "geometry": { "type": "Point", "coordinates": [ 128.732301072518396, 32.736290108492909 ] } },
{ "type": "Feature", "properties": { "P29_001": "42411", "P29_002": "D142210000257", "P29_003": "16004", "P29_004": "長崎県立上五島高等学校", "P29_005": "長崎県南松浦郡新上五島町浦桑郷306", "P29_006": "2", "P29_007": "0", "P29_008": "00", "P29_009": null }, "geometry": { "type": "Point", "coordinates": [ 129.081297438536495, 32.987315303440496 ] } },
{ "type": "Feature", "properties": { "P29_001": "42411", "P29_002": "D142210000266", "P29_003": "16004", "P29_004": "長崎県立中五島高等学校", "P29_005": "長崎県南松浦郡新上五島町宿ノ浦郷162-1", "P29_006": "2", "P29_007": "0", "P29_008": "00", "P29_009": null }, "geometry": { "type": "Point", "coordinates": [ 129.059649383514028, 32.883923623518463 ] } },
{ "type": "Feature", "properties": { "P29_001": "42210", "P29_002": "D142210000275", "P29_003": "16004", "P29_004": "長崎県立壱岐高等学校", "P29_005": "長崎県壱岐市郷ノ浦町片原触88", "P29_006": "2", "P29_007": "0", "P29_008": "00", "P29_009": null }, "geometry": { "type": "Point", "coordinates": [ 129.692735657120181, 33.746239902049396 ] } },
{ "type": "Feature", "properties": { "P29_001": "42209", "P29_002": "D142210000284", "P29_003": "16004", "P29_004": "長崎県立対馬高等学校", "P29_005": "長崎県対馬市厳原町東里120", "P29_006": "2", "P29_007": "0", "P29_008": "00", "P29_009": null }, "geometry": { "type": "Point", "coordinates": [ 129.29372666776618, 34.212621811891729 ] } },
{ "type": "Feature", "properties": { "P29_001": "42209", "P29_002": "D142210000293", "P29_003": "16004", "P29_004": "長崎県立豊玉高等学校", "P29_005": "長崎県対馬市豊玉町仁位1331-2", "P29_006": "2", "P29_007": "0", "P29_008": "00", "P29_009": null }, "geometry": { "type": "Point", "coordinates": [ 129.317114196717796, 34.397801126032881 ] } },
{ "type": "Feature", "properties": { "P29_001": "42209", "P29_002": "D142210000300", "P29_003": "16004", "P29_004": "長崎県立上対馬高等学校", "P29_005": "長崎県対馬市大浦230", "P29_006": "2", "P29_007": "0", "P29_008": "00", "P29_009": null }, "geometry": { "type": "Point", "coordinates": [ 129.438850770522748, 34.664113266534997 ] } },
{ "type": "Feature", "properties": { "P29_001": "42203", "P29_002": "D142210000319", "P29_003": "16004", "P29_004": "長崎県立島原農業高等学校", "P29_005": "長崎県島原市下折橋町4520", "P29_006": "2", "P29_007": "0", "P29_008": "00", "P29_009": null }, "geometry": { "type": "Point", "coordinates": [ 130.35146801560316, 32.788427638415399 ] } },
{ "type": "Feature", "properties": { "P29_001": "42204", "P29_002": "D142210000328", "P29_003": "16004", "P29_004": "長崎県立諫早農業高等学校", "P29_005": "長崎県諫早市立石町1003", "P29_006": "2", "P29_007": "0", "P29_008": "00", "P29_009": null }, "geometry": { "type": "Point", "coordinates": [ 130.059178857620907, 32.835986782395494 ] } },
{ "type": "Feature", "properties": { "P29_001": "42205", "P29_002": "D142210000337", "P29_003": "16004", "P29_004": "長崎県立大村城南高等学校", "P29_005": "長崎県大村市久原1-416", "P29_006": "2", "P29_007": "0", "P29_008": "00", "P29_009": null }, "geometry": { "type": "Point", "coordinates": [ 129.959533000659974, 32.893984185890027 ] } },
{ "type": "Feature", "properties": { "P29_001": "42212", "P29_002": "D142210000346", "P29_003": "16004", "P29_004": "長崎県立西彼農業高等学校", "P29_005": "長崎県西海市西彼町上岳郷323", "P29_006": "2", "P29_007": "0", "P29_008": "00", "P29_009": null }, "geometry": { "type": "Point", "coordinates": [ 129.776183898116983, 32.988399444776057 ] } },
{ "type": "Feature", "properties": { "P29_001": "42201", "P29_002": "D142210000355", "P29_003": "16004", "P29_004": "長崎県立長崎明誠高等学校", "P29_005": "長崎県長崎市西海町1854", "P29_006": "2", "P29_007": "0", "P29_008": "00", "P29_009": null }, "geometry": { "type": "Point", "coordinates": [ 129.787018122567673, 32.859001807338309 ] } },
{ "type": "Feature", "properties": { "P29_001": "42207", "P29_002": "D142210000364", "P29_003": "16004", "P29_004": "長崎県立北松農業高等学校", "P29_005": "長崎県平戸市田平町小手田免54-1", "P29_006": "2", "P29_007": "0", "P29_008": "00", "P29_009": null }, "geometry": { "type": "Point", "coordinates": [ 129.578888130519459, 33.344820198542017 ] } },
{ "type": "Feature", "properties": { "P29_001": "42201", "P29_002": "D142210000373", "P29_003": "16004", "P29_004": "長崎県立長崎工業高等学校", "P29_005": "長崎県長崎市岩屋町41-22", "P29_006": "2", "P29_007": "0", "P29_008": "00", "P29_009": null }, "geometry": { "type": "Point", "coordinates": [ 129.847268516115122, 32.800338881152058 ] } },
{ "type": "Feature", "properties": { "P29_001": "42202", "P29_002": "D142210000382", "P29_003": "16004", "P29_004": "長崎県立佐世保工業高等学校", "P29_005": "長崎県佐世保市瀬戸越3-3-30", "P29_006": "2", "P29_007": "0", "P29_008": "00", "P29_009": null }, "geometry": { "type": "Point", "coordinates": [ 129.729074185777989, 33.207900474228808 ] } },
{ "type": "Feature", "properties": { "P29_001": "42203", "P29_002": "D142210000391", "P29_003": "16004", "P29_004": "長崎県立島原工業高等学校", "P29_005": "長崎県島原市本光寺町4353", "P29_006": "2", "P29_007": "0", "P29_008": "00", "P29_009": null }, "geometry": { "type": "Point", "coordinates": [ 130.3546745260048, 32.78980581021046 ] } },
{ "type": "Feature", "properties": { "P29_001": "42205", "P29_002": "D142210000408", "P29_003": "16004", "P29_004": "長崎県立大村工業高等学校", "P29_005": "長崎県大村市森園町1079-3", "P29_006": "2", "P29_007": "0", "P29_008": "00", "P29_009": null }, "geometry": { "type": "Point", "coordinates": [ 129.941882622241138, 32.922349131724161 ] } },
{ "type": "Feature", "properties": { "P29_001": "42202", "P29_002": "D142210000417", "P29_003": "16004", "P29_004": "長崎県立鹿町工業高等学校", "P29_005": "長崎県佐世保市鹿町町土肥ノ浦110", "P29_006": "2", "P29_007": "0", "P29_008": "00", "P29_009": null }, "geometry": { "type": "Point", "coordinates": [ 129.618302671926983, 33.305725350187721 ] } },
{ "type": "Feature", "properties": { "P29_001": "42202", "P29_002": "D142210000426", "P29_003": "16004", "P29_004": "長崎県立佐世保商業高等学校", "P29_005": "長崎県佐世保市吉岡町863-3", "P29_006": "2", "P29_007": "0", "P29_008": "00", "P29_009": null }, "geometry": { "type": "Point", "coordinates": [ 129.699044518119621, 33.205835927003591 ] } },
{ "type": "Feature", "properties": { "P29_001": "42202", "P29_002": "D142210000435", "P29_003": "16004", "P29_004": "長崎県立佐世保東翔高等学校", "P29_005": "長崎県佐世保市重尾町425-3", "P29_006": "2", "P29_007": "0", "P29_008": "00", "P29_009": null }, "geometry": { "type": "Point", "coordinates": [ 129.815323798825403, 33.126258478180397 ] } },
{ "type": "Feature", "properties": { "P29_001": "42203", "P29_002": "D142210000444", "P29_003": "16004", "P29_004": "長崎県立島原商業高等学校", "P29_005": "長崎県島原市城内1-1213", "P29_006": "2", "P29_007": "0", "P29_008": "00", "P29_009": null }, "geometry": { "type": "Point", "coordinates": [ 130.364850113319562, 32.790998674755542 ] } },
{ "type": "Feature", "properties": { "P29_001": "42204", "P29_002": "D142210000453", "P29_003": "16004", "P29_004": "長崎県立諫早商業高等学校", "P29_005": "長崎県諫早市宇都町8-26", "P29_006": "2", "P29_007": "0", "P29_008": "00", "P29_009": null }, "geometry": { "type": "Point", "coordinates": [ 130.040313835001456, 32.847687486832385 ] } },
{ "type": "Feature", "properties": { "P29_001": "42210", "P29_002": "D142210000462", "P29_003": "16004", "P29_004": "長崎県立壱岐商業高等学校", "P29_005": "長崎県壱岐市勝本町新城西触282", "P29_006": "2", "P29_007": "0", "P29_008": "00", "P29_009": null }, "geometry": { "type": "Point", "coordinates": [ 129.714103007052614, 33.832347141065199 ] } },
{ "type": "Feature", "properties": { "P29_001": "42201", "P29_002": "D142210000471", "P29_003": "16004", "P29_004": "長崎県立長崎鶴洋高等学校", "P29_005": "長崎県長崎市末石町157-1", "P29_006": "2", "P29_007": "0", "P29_008": "00", "P29_009": null }, "geometry": { "type": "Point", "coordinates": [ 129.837177753019517, 32.684074221750897 ] } },
{ "type": "Feature", "properties": { "P29_001": "42323", "P29_002": "D142210000480", "P29_003": "16004", "P29_004": "長崎県立波佐見高等学校", "P29_005": "長崎県東彼杵郡波佐見町長野郷312-5", "P29_006": "2", "P29_007": "0", "P29_008": "00", "P29_009": null }, "geometry": { "type": "Point", "coordinates": [ 129.873017350603646, 33.118351449282557 ] } },
{ "type": "Feature", "properties": { "P29_001": "42202", "P29_002": "D142210000499", "P29_003": "16004", "P29_004": "長崎県立佐世保西高等学校", "P29_005": "長崎県佐世保市田原町130-1", "P29_006": "2", "P29_007": "0", "P29_008": "00", "P29_009": null }, "geometry": { "type": "Point", "coordinates": [ 129.71894406523711, 33.208918291456399 ] } },
{ "type": "Feature", "properties": { "P29_001": "42307", "P29_002": "D142210000505", "P29_003": "16004", "P29_004": "長崎市立長崎商業高等学校", "P29_005": "長崎県長崎市泉町1125", "P29_006": "3", "P29_007": "0", "P29_008": "00", "P29_009": null }, "geometry": { "type": "Point", "coordinates": [ 129.869202546669698, 32.808002865222548 ] } },
{ "type": "Feature", "properties": { "P29_001": "42202", "P29_002": "D142210000514", "P29_003": "16004", "P29_004": "長崎県立佐世保中央高等学校", "P29_005": "長崎県佐世保市梅田町10-14", "P29_006": "2", "P29_007": "0", "P29_008": "00", "P29_009": null }, "geometry": { "type": "Point", "coordinates": [ 129.717219865582393, 33.18824801675806 ] } },
{ "type": "Feature", "properties": { "P29_001": "42211", "P29_002": "D142210000523", "P29_003": "16004", "P29_004": "長崎県立五島海陽高等学校", "P29_005": "長崎県五島市坂の上1-6-1", "P29_006": "2", "P29_007": "0", "P29_008": "00", "P29_009": null }, "geometry": { "type": "Point", "coordinates": [ 128.838602568054199, 32.689566319185076 ] } },
{ "type": "Feature", "properties": { "P29_001": "42307", "P29_002": "D142210000532", "P29_003": "16004", "P29_004": "長崎県立長崎北陽台高等学校", "P29_005": "長崎県西彼杵郡長与町高田郷3672", "P29_006": "2", "P29_007": "0", "P29_008": "00", "P29_009": null }, "geometry": { "type": "Point", "coordinates": [ 129.867321585949384, 32.822868323910562 ] } },
{ "type": "Feature", "properties": { "P29_001": "42204", "P29_002": "D142210000541", "P29_003": "16004", "P29_004": "長崎県立諫早東高等学校", "P29_005": "長崎県諫早市森山町杉谷317", "P29_006": "2", "P29_007": "0", "P29_008": "00", "P29_009": null }, "geometry": { "type": "Point", "coordinates": [ 130.146490332754382, 32.82305216591557 ] } },
{ "type": "Feature", "properties": { "P29_001": "42204", "P29_002": "D142210000550", "P29_003": "16004", "P29_004": "長崎県立西陵高等学校", "P29_005": "長崎県諫早市多良見町化屋1387-2", "P29_006": "2", "P29_007": "0", "P29_008": "00", "P29_009": null }, "geometry": { "type": "Point", "coordinates": [ 129.990634220076174, 32.826911768954503 ] } },
{ "type": "Feature", "properties": { "P29_001": "42201", "P29_002": "D142210000569", "P29_003": "16004", "P29_004": "長崎県立鳴滝高等学校", "P29_005": "長崎県長崎市鳴滝1-4-1", "P29_006": "2", "P29_007": "0", "P29_008": "00", "P29_009": null }, "geometry": { "type": "Point", "coordinates": [ 129.893936447777776, 32.754435156999115 ] } },
{ "type": "Feature", "properties": { "P29_001": "42214", "P29_002": "D142210000578", "P29_003": "16004", "P29_004": "長崎県立島原翔南高等学校", "P29_005": "長崎県南島原市西有家町須川810", "P29_006": "2", "P29_007": "0", "P29_008": "00", "P29_009": null }, "geometry": { "type": "Point", "coordinates": [ 130.290660182701885, 32.65720785212087 ] } },
{ "type": "Feature", "properties": { "P29_001": "42201", "P29_002": "D142310000013", "P29_003": "16004", "P29_004": "海星高等学校", "P29_005": "長崎県長崎市東山手町5-3", "P29_006": "4", "P29_007": "0", "P29_008": "00", "P29_009": null }, "geometry": { "type": "Point", "coordinates": [ 129.8740102504118, 32.736793631689046 ] } },
{ "type": "Feature", "properties": { "P29_001": "42201", "P29_002": "D142310000022", "P29_003": "16004", "P29_004": "長崎南山高等学校", "P29_005": "長崎県長崎市上野町25-1", "P29_006": "4", "P29_007": "0", "P29_008": "00", "P29_009": null }, "geometry": { "type": "Point", "coordinates": [ 129.866241575336858, 32.779929257676315 ] } },
{ "type": "Feature", "properties": { "P29_001": "42201", "P29_002": "D142310000031", "P29_003": "16004", "P29_004": "活水高等学校", "P29_005": "長崎県長崎市宝栄町15-11", "P29_006": "4", "P29_007": "0", "P29_008": "00", "P29_009": null }, "geometry": { "type": "Point", "coordinates": [ 129.860337538847517, 32.770079634229347 ] } },
{ "type": "Feature", "properties": { "P29_001": "42201", "P29_002": "D142310000040", "P29_003": "16004", "P29_004": "長崎女子高等学校", "P29_005": "長崎県長崎市上小島1-11-8", "P29_006": "4", "P29_007": "0", "P29_008": "00", "P29_009": null }, "geometry": { "type": "Point", "coordinates": [ 129.883302303574368, 32.737381707884595 ] } },
{ "type": "Feature", "properties": { "P29_001": "42201", "P29_002": "D142310000059", "P29_003": "16004", "P29_004": "長崎玉成高等学校", "P29_005": "長崎県長崎市愛宕1-29-41", "P29_006": "4", "P29_007": "0", "P29_008": "00", "P29_009": null }, "geometry": { "type": "Point", "coordinates": [ 129.888998047266739, 32.740919734570447 ] } },
{ "type": "Feature", "properties": { "P29_001": "42201", "P29_002": "D142310000068", "P29_003": "16004", "P29_004": "長崎女子商業高等学校", "P29_005": "長崎県長崎市栄町2-10", "P29_006": "4", "P29_007": "0", "P29_008": "00", "P29_009": null }, "geometry": { "type": "Point", "coordinates": [ 129.878195505896031, 32.748363326819742 ] } },
{ "type": "Feature", "properties": { "P29_001": "42201", "P29_002": "D142310000077", "P29_003": "16004", "P29_004": "聖母の騎士高等学校", "P29_005": "長崎県長崎市本河内2-2-2", "P29_006": "4", "P29_007": "0", "P29_008": "00", "P29_009": null }, "geometry": { "type": "Point", "coordinates": [ 129.898905453513493, 32.750305086890997 ] } },
{ "type": "Feature", "properties": { "P29_001": "42201", "P29_002": "D142310000086", "P29_003": "16004", "P29_004": "瓊浦高等学校", "P29_005": "長崎県長崎市伊良林2-13-4", "P29_006": "4", "P29_007": "0", "P29_008": "00", "P29_009": null }, "geometry": { "type": "Point", "coordinates": [ 129.889188102772408, 32.749485610066415 ] } },
{ "type": "Feature", "properties": { "P29_001": "42201", "P29_002": "D142310000095", "P29_003": "16004", "P29_004": "純心女子高等学校", "P29_005": "長崎県長崎市文教町13-15", "P29_006": "4", "P29_007": "0", "P29_008": "00", "P29_009": null }, "geometry": { "type": "Point", "coordinates": [ 129.866799751230303, 32.784879543871867 ] } },
{ "type": "Feature", "properties": { "P29_001": "42204", "P29_002": "D142310000102", "P29_003": "16004", "P29_004": "創成館高等学校", "P29_005": "長崎県諫早市貝津町621", "P29_006": "4", "P29_007": "0", "P29_008": "00", "P29_009": null }, "geometry": { "type": "Point", "coordinates": [ 130.00670006969483, 32.83291621249419 ] } },
{ "type": "Feature", "properties": { "P29_001": "42201", "P29_002": "D142310000111", "P29_003": "16004", "P29_004": "長崎総合科学大学附属高等学校", "P29_005": "長崎県長崎市宿町3-1", "P29_006": "4", "P29_007": "0", "P29_008": "00", "P29_009": null }, "geometry": { "type": "Point", "coordinates": [ 129.944179337538998, 32.758711525875235 ] } },
{ "type": "Feature", "properties": { "P29_001": "42202", "P29_002": "D142310000120", "P29_003": "16004", "P29_004": "西海学園高等学校", "P29_005": "長崎県佐世保市春日町29-22", "P29_006": "4", "P29_007": "0", "P29_008": "00", "P29_009": null }, "geometry": { "type": "Point", "coordinates": [ 129.722368166402077, 33.201399384962592 ] } },
{ "type": "Feature", "properties": { "P29_001": "42202", "P29_002": "D142310000139", "P29_003": "16004", "P29_004": "久田学園佐世保女子高等学校", "P29_005": "長崎県佐世保市比良町21-1", "P29_006": "4", "P29_007": "0", "P29_008": "00", "P29_009": null }, "geometry": { "type": "Point", "coordinates": [ 129.7108504796864, 33.180189119064053 ] } },
{ "type": "Feature", "properties": { "P29_001": "42202", "P29_002": "D142310000148", "P29_003": "16004", "P29_004": "聖和女子学院高等学校", "P29_005": "長崎県佐世保市松山町495", "P29_006": "4", "P29_007": "0", "P29_008": "00", "P29_009": null }, "geometry": { "type": "Point", "coordinates": [ 129.722648467958294, 33.191421061916095 ] } },
{ "type": "Feature", "properties": { "P29_001": "42202", "P29_002": "D142310000157", "P29_003": "16004", "P29_004": "九州文化学園高等学校", "P29_005": "長崎県佐世保市椎木町600", "P29_006": "4", "P29_007": "0", "P29_008": "00", "P29_009": null }, "geometry": { "type": "Point", "coordinates": [ 129.672866265089198, 33.179867355269707 ] } },
{ "type": "Feature", "properties": { "P29_001": "42202", "P29_002": "D142310000166", "P29_003": "16004", "P29_004": "佐世保実業高等学校", "P29_005": "長崎県佐世保市母ヶ浦町888-1", "P29_006": "4", "P29_007": "0", "P29_008": "00", "P29_009": null }, "geometry": { "type": "Point", "coordinates": [ 129.680815616292165, 33.179441426340667 ] } },
{ "type": "Feature", "properties": { "P29_001": "42203", "P29_002": "D142310000175", "P29_003": "16004", "P29_004": "島原中央高等学校", "P29_005": "長崎県島原市船泊町3415", "P29_006": "4", "P29_007": "0", "P29_008": "00", "P29_009": null }, "geometry": { "type": "Point", "coordinates": [ 130.370407248830389, 32.756429530999249 ] } },
{ "type": "Feature", "properties": { "P29_001": "42204", "P29_002": "D142310000184", "P29_003": "16004", "P29_004": "鎮西学院高等学校", "P29_005": "長崎県諫早市西栄田町1212-1", "P29_006": "4", "P29_007": "0", "P29_008": "00", "P29_009": null }, "geometry": { "type": "Point", "coordinates": [ 130.03104559169887, 32.858000254408282 ] } },
{ "type": "Feature", "properties": { "P29_001": "42204", "P29_002": "D142310000193", "P29_003": "16004", "P29_004": "長崎日本大学高等学校", "P29_005": "長崎県諫早市貝津町1555", "P29_006": "4", "P29_007": "0", "P29_008": "00", "P29_009": null }, "geometry": { "type": "Point", "coordinates": [ 130.012158693006199, 32.840591959439131 ] } },
{ "type": "Feature", "properties": { "P29_001": "42205", "P29_002": "D142310000200", "P29_003": "16004", "P29_004": "向陽高等学校", "P29_005": "長崎県大村市西三城町16", "P29_006": "4", "P29_007": "0", "P29_008": "00", "P29_009": null }, "geometry": { "type": "Point", "coordinates": [ 129.960612003284751, 32.914544004497131 ] } },
{ "type": "Feature", "properties": { "P29_001": "42308", "P29_002": "D142310000219", "P29_003": "16004", "P29_004": "青雲高等学校", "P29_005": "長崎県西彼杵郡時津町左底245-2", "P29_006": "4", "P29_007": "0", "P29_008": "00", "P29_009": null }, "geometry": { "type": "Point", "coordinates": [ 129.837264005417666, 32.829021001482324 ] } },
{ "type": "Feature", "properties": { "P29_001": "42201", "P29_002": "D142310000228", "P29_003": "16004", "P29_004": "精道三川台高等学校", "P29_005": "長崎県長崎市三川町1234-1", "P29_006": "4", "P29_007": "0", "P29_008": "00", "P29_009": null }, "geometry": { "type": "Point", "coordinates": [ 129.884551669628877, 32.786760592209333 ] } },
{ "type": "Feature", "properties": { "P29_001": "42201", "P29_002": "D142310000237", "P29_003": "16004", "P29_004": "こころ未来高等学校", "P29_005": "長崎県長崎市愛宕3-19-23", "P29_006": "4", "P29_007": "0", "P29_008": "00", "P29_009": null }, "geometry": { "type": "Point", "coordinates": [ 129.892460998263658, 32.731357004187913 ] } }
]
}
