{
"type": "FeatureCollection",
"name": "geo_42_4",
"crs": { "type": "name", "properties": { "name": "urn:ogc:def:crs:OGC:1.3:CRS84" } },
"features": [
{ "type": "Feature", "properties": { "ID": "424bgo0001", "正式名称": "あっぷるぱい母乳育児相談所", "機関区分": 4, "都道府県コード": 42, "市区町村コード": 211, "所在地": "長崎県五島市下崎山町３１", "緯度": 32.653644, "経度": 128.878655, "url": "https://www.iryou.teikyouseido.mhlw.go.jp/znk-web/juminkanja/S2430/initialize?prefCd=42&kikanCd=bgo0001&kikanKbn=4", "url2": null, "内容": "あっぷるぱい母乳育児相談所【4:助産院】長崎県五島市下崎山町３１" }, "geometry": { "type": "Point", "coordinates": [ 128.878655, 32.653644 ] } },
{ "type": "Feature", "properties": { "ID": "424bki0003", "正式名称": "出張専門助産師伊東孝子", "機関区分": 4, "都道府県コード": 42, "市区町村コード": 207, "所在地": "長崎県平戸市戸石川町６７１－４", "緯度": 33.360597, "経度": 129.544207, "url": "https://www.iryou.teikyouseido.mhlw.go.jp/znk-web/juminkanja/S2430/initialize?prefCd=42&kikanCd=bki0003&kikanKbn=4", "url2": null, "内容": "出張専門助産師伊東孝子【4:助産院】長崎県平戸市戸石川町６７１－４" }, "geometry": { "type": "Point", "coordinates": [ 129.544207, 33.360597 ] } },
{ "type": "Feature", "properties": { "ID": "424bmi0001", "正式名称": "さとう助産院", "機関区分": 4, "都道府県コード": 42, "市区町村コード": 213, "所在地": "長崎県雲仙市吾妻町長崎県雲仙市吾妻町永中名８０８－１", "緯度": 32.828662, "経度": 130.182376, "url": "https://www.iryou.teikyouseido.mhlw.go.jp/znk-web/juminkanja/S2430/initialize?prefCd=42&kikanCd=bmi0001&kikanKbn=4", "url2": "http://www.satou-unzen.com", "内容": "さとう助産院【4:助産院】長崎県雲仙市吾妻町長崎県雲仙市吾妻町永中名８０８－１" }, "geometry": { "type": "Point", "coordinates": [ 130.182376, 32.828662 ] } },
{ "type": "Feature", "properties": { "ID": "424bna0001", "正式名称": "茉莉花助産院", "機関区分": 4, "都道府県コード": 42, "市区町村コード": 201, "所在地": "長崎県長崎市宝町３番１６号三央ビル６０１", "緯度": 32.75801, "経度": 129.867736, "url": "https://www.iryou.teikyouseido.mhlw.go.jp/znk-web/juminkanja/S2430/initialize?prefCd=42&kikanCd=bna0001&kikanKbn=4", "url2": null, "内容": "茉莉花助産院【4:助産院】長崎県長崎市宝町３番１６号三央ビル６０１" }, "geometry": { "type": "Point", "coordinates": [ 129.867736, 32.75801 ] } },
{ "type": "Feature", "properties": { "ID": "424bna0002", "正式名称": "プロジェクト・マムさくらの里助産院", "機関区分": 4, "都道府県コード": 42, "市区町村コード": 201, "所在地": "長崎県長崎市さくらの里", "緯度": 32.830611, "経度": 129.770592, "url": "https://www.iryou.teikyouseido.mhlw.go.jp/znk-web/juminkanja/S2430/initialize?prefCd=42&kikanCd=bna0002&kikanKbn=4", "url2": null, "内容": "プロジェクト・マムさくらの里助産院【4:助産院】長崎県長崎市さくらの里" }, "geometry": { "type": "Point", "coordinates": [ 129.770592, 32.830611 ] } },
{ "type": "Feature", "properties": { "ID": "424bna0003", "正式名称": "福田母乳育児相談室", "機関区分": 4, "都道府県コード": 42, "市区町村コード": 201, "所在地": "長崎県長崎市魚の町", "緯度": 32.747829, "経度": 129.879648, "url": "https://www.iryou.teikyouseido.mhlw.go.jp/znk-web/juminkanja/S2430/initialize?prefCd=42&kikanCd=bna0003&kikanKbn=4", "url2": null, "内容": "福田母乳育児相談室【4:助産院】長崎県長崎市魚の町" }, "geometry": { "type": "Point", "coordinates": [ 129.879648, 32.747829 ] } },
{ "type": "Feature", "properties": { "ID": "424bna0004", "正式名称": "あきしま助産院", "機関区分": 4, "都道府県コード": 42, "市区町村コード": 201, "所在地": "長崎県長崎市新大工町３－１７中村ビル２Ｆ", "緯度": 32.752456, "経度": 129.885587, "url": "https://www.iryou.teikyouseido.mhlw.go.jp/znk-web/juminkanja/S2430/initialize?prefCd=42&kikanCd=bna0004&kikanKbn=4", "url2": "http://tsutsumishiki.com", "内容": "あきしま助産院【4:助産院】長崎県長崎市新大工町３－１７中村ビル２Ｆ" }, "geometry": { "type": "Point", "coordinates": [ 129.885587, 32.752456 ] } },
{ "type": "Feature", "properties": { "ID": "424bna0005", "正式名称": "ゆいま～る", "機関区分": 4, "都道府県コード": 42, "市区町村コード": 201, "所在地": "長崎県長崎市小菅町１７－３", "緯度": 32.725138, "経度": 129.863597, "url": "https://www.iryou.teikyouseido.mhlw.go.jp/znk-web/juminkanja/S2430/initialize?prefCd=42&kikanCd=bna0005&kikanKbn=4", "url2": null, "内容": "ゆいま～る【4:助産院】長崎県長崎市小菅町１７－３" }, "geometry": { "type": "Point", "coordinates": [ 129.863597, 32.725138 ] } },
{ "type": "Feature", "properties": { "ID": "424bna0006", "正式名称": "千代の幸助産院", "機関区分": 4, "都道府県コード": 42, "市区町村コード": 201, "所在地": "長崎県長崎市三和町２１８番地４４", "緯度": 32.693121, "経度": 129.849486, "url": "https://www.iryou.teikyouseido.mhlw.go.jp/znk-web/juminkanja/S2430/initialize?prefCd=42&kikanCd=bna0006&kikanKbn=4", "url2": "https://chiyonosachi-j.com", "内容": "千代の幸助産院【4:助産院】長崎県長崎市三和町２１８番地４４" }, "geometry": { "type": "Point", "coordinates": [ 129.849486, 32.693121 ] } },
{ "type": "Feature", "properties": { "ID": "424bna0008", "正式名称": "いつでも頼れる助産院　ＭＡＭＡ　ＹＥＬＬ", "機関区分": 4, "都道府県コード": 42, "市区町村コード": 201, "所在地": "長崎県長崎市城栄町　２４ー２０", "緯度": 32.775959, "経度": 129.856876, "url": "https://www.iryou.teikyouseido.mhlw.go.jp/znk-web/juminkanja/S2430/initialize?prefCd=42&kikanCd=bna0008&kikanKbn=4", "url2": "https://mama-yell.com", "内容": "いつでも頼れる助産院　ＭＡＭＡ　ＹＥＬＬ【4:助産院】長崎県長崎市城栄町　２４ー２０" }, "geometry": { "type": "Point", "coordinates": [ 129.856876, 32.775959 ] } },
{ "type": "Feature", "properties": { "ID": "424bna0009", "正式名称": "出張専門すみれ助産院", "機関区分": 4, "都道府県コード": 42, "市区町村コード": 201, "所在地": "長崎県長崎市相生町４ー２－３０１", "緯度": 32.73327, "経度": 129.87272, "url": "https://www.iryou.teikyouseido.mhlw.go.jp/znk-web/juminkanja/S2430/initialize?prefCd=42&kikanCd=bna0009&kikanKbn=4", "url2": "http://sumire-jyosanin.amebaownd.com", "内容": "出張専門すみれ助産院【4:助産院】長崎県長崎市相生町４ー２－３０１" }, "geometry": { "type": "Point", "coordinates": [ 129.87272, 32.73327 ] } },
{ "type": "Feature", "properties": { "ID": "424bna0011", "正式名称": "秋出張専門助産所", "機関区分": 4, "都道府県コード": 42, "市区町村コード": 201, "所在地": "長崎県長崎市葉山２丁目１０番７号", "緯度": 32.802575, "経度": 129.846383, "url": "https://www.iryou.teikyouseido.mhlw.go.jp/znk-web/juminkanja/S2430/initialize?prefCd=42&kikanCd=bna0011&kikanKbn=4", "url2": null, "内容": "秋出張専門助産所【4:助産院】長崎県長崎市葉山２丁目１０番７号" }, "geometry": { "type": "Point", "coordinates": [ 129.846383, 32.802575 ] } },
{ "type": "Feature", "properties": { "ID": "424bni0001", "正式名称": "永谷助産所（永谷母乳育児相談室）", "機関区分": 4, "都道府県コード": 42, "市区町村コード": 308, "所在地": "長崎県西彼杵郡時津町浜田郷８３１番地９", "緯度": 32.830911, "経度": 129.866651, "url": "https://www.iryou.teikyouseido.mhlw.go.jp/znk-web/juminkanja/S2430/initialize?prefCd=42&kikanCd=bni0001&kikanKbn=4", "url2": "https://nagatani-oketani.jimdofree.com", "内容": "永谷助産所（永谷母乳育児相談室）【4:助産院】長崎県西彼杵郡時津町浜田郷８３１番地９" }, "geometry": { "type": "Point", "coordinates": [ 129.866651, 32.830911 ] } },
{ "type": "Feature", "properties": { "ID": "424bni0003", "正式名称": "ママと赤ちゃんの相談室ながの", "機関区分": 4, "都道府県コード": 42, "市区町村コード": 307, "所在地": "長崎県西彼杵郡長与町三根郷５４ー１９８", "緯度": 32.817772, "経度": 129.892802, "url": "https://www.iryou.teikyouseido.mhlw.go.jp/znk-web/juminkanja/S2430/initialize?prefCd=42&kikanCd=bni0003&kikanKbn=4", "url2": null, "内容": "ママと赤ちゃんの相談室ながの【4:助産院】長崎県西彼杵郡長与町三根郷５４ー１９８" }, "geometry": { "type": "Point", "coordinates": [ 129.892802, 32.817772 ] } },
{ "type": "Feature", "properties": { "ID": "424bni0004", "正式名称": "ひまわり母乳育児相談室", "機関区分": 4, "都道府県コード": 42, "市区町村コード": 308, "所在地": "長崎県西彼杵郡時津町西時津郷７５－２５", "緯度": 32.832953, "経度": 129.862367, "url": "https://www.iryou.teikyouseido.mhlw.go.jp/znk-web/juminkanja/S2430/initialize?prefCd=42&kikanCd=bni0004&kikanKbn=4", "url2": "http://himawari-oketani-nagasaki.jimdo.com", "内容": "ひまわり母乳育児相談室【4:助産院】長崎県西彼杵郡時津町西時津郷７５－２５" }, "geometry": { "type": "Point", "coordinates": [ 129.862367, 32.832953 ] } },
{ "type": "Feature", "properties": { "ID": "424bni0006", "正式名称": "Ｄｏｕｌａ（ドゥーラ）助産院", "機関区分": 4, "都道府県コード": 42, "市区町村コード": 307, "所在地": "長崎県西彼杵郡長与町高田郷１００６番地５３", "緯度": 32.816085, "経度": 129.870197, "url": "https://www.iryou.teikyouseido.mhlw.go.jp/znk-web/juminkanja/S2430/initialize?prefCd=42&kikanCd=bni0006&kikanKbn=4", "url2": null, "内容": "Ｄｏｕｌａ（ドゥーラ）助産院【4:助産院】長崎県西彼杵郡長与町高田郷１００６番地５３" }, "geometry": { "type": "Point", "coordinates": [ 129.870197, 32.816085 ] } },
{ "type": "Feature", "properties": { "ID": "424boh0004", "正式名称": "いさはやたんぽぽ助産院", "機関区分": 4, "都道府県コード": 42, "市区町村コード": 204, "所在地": "長崎県諫早市貝津町１６６１－５", "緯度": 32.836321, "経度": 130.013081, "url": "https://www.iryou.teikyouseido.mhlw.go.jp/znk-web/juminkanja/S2430/initialize?prefCd=42&kikanCd=boh0004&kikanKbn=4", "url2": "http://www.isahayatanpopojosanin.com", "内容": "いさはやたんぽぽ助産院【4:助産院】長崎県諫早市貝津町１６６１－５" }, "geometry": { "type": "Point", "coordinates": [ 130.013081, 32.836321 ] } },
{ "type": "Feature", "properties": { "ID": "424bsa0001", "正式名称": "こすもす助産所", "機関区分": 4, "都道府県コード": 42, "市区町村コード": 202, "所在地": "長崎県佐世保市黒髪町６５１５番地２５", "緯度": 33.167122, "経度": 129.777438, "url": "https://www.iryou.teikyouseido.mhlw.go.jp/znk-web/juminkanja/S2430/initialize?prefCd=42&kikanCd=bsa0001&kikanKbn=4", "url2": null, "内容": "こすもす助産所【4:助産院】長崎県佐世保市黒髪町６５１５番地２５" }, "geometry": { "type": "Point", "coordinates": [ 129.777438, 33.167122 ] } },
{ "type": "Feature", "properties": { "ID": "424bsa0002", "正式名称": "ママと赤ちゃんの家からこ", "機関区分": 4, "都道府県コード": 42, "市区町村コード": 202, "所在地": "長崎県佐世保市木原町４９９番地４", "緯度": 33.175208, "経度": 129.850658, "url": "https://www.iryou.teikyouseido.mhlw.go.jp/znk-web/juminkanja/S2430/initialize?prefCd=42&kikanCd=bsa0002&kikanKbn=4", "url2": null, "内容": "ママと赤ちゃんの家からこ【4:助産院】長崎県佐世保市木原町４９９番地４" }, "geometry": { "type": "Point", "coordinates": [ 129.850658, 33.175208 ] } },
{ "type": "Feature", "properties": { "ID": "424bsa0007", "正式名称": "ままのね助産院", "機関区分": 4, "都道府県コード": 42, "市区町村コード": 202, "所在地": "長崎県佐世保市大潟町５８０－１", "緯度": 33.16892, "経度": 129.6379, "url": "https://www.iryou.teikyouseido.mhlw.go.jp/znk-web/juminkanja/S2430/initialize?prefCd=42&kikanCd=bsa0007&kikanKbn=4", "url2": "https://mamanone-midwiferyclinic.amebaownd.com", "内容": "ままのね助産院【4:助産院】長崎県佐世保市大潟町５８０－１" }, "geometry": { "type": "Point", "coordinates": [ 129.6379, 33.16892 ] } }
]
}
