{
"type": "FeatureCollection",
"name": "geo_42_福祉用具貸与",
"crs": { "type": "name", "properties": { "name": "urn:ogc:def:crs:OGC:1.3:CRS84" } },
"features": [
{ "type": "Feature", "properties": { "内容": "株式会社リハテック【福祉用具貸与】長崎県長崎市松原町2486番地4", "url": "https://www.kaigokensaku.mhlw.go.jp/42/index.php?action_kouhyou_detail_004_kani=true&JigyosyoCd=4270112065-00&ServiceCd=170&Type=search", "url2": "http://rehatech.co.jp" }, "geometry": { "type": "Point", "coordinates": [ 129.954666002979593, 32.797261461781275 ] } },
{ "type": "Feature", "properties": { "内容": "三菱電機ライフサービス株式会社　長崎支店【福祉用具貸与】長崎県長崎市小ヶ倉町3丁目76-27", "url": "https://www.kaigokensaku.mhlw.go.jp/42/index.php?action_kouhyou_detail_004_kani=true&JigyosyoCd=4270103296-00&ServiceCd=170&Type=search", "url2": "http://www.mdlife.co.jp" }, "geometry": { "type": "Point", "coordinates": [ 129.847037883622761, 32.703699157635562 ] } },
{ "type": "Feature", "properties": { "内容": "有限会社ライトケア【福祉用具貸与】長崎県長崎市毛井首町76番地2", "url": "https://www.kaigokensaku.mhlw.go.jp/42/index.php?action_kouhyou_detail_004_kani=true&JigyosyoCd=4270104377-00&ServiceCd=170&Type=search", "url2": null }, "geometry": { "type": "Point", "coordinates": [ 129.837721, 32.692084500000014 ] } },
{ "type": "Feature", "properties": { "内容": "ニチイケアセンター浦上【福祉用具貸与】長崎県長崎市花丘町22-12小柳ビル102号", "url": "https://www.kaigokensaku.mhlw.go.jp/42/index.php?action_kouhyou_detail_004_kani=true&JigyosyoCd=4270109467-00&ServiceCd=170&Type=search", "url2": "http://www.nichiigakkan.co.jp/" }, "geometry": { "type": "Point", "coordinates": [ 129.866630044475045, 32.791333888954085 ] } },
{ "type": "Feature", "properties": { "内容": "長崎ダイヤモンドスタッフ株式会社　福祉用具・介護用品センター【福祉用具貸与】長崎県長崎市淵町2番25号", "url": "https://www.kaigokensaku.mhlw.go.jp/42/index.php?action_kouhyou_detail_004_kani=true&JigyosyoCd=4270111661-00&ServiceCd=170&Type=search", "url2": "https://www.diamondstaff.co.jp/" }, "geometry": { "type": "Point", "coordinates": [ 129.859973800000034, 32.7601203 ] } },
{ "type": "Feature", "properties": { "内容": "ケイ・エム・サポート株式会社【福祉用具貸与】長崎県長崎市銀屋町3番17号銀屋ビル4階", "url": "https://www.kaigokensaku.mhlw.go.jp/42/index.php?action_kouhyou_detail_004_kani=true&JigyosyoCd=4270110960-00&ServiceCd=170&Type=search", "url2": null }, "geometry": { "type": "Point", "coordinates": [ 129.880753, 32.7461805 ] } },
{ "type": "Feature", "properties": { "内容": "テイクオフ株式会社【福祉用具貸与】長崎県長崎市東町2512-12F", "url": "https://www.kaigokensaku.mhlw.go.jp/42/index.php?action_kouhyou_detail_004_kani=true&JigyosyoCd=4270108840-00&ServiceCd=170&Type=search", "url2": "takeoff0701@outlook.jp" }, "geometry": { "type": "Point", "coordinates": [ 129.952133796247864, 32.784052264855589 ] } },
{ "type": "Feature", "properties": { "内容": "ライフ・ケア株式会社【福祉用具貸与】長崎県長崎市葉山１丁目１４番２３号", "url": "https://www.kaigokensaku.mhlw.go.jp/42/index.php?action_kouhyou_detail_004_kani=true&JigyosyoCd=4270108519-00&ServiceCd=170&Type=search", "url2": null }, "geometry": { "type": "Point", "coordinates": [ 129.849244799999951, 32.8027543 ] } },
{ "type": "Feature", "properties": { "内容": "株式会社AquaticDreams　福祉事業部ファインライフ桃凛【福祉用具貸与】長崎県長崎市鳴見町301-3-1", "url": "https://www.kaigokensaku.mhlw.go.jp/42/index.php?action_kouhyou_detail_004_kani=true&JigyosyoCd=4270111166-00&ServiceCd=170&Type=search", "url2": "https://aquaticdreams.jp/" }, "geometry": { "type": "Point", "coordinates": [ 129.810167366436758, 32.813931731315769 ] } },
{ "type": "Feature", "properties": { "内容": "株式会社　あいおい【福祉用具貸与】長崎県長崎市立山5丁目17番53号", "url": "https://www.kaigokensaku.mhlw.go.jp/42/index.php?action_kouhyou_detail_004_kani=true&JigyosyoCd=4270110754-00&ServiceCd=170&Type=search", "url2": "http://tateyamaso.com/short-stay.html" }, "geometry": { "type": "Point", "coordinates": [ 129.8786459, 32.7615228 ] } },
{ "type": "Feature", "properties": { "内容": "介護のすけさん【福祉用具貸与】長崎県長崎市長崎市花園町1番18号", "url": "https://www.kaigokensaku.mhlw.go.jp/42/index.php?action_kouhyou_detail_004_kani=true&JigyosyoCd=4270107776-00&ServiceCd=170&Type=search", "url2": null }, "geometry": { "type": "Point", "coordinates": [ 129.852798474200483, 32.771338664782441 ] } },
{ "type": "Feature", "properties": { "内容": "株式会社　つがみ【福祉用具貸与】長崎県長崎市女の都2丁目44番3号2E", "url": "https://www.kaigokensaku.mhlw.go.jp/42/index.php?action_kouhyou_detail_004_kani=true&JigyosyoCd=4270110069-00&ServiceCd=170&Type=search", "url2": null }, "geometry": { "type": "Point", "coordinates": [ 129.880287302267106, 32.804236040121936 ] } },
{ "type": "Feature", "properties": { "内容": "ウェルズライフサービス【福祉用具貸与】長崎県長崎市大手１丁目２８番１５号", "url": "https://www.kaigokensaku.mhlw.go.jp/42/index.php?action_kouhyou_detail_004_kani=true&JigyosyoCd=4270110135-00&ServiceCd=170&Type=search", "url2": "https://wellslife.jp/" }, "geometry": { "type": "Point", "coordinates": [ 129.875339864370716, 32.78928560464697 ] } },
{ "type": "Feature", "properties": { "内容": "ベストケア長崎【福祉用具貸与】長崎県長崎市田中町212-4", "url": "https://www.kaigokensaku.mhlw.go.jp/42/index.php?action_kouhyou_detail_004_kani=true&JigyosyoCd=4270110499-00&ServiceCd=170&Type=search", "url2": "evahlife.jp" }, "geometry": { "type": "Point", "coordinates": [ 129.950370735519613, 32.763158126695075 ] } },
{ "type": "Feature", "properties": { "内容": "株式会社　カイダ・アイフルケア【福祉用具貸与】長崎県長崎市大井手町32", "url": "https://www.kaigokensaku.mhlw.go.jp/42/index.php?action_kouhyou_detail_004_kani=true&JigyosyoCd=4270101084-00&ServiceCd=170&Type=search", "url2": "http://www.kaida-aifullcare.co.jp/" }, "geometry": { "type": "Point", "coordinates": [ 129.882989568751896, 32.751098468674087 ] } },
{ "type": "Feature", "properties": { "内容": "株式会社ニッショウ【福祉用具貸与】長崎県長崎市宝町7番3号", "url": "https://www.kaigokensaku.mhlw.go.jp/42/index.php?action_kouhyou_detail_004_kani=true&JigyosyoCd=4270101571-00&ServiceCd=170&Type=search", "url2": "https://nissho-inc.co.jp" }, "geometry": { "type": "Point", "coordinates": [ 129.866853799999944, 32.7595039 ] } },
{ "type": "Feature", "properties": { "内容": "介護支援センターながさき　福祉用具・住・改ステーション【福祉用具貸与】長崎県長崎市新大工町５番２０号", "url": "https://www.kaigokensaku.mhlw.go.jp/42/index.php?action_kouhyou_detail_004_kani=true&JigyosyoCd=4270101878-00&ServiceCd=170&Type=search", "url2": "https://www.human-nw.com" }, "geometry": { "type": "Point", "coordinates": [ 129.887160147954546, 32.752866331752038 ] } },
{ "type": "Feature", "properties": { "内容": "株式会社ファミリア【福祉用具貸与】長崎県長崎市大浦町4番19号", "url": "https://www.kaigokensaku.mhlw.go.jp/42/index.php?action_kouhyou_detail_004_kani=true&JigyosyoCd=4270135728-00&ServiceCd=170&Type=search", "url2": null }, "geometry": { "type": "Point", "coordinates": [ 129.8714616, 32.7372357 ] } },
{ "type": "Feature", "properties": { "内容": "福祉用具貸与事業所すまいるはぁと【福祉用具貸与】長崎県長崎市元船町１７番３号長崎港ターミナルビル2階", "url": "https://www.kaigokensaku.mhlw.go.jp/42/index.php?action_kouhyou_detail_004_kani=true&JigyosyoCd=4270135645-00&ServiceCd=170&Type=search", "url2": "https://www.sinkamigoto.net/" }, "geometry": { "type": "Point", "coordinates": [ 129.868231, 32.7458338 ] } },
{ "type": "Feature", "properties": { "内容": "株式会社　長崎かなえ【福祉用具貸与】長崎県長崎市坂本1丁目6-10", "url": "https://www.kaigokensaku.mhlw.go.jp/42/index.php?action_kouhyou_detail_004_kani=true&JigyosyoCd=4270101191-00&ServiceCd=170&Type=search", "url2": "http://www.n-kanae.jp/" }, "geometry": { "type": "Point", "coordinates": [ 129.866920400000026, 32.7684309 ] } },
{ "type": "Feature", "properties": { "内容": "株式会社　長崎病協【福祉用具貸与】長崎県長崎市平野町３番２０号", "url": "https://www.kaigokensaku.mhlw.go.jp/42/index.php?action_kouhyou_detail_004_kani=true&JigyosyoCd=4270100250-00&ServiceCd=170&Type=search", "url2": "https://www.byoukyou.com" }, "geometry": { "type": "Point", "coordinates": [ 129.863295599999987, 32.7720637 ] } },
{ "type": "Feature", "properties": { "内容": "エイブルサポート【福祉用具貸与】長崎県長崎市中里町１５６８番地７", "url": "https://www.kaigokensaku.mhlw.go.jp/42/index.php?action_kouhyou_detail_004_kani=true&JigyosyoCd=4270108824-00&ServiceCd=170&Type=search", "url2": null }, "geometry": { "type": "Point", "coordinates": [ 129.966642, 32.8107786 ] } },
{ "type": "Feature", "properties": { "内容": "株式会社　ENTOWA　バイタル福祉用具【福祉用具貸与】長崎県長崎市葉山１丁目35-22", "url": "https://www.kaigokensaku.mhlw.go.jp/42/index.php?action_kouhyou_detail_004_kani=true&JigyosyoCd=4270135678-00&ServiceCd=170&Type=search", "url2": "https://entowa.co.jp/" }, "geometry": { "type": "Point", "coordinates": [ 129.847811027178068, 32.806207388551911 ] } },
{ "type": "Feature", "properties": { "内容": "福祉用具貸与・販売事業所　はーとふる長崎【福祉用具貸与】福田本町185番地2", "url": "https://www.kaigokensaku.mhlw.go.jp/42/index.php?action_kouhyou_detail_004_kani=true&JigyosyoCd=4270111745-00&ServiceCd=170&Type=search", "url2": "https://www.ufinitia.com" }, "geometry": { "type": "Point", "coordinates": [ 129.8188874, 32.7465955 ] } },
{ "type": "Feature", "properties": { "内容": "株式会社アンド　あるくサポート【福祉用具貸与】長崎県長崎市本原町７番３号", "url": "https://www.kaigokensaku.mhlw.go.jp/42/index.php?action_kouhyou_detail_004_kani=true&JigyosyoCd=4270136106-00&ServiceCd=170&Type=search", "url2": null }, "geometry": { "type": "Point", "coordinates": [ 129.869160099999988, 32.7800307 ] } },
{ "type": "Feature", "properties": { "内容": "株式会社フロンティア長崎営業所【福祉用具貸与】長崎県長崎市田中町588番地1", "url": "https://www.kaigokensaku.mhlw.go.jp/42/index.php?action_kouhyou_detail_004_kani=true&JigyosyoCd=4270136072-00&ServiceCd=170&Type=search", "url2": "https://www.frontier-ph.com/" }, "geometry": { "type": "Point", "coordinates": [ 129.94225, 32.7692584 ] } },
{ "type": "Feature", "properties": { "内容": "パナソニックエイジフリーショップ長崎【福祉用具貸与】長崎県長崎市葉山2丁目21番1号", "url": "https://www.kaigokensaku.mhlw.go.jp/42/index.php?action_kouhyou_detail_004_kani=true&JigyosyoCd=4270109376-00&ServiceCd=170&Type=search", "url2": "http://panasonic.biz/healthcare/afsh/store/search/shop_detail.php?shop=855" }, "geometry": { "type": "Point", "coordinates": [ 129.845581, 32.8051041 ] } },
{ "type": "Feature", "properties": { "内容": "合同会社　いちか【福祉用具貸与】長崎県長崎市大手２丁目13番38号", "url": "https://www.kaigokensaku.mhlw.go.jp/42/index.php?action_kouhyou_detail_004_kani=true&JigyosyoCd=4270135710-00&ServiceCd=170&Type=search", "url2": null }, "geometry": { "type": "Point", "coordinates": [ 129.8787374, 32.789045 ] } },
{ "type": "Feature", "properties": { "内容": "福祉用具　ひまわり【福祉用具貸与】長崎県長崎市木鉢町1丁目4番地6―", "url": "https://www.kaigokensaku.mhlw.go.jp/42/index.php?action_kouhyou_detail_004_kani=true&JigyosyoCd=4270135975-00&ServiceCd=170&Type=search", "url2": null }, "geometry": { "type": "Point", "coordinates": [ 129.8409112, 32.7256101 ] } },
{ "type": "Feature", "properties": { "内容": "福祉用具貸与・販売事業所サンハイツ【福祉用具貸与】長崎県長崎市油木町65番地14", "url": "https://www.kaigokensaku.mhlw.go.jp/42/index.php?action_kouhyou_detail_004_kani=true&JigyosyoCd=4270106877-00&ServiceCd=170&Type=search", "url2": "http://www.sanhaitsu.jp/" }, "geometry": { "type": "Point", "coordinates": [ 129.844110300000011, 32.7803067 ] } },
{ "type": "Feature", "properties": { "内容": "太陽シルバーサービス株式会社　長崎営業所【福祉用具貸与】長崎県長崎市界2丁目2番4号", "url": "https://www.kaigokensaku.mhlw.go.jp/42/index.php?action_kouhyou_detail_004_kani=true&JigyosyoCd=4270111638-00&ServiceCd=170&Type=search", "url2": "taiyoss.co.jp" }, "geometry": { "type": "Point", "coordinates": [ 129.94422, 32.7564889 ] } },
{ "type": "Feature", "properties": { "内容": "介護ショップ　タスカル【福祉用具貸与】長崎市梁川町6番8号", "url": "https://www.kaigokensaku.mhlw.go.jp/42/index.php?action_kouhyou_detail_004_kani=true&JigyosyoCd=4270103254-00&ServiceCd=170&Type=search", "url2": null }, "geometry": { "type": "Point", "coordinates": [ 129.859484899999984, 32.7615369 ] } },
{ "type": "Feature", "properties": { "内容": "ケアハートガーデン株式会社【福祉用具貸与】長崎県長崎市松が枝町5-12", "url": "https://www.kaigokensaku.mhlw.go.jp/42/index.php?action_kouhyou_detail_004_kani=true&JigyosyoCd=4270136452-00&ServiceCd=170&Type=search", "url2": "https://www.careheart-garden.com/services/rental.html" }, "geometry": { "type": "Point", "coordinates": [ 129.8686978, 32.7359018 ] } },
{ "type": "Feature", "properties": { "内容": "スイートピー福祉用具貸与・販売事業所【福祉用具貸与】長崎県長崎市中園町2番12号林田", "url": "https://www.kaigokensaku.mhlw.go.jp/42/index.php?action_kouhyou_detail_004_kani=true&JigyosyoCd=4270108972-00&ServiceCd=170&Type=search", "url2": "http://sweetpeakaigo.com/" }, "geometry": { "type": "Point", "coordinates": [ 129.859794800000032, 32.790542 ] } },
{ "type": "Feature", "properties": { "内容": "合同会社　介護ショップ　サポートケア【福祉用具貸与】星取２丁目９番６２号", "url": "https://www.kaigokensaku.mhlw.go.jp/42/index.php?action_kouhyou_detail_004_kani=true&JigyosyoCd=4270111273-00&ServiceCd=170&Type=search", "url2": "https://saport-care3.webnode.jp" }, "geometry": { "type": "Point", "coordinates": [ 129.883411188444143, 32.721130859930703 ] } },
{ "type": "Feature", "properties": { "内容": "株式会社　ユウゼン【福祉用具貸与】長崎県長崎市琴海戸根町1264番地36", "url": "https://www.kaigokensaku.mhlw.go.jp/42/index.php?action_kouhyou_detail_004_kani=true&JigyosyoCd=4270106687-00&ServiceCd=170&Type=search", "url2": null }, "geometry": { "type": "Point", "coordinates": [ 129.777734558520024, 32.896483254821717 ] } },
{ "type": "Feature", "properties": { "内容": "レストケア紬芪（つむぎ）【福祉用具貸与】長崎県佐世保市吉岡町815-1", "url": "https://www.kaigokensaku.mhlw.go.jp/42/index.php?action_kouhyou_detail_004_kani=true&JigyosyoCd=4270205216-00&ServiceCd=170&Type=search", "url2": null }, "geometry": { "type": "Point", "coordinates": [ 129.702058099999931, 33.2087294 ] } },
{ "type": "Feature", "properties": { "内容": "あいずケアレントパートナーズ佐世保【福祉用具貸与】長崎県佐世保市山県町6-3プロスペール1F", "url": "https://www.kaigokensaku.mhlw.go.jp/42/index.php?action_kouhyou_detail_004_kani=true&JigyosyoCd=4270205679-00&ServiceCd=170&Type=search", "url2": null }, "geometry": { "type": "Point", "coordinates": [ 129.7209978, 33.1670169 ] } },
{ "type": "Feature", "properties": { "内容": "株式会社　富士医科精器【福祉用具貸与】長崎県佐世保市保立町１－３２", "url": "https://www.kaigokensaku.mhlw.go.jp/42/index.php?action_kouhyou_detail_004_kani=true&JigyosyoCd=4270200613-00&ServiceCd=170&Type=search", "url2": "http://www.fujiika.jp" }, "geometry": { "type": "Point", "coordinates": [ 129.717054299999972, 33.1853315 ] } },
{ "type": "Feature", "properties": { "内容": "有限会社　トーコー【福祉用具貸与】長崎県佐世保市高梨町１８番２９号", "url": "https://www.kaigokensaku.mhlw.go.jp/42/index.php?action_kouhyou_detail_004_kani=true&JigyosyoCd=4270200456-00&ServiceCd=170&Type=search", "url2": null }, "geometry": { "type": "Point", "coordinates": [ 129.730786500000022, 33.178499 ] } },
{ "type": "Feature", "properties": { "内容": "ベストケア佐世保【福祉用具貸与】卸本町15番2号", "url": "https://www.kaigokensaku.mhlw.go.jp/42/index.php?action_kouhyou_detail_004_kani=true&JigyosyoCd=4270204722-00&ServiceCd=170&Type=search", "url2": "evahlife.jp" }, "geometry": { "type": "Point", "coordinates": [ 129.768989599999941, 33.1518026 ] } },
{ "type": "Feature", "properties": { "内容": "株式会社　テクノ・スズタ　ヘルスケア佐世保営業所【福祉用具貸与】長崎県佐世保市日野町755番地", "url": "https://www.kaigokensaku.mhlw.go.jp/42/index.php?action_kouhyou_detail_004_kani=true&JigyosyoCd=4270204821-00&ServiceCd=170&Type=search", "url2": "www.technosuzuta.co.jp" }, "geometry": { "type": "Point", "coordinates": [ 129.684474799999947, 33.1675859 ] } },
{ "type": "Feature", "properties": { "内容": "株式会社　九州たまがわ　ハートフルケアたまがわ　はいきステーション【福祉用具貸与】長崎県佐世保市権常寺1-4-10メイノスビル2F", "url": "https://www.kaigokensaku.mhlw.go.jp/42/index.php?action_kouhyou_detail_004_kani=true&JigyosyoCd=4270202031-00&ServiceCd=170&Type=search", "url2": "http://www.9tama.co.jp/heart_top.html" }, "geometry": { "type": "Point", "coordinates": [ 129.80045389999998, 33.1323358 ] } },
{ "type": "Feature", "properties": { "内容": "株式会社山口組　施設営業所【福祉用具貸与】長崎県佐世保市棚方町５２番２", "url": "https://www.kaigokensaku.mhlw.go.jp/42/index.php?action_kouhyou_detail_004_kani=true&JigyosyoCd=4270203104-00&ServiceCd=170&Type=search", "url2": "https://www.yamaguchigumi-hd.co.jp/" }, "geometry": { "type": "Point", "coordinates": [ 129.6527065, 33.20239 ] } },
{ "type": "Feature", "properties": { "内容": "株式会社　新和メディカル　佐世保営業所【福祉用具貸与】長崎県佐世保市勝海町278番2", "url": "https://www.kaigokensaku.mhlw.go.jp/42/index.php?action_kouhyou_detail_004_kani=true&JigyosyoCd=4270203922-00&ServiceCd=170&Type=search", "url2": "http://shinwamedical.com/index.html" }, "geometry": { "type": "Point", "coordinates": [ 129.78711629999998, 33.1420262 ] } },
{ "type": "Feature", "properties": { "内容": "株式会社　西九州パリガン【福祉用具貸与】長崎県佐世保市折橋町54-26", "url": "https://www.kaigokensaku.mhlw.go.jp/42/index.php?action_kouhyou_detail_004_kani=true&JigyosyoCd=4270200845-00&ServiceCd=170&Type=search", "url2": null }, "geometry": { "type": "Point", "coordinates": [ 129.722409299999981, 33.1841844 ] } },
{ "type": "Feature", "properties": { "内容": "株式会社　エヴァ　エヴァ佐世保【福祉用具貸与】長崎県佐世保市木原町180-12", "url": "https://www.kaigokensaku.mhlw.go.jp/42/index.php?action_kouhyou_detail_004_kani=true&JigyosyoCd=4270205067-00&ServiceCd=170&Type=search", "url2": "https://evah-care.jp" }, "geometry": { "type": "Point", "coordinates": [ 129.848782, 33.1761306 ] } },
{ "type": "Feature", "properties": { "内容": "株式会社　クローバー佐世保営業所【福祉用具貸与】大和町959", "url": "https://www.kaigokensaku.mhlw.go.jp/42/index.php?action_kouhyou_detail_004_kani=true&JigyosyoCd=4270205059-00&ServiceCd=170&Type=search", "url2": "http://www.clover-w.co.jp/company/" }, "geometry": { "type": "Point", "coordinates": [ 129.746752300000026, 33.1622538 ] } },
{ "type": "Feature", "properties": { "内容": "株式会社　天晴ケア【福祉用具貸与】長崎県佐世保市小佐々町黒石501", "url": "https://www.kaigokensaku.mhlw.go.jp/42/index.php?action_kouhyou_detail_004_kani=true&JigyosyoCd=4270203823-00&ServiceCd=170&Type=search", "url2": null }, "geometry": { "type": "Point", "coordinates": [ 129.627391499999931, 33.2189997 ] } },
{ "type": "Feature", "properties": { "内容": "肴場商事有限会社【福祉用具貸与】長崎県佐世保市針尾北町742番地11", "url": "https://www.kaigokensaku.mhlw.go.jp/42/index.php?action_kouhyou_detail_004_kani=true&JigyosyoCd=4270202148-00&ServiceCd=170&Type=search", "url2": "http://www.sakanaba.com" }, "geometry": { "type": "Point", "coordinates": [ 129.757668099999989, 33.0983681 ] } },
{ "type": "Feature", "properties": { "内容": "有限会社アイフルケア【福祉用具貸与】長崎県世保市稲荷町３１－８", "url": "https://www.kaigokensaku.mhlw.go.jp/42/index.php?action_kouhyou_detail_004_kani=true&JigyosyoCd=4270200852-00&ServiceCd=170&Type=search", "url2": "http://www.aifulcare.net/" }, "geometry": { "type": "Point", "coordinates": [ 129.736700199999973, 33.1614203 ] } },
{ "type": "Feature", "properties": { "内容": "有限会社　ウッドブレス【福祉用具貸与】長崎県佐世保市広田3丁目26番3号", "url": "https://www.kaigokensaku.mhlw.go.jp/42/index.php?action_kouhyou_detail_004_kani=true&JigyosyoCd=4270202213-00&ServiceCd=170&Type=search", "url2": "http://www.woodbreath.jp" }, "geometry": { "type": "Point", "coordinates": [ 129.804472315235898, 33.121887462680739 ] } },
{ "type": "Feature", "properties": { "内容": "指定福祉用具貸与事業所　暖介護【福祉用具貸与】長崎県佐世保市折橋町2-8", "url": "https://www.kaigokensaku.mhlw.go.jp/42/index.php?action_kouhyou_detail_004_kani=true&JigyosyoCd=4270203112-00&ServiceCd=170&Type=search", "url2": null }, "geometry": { "type": "Point", "coordinates": [ 129.72051220000003, 33.186187 ] } },
{ "type": "Feature", "properties": { "内容": "ハートフル長崎　福祉用具事業所【福祉用具貸与】長崎県佐世保市福田町598-1", "url": "https://www.kaigokensaku.mhlw.go.jp/42/index.php?action_kouhyou_detail_004_kani=true&JigyosyoCd=4270204888-00&ServiceCd=170&Type=search", "url2": null }, "geometry": { "type": "Point", "coordinates": [ 129.708965863229423, 33.182500593078984 ] } },
{ "type": "Feature", "properties": { "内容": "ダスキンヘルスレント佐世保ステーション【福祉用具貸与】長崎県佐世保市大和町865-1", "url": "https://www.kaigokensaku.mhlw.go.jp/42/index.php?action_kouhyou_detail_004_kani=true&JigyosyoCd=4270204359-00&ServiceCd=170&Type=search", "url2": "http://healthrent.duskin.jp/station/nagasaki.html" }, "geometry": { "type": "Point", "coordinates": [ 129.74782746134224, 33.160327343429721 ] } },
{ "type": "Feature", "properties": { "内容": "有限会社　片渕電気商会【福祉用具貸与】長崎県佐世保市戸尾町６－２２", "url": "https://www.kaigokensaku.mhlw.go.jp/42/index.php?action_kouhyou_detail_004_kani=true&JigyosyoCd=4270201835-00&ServiceCd=170&Type=search", "url2": "https://www.katafuchidenki.com/" }, "geometry": { "type": "Point", "coordinates": [ 129.725061899999986, 33.1682387 ] } },
{ "type": "Feature", "properties": { "内容": "株式会社　ムラセ【福祉用具貸与】長崎県島原市大下町丙1173番地1", "url": "https://www.kaigokensaku.mhlw.go.jp/42/index.php?action_kouhyou_detail_004_kani=true&JigyosyoCd=4270301031-00&ServiceCd=170&Type=search", "url2": "http://murase-co.jp/" }, "geometry": { "type": "Point", "coordinates": [ 130.361751599999934, 32.7567196 ] } },
{ "type": "Feature", "properties": { "内容": "株式会社　佐原【福祉用具貸与】長崎県島原市北安徳町丁3077-1", "url": "https://www.kaigokensaku.mhlw.go.jp/42/index.php?action_kouhyou_detail_004_kani=true&JigyosyoCd=4270300801-00&ServiceCd=170&Type=search", "url2": "http://www.sahara-k.co.jp/" }, "geometry": { "type": "Point", "coordinates": [ 130.3723483, 32.75232840000001 ] } },
{ "type": "Feature", "properties": { "内容": "ミタカトライブ株式会社　島原営業所【福祉用具貸与】長崎県島原市秩父が浦町丁3543-16", "url": "https://www.kaigokensaku.mhlw.go.jp/42/index.php?action_kouhyou_detail_004_kani=true&JigyosyoCd=4270301411-00&ServiceCd=170&Type=search", "url2": "https://t-mitaka.com/" }, "geometry": { "type": "Point", "coordinates": [ 130.369992700000012, 32.7601751 ] } },
{ "type": "Feature", "properties": { "内容": "ラフ・メイカー【福祉用具貸与】長崎県諫早市土師野尾町1692番地", "url": "https://www.kaigokensaku.mhlw.go.jp/42/index.php?action_kouhyou_detail_004_kani=true&JigyosyoCd=4270403688-00&ServiceCd=170&Type=search", "url2": null }, "geometry": { "type": "Point", "coordinates": [ 130.030281, 32.8082128 ] } },
{ "type": "Feature", "properties": { "内容": "エスティ・ケアサ－ビス【福祉用具貸与】長崎県諌早市下大渡野町3-1", "url": "https://www.kaigokensaku.mhlw.go.jp/42/index.php?action_kouhyou_detail_004_kani=true&JigyosyoCd=4270400551-00&ServiceCd=170&Type=search", "url2": null }, "geometry": { "type": "Point", "coordinates": [ 130.028518, 32.8710966 ] } },
{ "type": "Feature", "properties": { "内容": "株式会社　グット・リンク　グット・リンク諫早【福祉用具貸与】長崎県諫早市栄田町14番13号", "url": "https://www.kaigokensaku.mhlw.go.jp/42/index.php?action_kouhyou_detail_004_kani=true&JigyosyoCd=4270402722-00&ServiceCd=170&Type=search", "url2": "http://good-link.jp/" }, "geometry": { "type": "Point", "coordinates": [ 130.0292958, 32.8700717 ] } },
{ "type": "Feature", "properties": { "内容": "株式会社　テクノ・スズタ　ヘルスケア事業部【福祉用具貸与】長崎県諫早市津久葉町62番22", "url": "https://www.kaigokensaku.mhlw.go.jp/42/index.php?action_kouhyou_detail_004_kani=true&JigyosyoCd=4270403472-00&ServiceCd=170&Type=search", "url2": "http://www.technosuzuta.co.jp/" }, "geometry": { "type": "Point", "coordinates": [ 130.0049103, 32.8227696 ] } },
{ "type": "Feature", "properties": { "内容": "株式会社　ニッショウ　諫早営業所【福祉用具貸与】長崎県諫早市宗方町345-7", "url": "https://www.kaigokensaku.mhlw.go.jp/42/index.php?action_kouhyou_detail_004_kani=true&JigyosyoCd=4270401526-00&ServiceCd=170&Type=search", "url2": "http://nissho-inc.co.jp" }, "geometry": { "type": "Point", "coordinates": [ 130.084625277909851, 32.832733670043005 ] } },
{ "type": "Feature", "properties": { "内容": "ホープ【福祉用具貸与】長崎県諫早市真崎町1386番地1", "url": "https://www.kaigokensaku.mhlw.go.jp/42/index.php?action_kouhyou_detail_004_kani=true&JigyosyoCd=4270403308-00&ServiceCd=170&Type=search", "url2": null }, "geometry": { "type": "Point", "coordinates": [ 130.017802599999982, 32.848695100000022 ] } },
{ "type": "Feature", "properties": { "内容": "株式会社　新和メディカル　諫早営業所【福祉用具貸与】長崎県諫早市小川町792-3", "url": "https://www.kaigokensaku.mhlw.go.jp/42/index.php?action_kouhyou_detail_004_kani=true&JigyosyoCd=4270403035-00&ServiceCd=170&Type=search", "url2": "http:www.shinwamedical.com/index.html" }, "geometry": { "type": "Point", "coordinates": [ 130.060055364726651, 32.826430101480923 ] } },
{ "type": "Feature", "properties": { "内容": "株式会社スズキ自販長崎　諫早店　福祉車輛課【福祉用具貸与】長崎県諫早市小船越町554-1", "url": "https://www.kaigokensaku.mhlw.go.jp/42/index.php?action_kouhyou_detail_004_kani=true&JigyosyoCd=4270400783-00&ServiceCd=170&Type=search", "url2": null }, "geometry": { "type": "Point", "coordinates": [ 130.023846899999967, 32.8390291 ] } },
{ "type": "Feature", "properties": { "内容": "山善福祉用具貸与事業部【福祉用具貸与】長崎県諫早市小長井町小川原浦1215-1シルバーハウス小長井", "url": "https://www.kaigokensaku.mhlw.go.jp/42/index.php?action_kouhyou_detail_004_kani=true&JigyosyoCd=4270403266-00&ServiceCd=170&Type=search", "url2": null }, "geometry": { "type": "Point", "coordinates": [ 130.182152871827725, 32.921688995112994 ] } },
{ "type": "Feature", "properties": { "内容": "合同会社優芯【福祉用具貸与】長崎県諫早市天満町４９番１３号", "url": "https://www.kaigokensaku.mhlw.go.jp/42/index.php?action_kouhyou_detail_004_kani=true&JigyosyoCd=4270403878-00&ServiceCd=170&Type=search", "url2": null }, "geometry": { "type": "Point", "coordinates": [ 130.046393599999988, 32.8557671 ] } },
{ "type": "Feature", "properties": { "内容": "株式会社　新生ケア【福祉用具貸与】長崎県大村市平町1204-3平町C棟", "url": "https://www.kaigokensaku.mhlw.go.jp/42/index.php?action_kouhyou_detail_004_kani=true&JigyosyoCd=4270501630-00&ServiceCd=170&Type=search", "url2": null }, "geometry": { "type": "Point", "coordinates": [ 130.006398799999943, 32.9028432 ] } },
{ "type": "Feature", "properties": { "内容": "株式会社新和メディカル大村営業所【福祉用具貸与】長崎県大村市東三城町7-19-1F", "url": "https://www.kaigokensaku.mhlw.go.jp/42/index.php?action_kouhyou_detail_004_kani=true&JigyosyoCd=4270502034-00&ServiceCd=170&Type=search", "url2": "http://shinwamedical.com" }, "geometry": { "type": "Point", "coordinates": [ 129.961039300000039, 32.9113031 ] } },
{ "type": "Feature", "properties": { "内容": "株式会社　エヴァ・ライフ　ベストケア大村営業所【福祉用具貸与】西大村本町689-4", "url": "https://www.kaigokensaku.mhlw.go.jp/42/index.php?action_kouhyou_detail_004_kani=true&JigyosyoCd=4270501887-00&ServiceCd=170&Type=search", "url2": "http://evahlife.jp/" }, "geometry": { "type": "Point", "coordinates": [ 129.952674399999978, 32.9302068 ] } },
{ "type": "Feature", "properties": { "内容": "松尾医療器株式会社【福祉用具貸与】長崎県大村市上諏訪町900-1", "url": "https://www.kaigokensaku.mhlw.go.jp/42/index.php?action_kouhyou_detail_004_kani=true&JigyosyoCd=4270500103-00&ServiceCd=170&Type=search", "url2": "http://www.careliving-matsuo.jp/" }, "geometry": { "type": "Point", "coordinates": [ 129.964768, 32.9236854 ] } },
{ "type": "Feature", "properties": { "内容": "太陽シルバーサービス株式会社　大村営業所【福祉用具貸与】長崎県大村市溝陸町643-1", "url": "https://www.kaigokensaku.mhlw.go.jp/42/index.php?action_kouhyou_detail_004_kani=true&JigyosyoCd=4270501200-00&ServiceCd=170&Type=search", "url2": "http://www.taiyoss.co.jp/" }, "geometry": { "type": "Point", "coordinates": [ 130.006595299999958, 32.8503004 ] } },
{ "type": "Feature", "properties": { "内容": "株式会社　対馬ライフネット【福祉用具貸与】長崎県対馬市厳原町久田道1632-3", "url": "https://www.kaigokensaku.mhlw.go.jp/42/index.php?action_kouhyou_detail_004_kani=true&JigyosyoCd=4272000425-00&ServiceCd=170&Type=search", "url2": null }, "geometry": { "type": "Point", "coordinates": [ 129.2865544, 34.194285300000026 ] } },
{ "type": "Feature", "properties": { "内容": "アクトライフケア【福祉用具貸与】長崎県対馬市上対馬町比田勝６３３番地　６３４番地", "url": "https://www.kaigokensaku.mhlw.go.jp/42/index.php?action_kouhyou_detail_004_kani=true&JigyosyoCd=4271900229-00&ServiceCd=170&Type=search", "url2": null }, "geometry": { "type": "Point", "coordinates": [ 129.459021500000063, 34.6551076 ] } },
{ "type": "Feature", "properties": { "内容": "有限会社　山本商事【福祉用具貸与】長崎県対馬市厳原町国分1347番地", "url": "https://www.kaigokensaku.mhlw.go.jp/42/index.php?action_kouhyou_detail_004_kani=true&JigyosyoCd=4271800221-00&ServiceCd=170&Type=search", "url2": null }, "geometry": { "type": "Point", "coordinates": [ 129.289418, 34.2022596 ] } },
{ "type": "Feature", "properties": { "内容": "壱岐市社協福祉用具貸与事業所【福祉用具貸与】長崎県壱岐市芦辺町箱崎中山触２５４８番地", "url": "https://www.kaigokensaku.mhlw.go.jp/42/index.php?action_kouhyou_detail_004_kani=true&JigyosyoCd=4272100126-00&ServiceCd=170&Type=search", "url2": "https://ikicity-csw.jp/" }, "geometry": { "type": "Point", "coordinates": [ 129.747211600000014, 33.8096575 ] } },
{ "type": "Feature", "properties": { "内容": "有限会社　横山建材店【福祉用具貸与】長崎県壱岐市石田町印通寺浦295番地", "url": "https://www.kaigokensaku.mhlw.go.jp/42/index.php?action_kouhyou_detail_004_kani=true&JigyosyoCd=4271700165-00&ServiceCd=170&Type=search", "url2": null }, "geometry": { "type": "Point", "coordinates": [ 129.754861099999971, 33.7444112 ] } },
{ "type": "Feature", "properties": { "内容": "太陽シルバーサービス株式会社　壱岐営業所【福祉用具貸与】長崎県壱岐市郷ノ浦町田中触１０７８", "url": "https://www.kaigokensaku.mhlw.go.jp/42/index.php?action_kouhyou_detail_004_kani=true&JigyosyoCd=4272100324-00&ServiceCd=170&Type=search", "url2": "http://www.taiyoss.co.jp/" }, "geometry": { "type": "Point", "coordinates": [ 129.69659230000002, 33.76049890000003 ] } },
{ "type": "Feature", "properties": { "内容": "株式会社アステム五島出張所【福祉用具貸与】長崎県五島市三尾野3丁目6-7アクティヴビル1階", "url": "https://www.kaigokensaku.mhlw.go.jp/42/index.php?action_kouhyou_detail_004_kani=true&JigyosyoCd=4272200876-00&ServiceCd=170&Type=search", "url2": "http://www.astemf.jp/" }, "geometry": { "type": "Point", "coordinates": [ 128.836498900000038, 32.6909743 ] } },
{ "type": "Feature", "properties": { "内容": "株式会社　イシマル五島【福祉用具貸与】上大津町1131-1", "url": "https://www.kaigokensaku.mhlw.go.jp/42/index.php?action_kouhyou_detail_004_kani=true&JigyosyoCd=4272200942-00&ServiceCd=170&Type=search", "url2": "https://www.ishimarugoto.co.jp" }, "geometry": { "type": "Point", "coordinates": [ 128.8451952, 32.6821634 ] } },
{ "type": "Feature", "properties": { "内容": "株式会社クローバー　五島営業所【福祉用具貸与】長崎県五島市三尾野2-7-12", "url": "https://www.kaigokensaku.mhlw.go.jp/42/index.php?action_kouhyou_detail_004_kani=true&JigyosyoCd=4272200231-00&ServiceCd=170&Type=search", "url2": "http://www.clover-w.co.jp/" }, "geometry": { "type": "Point", "coordinates": [ 128.839287600000034, 32.6908882 ] } },
{ "type": "Feature", "properties": { "内容": "ライフプラスさいかい【福祉用具貸与】長崎県西海市大瀬戸町瀬戸西濱郷1140-1", "url": "https://www.kaigokensaku.mhlw.go.jp/42/index.php?action_kouhyou_detail_004_kani=true&JigyosyoCd=4272300387-00&ServiceCd=170&Type=search", "url2": "lifeplu.saikai@gmail.com" }, "geometry": { "type": "Point", "coordinates": [ 129.6561312, 32.9416266 ] } },
{ "type": "Feature", "properties": { "内容": "有限会社ミカサヤ【福祉用具貸与】長崎県南島原市口之津町丙2083番地1", "url": "https://www.kaigokensaku.mhlw.go.jp/42/index.php?action_kouhyou_detail_004_kani=true&JigyosyoCd=4271401525-00&ServiceCd=170&Type=search", "url2": null }, "geometry": { "type": "Point", "coordinates": [ 130.187293599999947, 32.6120319 ] } },
{ "type": "Feature", "properties": { "内容": "ライフケアエゴシ【福祉用具貸与】長崎県南島原市有家町久保41-10", "url": "https://www.kaigokensaku.mhlw.go.jp/42/index.php?action_kouhyou_detail_004_kani=true&JigyosyoCd=4272500564-00&ServiceCd=170&Type=search", "url2": null }, "geometry": { "type": "Point", "coordinates": [ 130.302732600000013, 32.6673155 ] } },
{ "type": "Feature", "properties": { "内容": "有限会社　善徳丸商店【福祉用具貸与】長崎県南島原市西有家町須川1230番地1", "url": "https://www.kaigokensaku.mhlw.go.jp/42/index.php?action_kouhyou_detail_004_kani=true&JigyosyoCd=4272500408-00&ServiceCd=170&Type=search", "url2": null }, "geometry": { "type": "Point", "coordinates": [ 130.2824015, 32.6533437 ] } },
{ "type": "Feature", "properties": { "内容": "株式会社ながいけ【福祉用具貸与】長崎県南島原市深江町丁２３８２番地１", "url": "https://www.kaigokensaku.mhlw.go.jp/42/index.php?action_kouhyou_detail_004_kani=true&JigyosyoCd=4272500580-00&ServiceCd=170&Type=search", "url2": "https://www.facebook.com/plazanagaike?locale=ja_JP" }, "geometry": { "type": "Point", "coordinates": [ 130.3512813509262, 32.717637359895839 ] } },
{ "type": "Feature", "properties": { "内容": "株式会社新和メディカル長崎営業所【福祉用具貸与】長崎県西彼杵郡長与町岡郷551-5", "url": "https://www.kaigokensaku.mhlw.go.jp/42/index.php?action_kouhyou_detail_004_kani=true&JigyosyoCd=4271103394-00&ServiceCd=170&Type=search", "url2": "http://shinwamedical.com/" }, "geometry": { "type": "Point", "coordinates": [ 129.870227603041087, 32.843621093828411 ] } },
{ "type": "Feature", "properties": { "内容": "有限会社　翠苑【福祉用具貸与】長崎県西彼杵郡長与町岡郷1422-2", "url": "https://www.kaigokensaku.mhlw.go.jp/42/index.php?action_kouhyou_detail_004_kani=true&JigyosyoCd=4271102735-00&ServiceCd=170&Type=search", "url2": "http://www.midorino-oka.com/" }, "geometry": { "type": "Point", "coordinates": [ 129.874172499999986, 32.8480731 ] } },
{ "type": "Feature", "properties": { "内容": "ベストケア時津【福祉用具貸与】長崎県西彼杵郡時津町久留里郷419-2", "url": "https://www.kaigokensaku.mhlw.go.jp/42/index.php?action_kouhyou_detail_004_kani=true&JigyosyoCd=4271103246-00&ServiceCd=170&Type=search", "url2": "http://evahlife.jp/" }, "geometry": { "type": "Point", "coordinates": [ 129.8375416, 32.8382678 ] } },
{ "type": "Feature", "properties": { "内容": "有限会社　ヤマナミ商会【福祉用具貸与】長崎県西彼杵郡時津町浜田郷572-28", "url": "https://www.kaigokensaku.mhlw.go.jp/42/index.php?action_kouhyou_detail_004_kani=true&JigyosyoCd=4271102701-00&ServiceCd=170&Type=search", "url2": null }, "geometry": { "type": "Point", "coordinates": [ 129.859015499999941, 32.8334405 ] } },
{ "type": "Feature", "properties": { "内容": "かぶしきかいしゃふぁーすとけあ　さざしてん【福祉用具貸与】長崎県北松浦郡佐々町小浦免4-46", "url": "https://www.kaigokensaku.mhlw.go.jp/42/index.php?action_kouhyou_detail_004_kani=true&JigyosyoCd=4271501530-00&ServiceCd=170&Type=search", "url2": "https://www.firstcare0120.com/" }, "geometry": { "type": "Point", "coordinates": [ 129.642400900000013, 33.2220993 ] } },
{ "type": "Feature", "properties": { "内容": "（株）マツダデコン　福祉用具貸与販売事業所　そえる【福祉用具貸与】長崎県北松浦郡佐々町羽須和免５５７", "url": "https://www.kaigokensaku.mhlw.go.jp/42/index.php?action_kouhyou_detail_004_kani=true&JigyosyoCd=4271501522-00&ServiceCd=170&Type=search", "url2": null }, "geometry": { "type": "Point", "coordinates": [ 129.652400966270477, 33.236019428772899 ] } },
{ "type": "Feature", "properties": { "内容": "株式会社　上五島アンプク【福祉用具貸与】長崎県南松浦郡新上五島町浦桑郷1284番地", "url": "https://www.kaigokensaku.mhlw.go.jp/42/index.php?action_kouhyou_detail_004_kani=true&JigyosyoCd=4271600274-00&ServiceCd=170&Type=search", "url2": null }, "geometry": { "type": "Point", "coordinates": [ 129.087212099999988, 32.9858005 ] } },
{ "type": "Feature", "properties": { "内容": "福祉用具貸与事業所　すまいるはぁと【福祉用具貸与】長崎県南松浦郡新上五島町奈摩郷379番地5", "url": "https://www.kaigokensaku.mhlw.go.jp/42/index.php?action_kouhyou_detail_004_kani=true&JigyosyoCd=4271601389-00&ServiceCd=170&Type=search", "url2": "http：//www.shinkamigoto.net/" }, "geometry": { "type": "Point", "coordinates": [ 129.067123048101848, 33.017869690343211 ] } },
{ "type": "Feature", "properties": { "内容": "新上五島町社会福祉協議会　福祉用具貸与事業所【福祉用具貸与】長崎県南松浦郡新上五島町青方郷1379番地1", "url": "https://www.kaigokensaku.mhlw.go.jp/42/index.php?action_kouhyou_detail_004_kani=true&JigyosyoCd=4271601058-00&ServiceCd=170&Type=search", "url2": null }, "geometry": { "type": "Point", "coordinates": [ 129.068554899999981, 32.9850695 ] } }
]
}
