{
"type": "FeatureCollection",
"name": "geo_42_定期巡回・随時対応型訪問介護看護",
"crs": { "type": "name", "properties": { "name": "urn:ogc:def:crs:OGC:1.3:CRS84" } },
"features": [
{ "type": "Feature", "properties": { "内容": "定期巡回・随時対応型訪問介護看護いこい【定期巡回・随時対応型訪問介護看護】長崎県長崎市高尾町46番33号", "url": "https://www.kaigokensaku.mhlw.go.jp/42/index.php?action_kouhyou_detail_004_kani=true&JigyosyoCd=4290101122-00&ServiceCd=760&Type=search", "url2": "http://yuujyu-m.jp/" }, "geometry": { "type": "Point", "coordinates": [ 129.8766607, 32.780399300000042 ] } },
{ "type": "Feature", "properties": { "内容": "24時間安心ｾﾝﾀｰ　ﾗｲﾌｹｱ【定期巡回・随時対応型訪問介護看護】長崎県長崎市松ヶ枝町3番20号南長崎クリニック", "url": "https://www.kaigokensaku.mhlw.go.jp/42/index.php?action_kouhyou_detail_004_kani=true&JigyosyoCd=4290101007-00&ServiceCd=760&Type=search", "url2": "www.syunnjyu-kai.or.jp" }, "geometry": { "type": "Point", "coordinates": [ 129.871448908598268, 32.73490565095004 ] } },
{ "type": "Feature", "properties": { "内容": "２４時間巡回型ケアステーションロジ【定期巡回・随時対応型訪問介護看護】長崎県長崎市赤迫2丁目４番１０号", "url": "https://www.kaigokensaku.mhlw.go.jp/42/index.php?action_kouhyou_detail_004_kani=true&JigyosyoCd=4290100835-00&ServiceCd=760&Type=search", "url2": "http://logi-support.co.jp/" }, "geometry": { "type": "Point", "coordinates": [ 129.855330800000047, 32.7982659 ] } },
{ "type": "Feature", "properties": { "内容": "定期巡回・随時対応型訪問介護看護事業所うぇるずらいふ大手【定期巡回・随時対応型訪問介護看護】長崎県長崎市大手１丁目２９番６号ウェルズライフ大手", "url": "https://www.kaigokensaku.mhlw.go.jp/42/index.php?action_kouhyou_detail_004_kani=true&JigyosyoCd=4290100876-00&ServiceCd=760&Type=search", "url2": "https://wellslife.jp/" }, "geometry": { "type": "Point", "coordinates": [ 129.876242579970523, 32.789961680055512 ] } },
{ "type": "Feature", "properties": { "内容": "24時間在宅ケアセンター　琴の浦荘【定期巡回・随時対応型訪問介護看護】長崎県長崎市琴海戸根町743番地47", "url": "https://www.kaigokensaku.mhlw.go.jp/42/index.php?action_kouhyou_detail_004_kani=true&JigyosyoCd=4290101015-00&ServiceCd=760&Type=search", "url2": "http://www.gounkai.or.jp/" }, "geometry": { "type": "Point", "coordinates": [ 129.791924399999971, 32.8875374 ] } },
{ "type": "Feature", "properties": { "内容": "喜楽苑　桃花【定期巡回・随時対応型訪問介護看護】長崎県長崎市末石町154番地1", "url": "https://www.kaigokensaku.mhlw.go.jp/42/index.php?action_kouhyou_detail_004_kani=true&JigyosyoCd=4290101049-00&ServiceCd=760&Type=search", "url2": "http:/www.kirakuen-nagasaki.jp/" }, "geometry": { "type": "Point", "coordinates": [ 129.841429679189474, 32.67974616229835 ] } },
{ "type": "Feature", "properties": { "内容": "定期巡回・随時対応型訪問介護看護事業所サンハイツ【定期巡回・随時対応型訪問介護看護】長崎県長崎市油木町６５番地１４", "url": "https://www.kaigokensaku.mhlw.go.jp/42/index.php?action_kouhyou_detail_004_kani=true&JigyosyoCd=4290100850-00&ServiceCd=760&Type=search", "url2": "http://www.sanhaitsu.jp/" }, "geometry": { "type": "Point", "coordinates": [ 129.844110300000011, 32.7803067 ] } },
{ "type": "Feature", "properties": { "内容": "定期巡回・随時対応型訪問介護看護　プライエム横尾【定期巡回・随時対応型訪問介護看護】長崎県長崎市横尾3丁目26番2号介護老人保健施設ナーシングケア横尾1階", "url": "https://www.kaigokensaku.mhlw.go.jp/42/index.php?action_kouhyou_detail_004_kani=true&JigyosyoCd=4290100967-00&ServiceCd=760&Type=search", "url2": "http://www.heisei-kai.or.jp/" }, "geometry": { "type": "Point", "coordinates": [ 129.839364695322502, 32.816952351114743 ] } },
{ "type": "Feature", "properties": { "内容": "定期巡回・随時対応型訪問介護看護センター　かもめ【定期巡回・随時対応型訪問介護看護】長崎県長崎市大浜町846－22", "url": "https://www.kaigokensaku.mhlw.go.jp/42/index.php?action_kouhyou_detail_004_kani=true&JigyosyoCd=4290101130-00&ServiceCd=760&Type=search", "url2": "http://oohama50.sakura.ne.jp" }, "geometry": { "type": "Point", "coordinates": [ 129.832050289410432, 32.745501928822165 ] } },
{ "type": "Feature", "properties": { "内容": "定期巡回・随時対応型訪問介護看護事業所　日見やすらぎ荘【定期巡回・随時対応型訪問介護看護】長崎県長崎市宿町６１６番地養護老人ホーム・日見やすらぎ荘", "url": "https://www.kaigokensaku.mhlw.go.jp/42/index.php?action_kouhyou_detail_004_kani=true&JigyosyoCd=4290100959-00&ServiceCd=760&Type=search", "url2": "http://www.heisei-kai.or.jp/" }, "geometry": { "type": "Point", "coordinates": [ 129.937025899999981, 32.7601939 ] } },
{ "type": "Feature", "properties": { "内容": "巡回ステーションのなか【定期巡回・随時対応型訪問介護看護】野中町171-1サービス付高齢者向け住宅のなか", "url": "https://www.kaigokensaku.mhlw.go.jp/42/index.php?action_kouhyou_detail_004_kani=true&JigyosyoCd=4290201344-00&ServiceCd=760&Type=search", "url2": "https://yen-nonaka.co.jp/" }, "geometry": { "type": "Point", "coordinates": [ 129.707119199999966, 33.2148241 ] } },
{ "type": "Feature", "properties": { "内容": "定期巡回サービス　さくらプレイス広田【定期巡回・随時対応型訪問介護看護】長崎県佐世保市広田４丁目３番２号", "url": "https://www.kaigokensaku.mhlw.go.jp/42/index.php?action_kouhyou_detail_004_kani=true&JigyosyoCd=4290201401-00&ServiceCd=760&Type=search", "url2": null }, "geometry": { "type": "Point", "coordinates": [ 129.794696299999941, 33.1247863 ] } },
{ "type": "Feature", "properties": { "内容": "白十字会24時間対応ヘルパーステーション【定期巡回・随時対応型訪問介護看護】長崎県佐世保市日宇町2835番地介護老人保健施設長寿苑　３階", "url": "https://www.kaigokensaku.mhlw.go.jp/42/index.php?action_kouhyou_detail_004_kani=true&JigyosyoCd=4290201096-00&ServiceCd=760&Type=search", "url2": null }, "geometry": { "type": "Point", "coordinates": [ 129.7668258, 33.1554688 ] } },
{ "type": "Feature", "properties": { "内容": "定期巡回・随時対応型訪問介護看護事業所【定期巡回・随時対応型訪問介護看護】長崎県佐世保市鹿子前町904-1", "url": "https://www.kaigokensaku.mhlw.go.jp/42/index.php?action_kouhyou_detail_004_kani=true&JigyosyoCd=4290201351-00&ServiceCd=760&Type=search", "url2": "www.hakuzyusou.or.jp" }, "geometry": { "type": "Point", "coordinates": [ 129.6853946, 33.1617961 ] } },
{ "type": "Feature", "properties": { "内容": "定期巡回随時対応サービス　やまずみ荘【定期巡回・随時対応型訪問介護看護】長崎県佐世保市山祇町390番地", "url": "https://www.kaigokensaku.mhlw.go.jp/42/index.php?action_kouhyou_detail_004_kani=true&JigyosyoCd=4290201088-00&ServiceCd=760&Type=search", "url2": "htt㎰://www.yamazumiso.or.jp" }, "geometry": { "type": "Point", "coordinates": [ 129.733220345191967, 33.168974524673928 ] } },
{ "type": "Feature", "properties": { "内容": "24時間在宅ケア　サクラ【定期巡回・随時対応型訪問介護看護】長崎県佐世保市花園町２０１番地", "url": "https://www.kaigokensaku.mhlw.go.jp/42/index.php?action_kouhyou_detail_004_kani=true&JigyosyoCd=4290200999-00&ServiceCd=760&Type=search", "url2": null }, "geometry": { "type": "Point", "coordinates": [ 129.7224731, 33.1811263 ] } },
{ "type": "Feature", "properties": { "内容": "長崎友愛会「24時間対応」訪問看介護ステーション【定期巡回・随時対応型訪問介護看護】長崎県佐世保市長坂町681-24", "url": "https://www.kaigokensaku.mhlw.go.jp/42/index.php?action_kouhyou_detail_004_kani=true&JigyosyoCd=4290201161-00&ServiceCd=760&Type=search", "url2": null }, "geometry": { "type": "Point", "coordinates": [ 129.689242671528888, 33.166154827236475 ] } },
{ "type": "Feature", "properties": { "内容": "西友会24時間地域ケアセンターあいのうら【定期巡回・随時対応型訪問介護看護】長崎県佐世保市相浦町606番地1", "url": "https://www.kaigokensaku.mhlw.go.jp/42/index.php?action_kouhyou_detail_004_kani=true&JigyosyoCd=4290201617-00&ServiceCd=760&Type=search", "url2": "https://syk.or.jp" }, "geometry": { "type": "Point", "coordinates": [ 129.6634104, 33.1940251 ] } },
{ "type": "Feature", "properties": { "内容": "定期巡回・随時対応型訪問介護看護　笑くる【定期巡回・随時対応型訪問介護看護】長崎県佐世保市吉井町田原70-1", "url": "https://www.kaigokensaku.mhlw.go.jp/42/index.php?action_kouhyou_detail_004_kani=true&JigyosyoCd=4290201468-00&ServiceCd=760&Type=search", "url2": null }, "geometry": { "type": "Point", "coordinates": [ 129.7072729, 33.2540996 ] } },
{ "type": "Feature", "properties": { "内容": "巡回型訪問介護　リハサポート【定期巡回・随時対応型訪問介護看護】長崎県島原市加美町999番地リハサポート3", "url": "https://www.kaigokensaku.mhlw.go.jp/42/index.php?action_kouhyou_detail_004_kani=true&JigyosyoCd=4290300963-00&ServiceCd=760&Type=search", "url2": null }, "geometry": { "type": "Point", "coordinates": [ 130.368194499999959, 32.7848946 ] } },
{ "type": "Feature", "properties": { "内容": "七久会訪問看護介護センター【定期巡回・随時対応型訪問介護看護】長崎県諫早市小長井町小川原浦656医療法人七久会　山﨑病院", "url": "https://www.kaigokensaku.mhlw.go.jp/42/index.php?action_kouhyou_detail_004_kani=true&JigyosyoCd=4290400243-00&ServiceCd=760&Type=search", "url2": null }, "geometry": { "type": "Point", "coordinates": [ 130.188181200000031, 32.9269338 ] } },
{ "type": "Feature", "properties": { "内容": "24時間訪問看介護ステーション　きらら【定期巡回・随時対応型訪問介護看護】栄田町25-24", "url": "https://www.kaigokensaku.mhlw.go.jp/42/index.php?action_kouhyou_detail_004_kani=true&JigyosyoCd=4290400532-00&ServiceCd=760&Type=search", "url2": null }, "geometry": { "type": "Point", "coordinates": [ 130.0375521, 32.8602641 ] } },
{ "type": "Feature", "properties": { "内容": "長崎県諫早市天満町16番33号【定期巡回・随時対応型訪問介護看護】長崎県諫早市天満町16番33号", "url": "https://www.kaigokensaku.mhlw.go.jp/42/index.php?action_kouhyou_detail_004_kani=true&JigyosyoCd=4290400607-00&ServiceCd=760&Type=search", "url2": null }, "geometry": { "type": "Point", "coordinates": [ 130.0470829, 32.8480132 ] } },
{ "type": "Feature", "properties": { "内容": "ヘルパーステーション秋櫻【定期巡回・随時対応型訪問介護看護】長崎県大村市諏訪2丁目576-4", "url": "https://www.kaigokensaku.mhlw.go.jp/42/index.php?action_kouhyou_detail_004_kani=true&JigyosyoCd=4290500166-00&ServiceCd=760&Type=search", "url2": "http://www.midori-group.com/" }, "geometry": { "type": "Point", "coordinates": [ 129.952627200000052, 32.9296541 ] } },
{ "type": "Feature", "properties": { "内容": "定期巡回サービスはーとらいん【定期巡回・随時対応型訪問介護看護】長崎県大村市原口町579-10", "url": "https://www.kaigokensaku.mhlw.go.jp/42/index.php?action_kouhyou_detail_004_kani=true&JigyosyoCd=4290500331-00&ServiceCd=760&Type=search", "url2": "https://heartline-omura.com/" }, "geometry": { "type": "Point", "coordinates": [ 129.942505200000028, 32.9359468 ] } },
{ "type": "Feature", "properties": { "内容": "社会医療法人　玄州会　ホームヘルパーステーションリバティ【定期巡回・随時対応型訪問介護看護】長崎県壱岐市郷ノ浦町永田触字八枝275番地2", "url": "https://www.kaigokensaku.mhlw.go.jp/42/index.php?action_kouhyou_detail_004_kani=true&JigyosyoCd=4292100023-00&ServiceCd=760&Type=search", "url2": "http://www.gensyukai.or.jp/" }, "geometry": { "type": "Point", "coordinates": [ 129.699420951203933, 33.751728691505789 ] } },
{ "type": "Feature", "properties": { "内容": "定期巡回・随時対応型訪問介護看護事業所あいばな【定期巡回・随時対応型訪問介護看護】長崎県五島市岐宿町松山1571番地2", "url": "https://www.kaigokensaku.mhlw.go.jp/42/index.php?action_kouhyou_detail_004_kani=true&JigyosyoCd=4292200187-00&ServiceCd=760&Type=search", "url2": null }, "geometry": { "type": "Point", "coordinates": [ 128.734222834775153, 32.707046474591046 ] } },
{ "type": "Feature", "properties": { "内容": "定期巡回・随時対応型訪問介護看護　きらり【定期巡回・随時対応型訪問介護看護】長崎県西彼杵郡長与町高田郷2118-1", "url": "https://www.kaigokensaku.mhlw.go.jp/42/index.php?action_kouhyou_detail_004_kani=true&JigyosyoCd=4291100123-00&ServiceCd=760&Type=search", "url2": null }, "geometry": { "type": "Point", "coordinates": [ 129.8571411, 32.8062544 ] } },
{ "type": "Feature", "properties": { "内容": "「24時間対応」訪問看介護ステーションさざ【定期巡回・随時対応型訪問介護看護】長崎県北松浦郡佐々町羽須和免732-1ゆうあいホームはなぶさ", "url": "https://www.kaigokensaku.mhlw.go.jp/42/index.php?action_kouhyou_detail_004_kani=true&JigyosyoCd=4291500082-00&ServiceCd=760&Type=search", "url2": null }, "geometry": { "type": "Point", "coordinates": [ 129.651004882803363, 33.235787296247274 ] } }
]
}
