{
"type": "FeatureCollection",
"name": "geo_42_地域密着型介護老人福祉施設入所者生活介護",
"crs": { "type": "name", "properties": { "name": "urn:ogc:def:crs:OGC:1.3:CRS84" } },
"features": [
{ "type": "Feature", "properties": { "内容": "特別養護老人ホーム　寿限無【地域密着型介護老人福祉施設入所者生活介護】長崎県長崎市琴海村松町704番地3", "url": "https://www.kaigokensaku.mhlw.go.jp/42/index.php?action_kouhyou_detail_004_kani=true&JigyosyoCd=4290100520-00&ServiceCd=540&Type=search", "url2": "https://www.seihikai.jp/" }, "geometry": { "type": "Point", "coordinates": [ 129.786986835581928, 32.863756706492957 ] } },
{ "type": "Feature", "properties": { "内容": "特別養護老人ホーム　よつば【地域密着型介護老人福祉施設入所者生活介護】長崎市滑石5丁目9番38号", "url": "https://www.kaigokensaku.mhlw.go.jp/42/index.php?action_kouhyou_detail_004_kani=true&JigyosyoCd=4290102047-00&ServiceCd=540&Type=search", "url2": "https://www.fujimoto-group.jp/" }, "geometry": { "type": "Point", "coordinates": [ 129.8333136, 32.8041739 ] } },
{ "type": "Feature", "properties": { "内容": "モン・サン・ノールながさき【地域密着型介護老人福祉施設入所者生活介護】長崎県長崎市豊洋台１丁目３番１１号", "url": "https://www.kaigokensaku.mhlw.go.jp/42/index.php?action_kouhyou_detail_004_kani=true&JigyosyoCd=4290100595-00&ServiceCd=540&Type=search", "url2": "http://www.keiseikai.biz" }, "geometry": { "type": "Point", "coordinates": [ 129.788999416671686, 32.831703282324163 ] } },
{ "type": "Feature", "properties": { "内容": "地域密着型介護老人福祉施設・山の木【地域密着型介護老人福祉施設入所者生活介護】長崎県長崎市横尾５丁目９番１８号", "url": "https://www.kaigokensaku.mhlw.go.jp/42/index.php?action_kouhyou_detail_004_kani=true&JigyosyoCd=4290100686-00&ServiceCd=540&Type=search", "url2": "http://www.keiaikai-nagasaki.or.jp/" }, "geometry": { "type": "Point", "coordinates": [ 129.826693, 32.8146504 ] } },
{ "type": "Feature", "properties": { "内容": "特別養護老人ホーム　琴の浦荘【地域密着型介護老人福祉施設入所者生活介護】長崎県長崎市琴海戸根町743番地47", "url": "https://www.kaigokensaku.mhlw.go.jp/42/index.php?action_kouhyou_detail_004_kani=true&JigyosyoCd=4290102013-00&ServiceCd=540&Type=search", "url2": "http://www.gounkai.or.jp" }, "geometry": { "type": "Point", "coordinates": [ 129.7917342, 32.8876398 ] } },
{ "type": "Feature", "properties": { "内容": "地域密着型特別養護老人ホーム緑風【地域密着型介護老人福祉施設入所者生活介護】長崎県長崎市風頭町1番27号", "url": "https://www.kaigokensaku.mhlw.go.jp/42/index.php?action_kouhyou_detail_004_kani=true&JigyosyoCd=4290101288-00&ServiceCd=540&Type=search", "url2": "http://www.gounkai.or.jp/ryokufu/" }, "geometry": { "type": "Point", "coordinates": [ 129.889366399999972, 32.741684 ] } },
{ "type": "Feature", "properties": { "内容": "地域密着型介護老人福祉施設　サンク・ド・滑石【地域密着型介護老人福祉施設入所者生活介護】長崎県滑石５丁目５番５号", "url": "https://www.kaigokensaku.mhlw.go.jp/42/index.php?action_kouhyou_detail_004_kani=true&JigyosyoCd=4290100512-00&ServiceCd=540&Type=search", "url2": "http://www.mizuhokai.jp/" }, "geometry": { "type": "Point", "coordinates": [ 129.8349455, 32.8062484 ] } },
{ "type": "Feature", "properties": { "内容": "特別養護老人ホーム　なの花【地域密着型介護老人福祉施設入所者生活介護】長崎県長崎市さくらの里2丁目27番22号", "url": "https://www.kaigokensaku.mhlw.go.jp/42/index.php?action_kouhyou_detail_004_kani=true&JigyosyoCd=4290100546-00&ServiceCd=540&Type=search", "url2": "http://www.shunkoukai.com/" }, "geometry": { "type": "Point", "coordinates": [ 129.76433320000001, 32.8351976 ] } },
{ "type": "Feature", "properties": { "内容": "地域密着型特別養護老人ホームアスカ【地域密着型介護老人福祉施設入所者生活介護】長崎県長崎市みなと坂1丁目5番1号", "url": "https://www.kaigokensaku.mhlw.go.jp/42/index.php?action_kouhyou_detail_004_kani=true&JigyosyoCd=4290100652-00&ServiceCd=540&Type=search", "url2": "https://asukafukushikai.jp/" }, "geometry": { "type": "Point", "coordinates": [ 129.83905188465576, 32.729041008834045 ] } },
{ "type": "Feature", "properties": { "内容": "こくら庵【地域密着型介護老人福祉施設入所者生活介護】長崎県長崎市興善町5番1号", "url": "https://www.kaigokensaku.mhlw.go.jp/42/index.php?action_kouhyou_detail_004_kani=true&JigyosyoCd=4290100637-00&ServiceCd=540&Type=search", "url2": "http://kokuraan.or.jp/" }, "geometry": { "type": "Point", "coordinates": [ 129.876622699999984, 32.7480886 ] } },
{ "type": "Feature", "properties": { "内容": "地域密着型介護老人福祉施設　喜楽苑こもれ陽【地域密着型介護老人福祉施設入所者生活介護】長崎県長崎市竿浦町923番地1", "url": "https://www.kaigokensaku.mhlw.go.jp/42/index.php?action_kouhyou_detail_004_kani=true&JigyosyoCd=4290100553-00&ServiceCd=540&Type=search", "url2": "http://www.kirakuen-nagasaki.jp/" }, "geometry": { "type": "Point", "coordinates": [ 129.840951799999971, 32.6760469 ] } },
{ "type": "Feature", "properties": { "内容": "地域密着型特別養護老人ホームサンハイツ青山中央【地域密着型介護老人福祉施設入所者生活介護】長崎県長崎市青山町１４番１号サンハイツ青山中央", "url": "https://www.kaigokensaku.mhlw.go.jp/42/index.php?action_kouhyou_detail_004_kani=true&JigyosyoCd=4290100660-00&ServiceCd=540&Type=search", "url2": "http://www.sanhaitsu.jp/" }, "geometry": { "type": "Point", "coordinates": [ 129.851335100000028, 32.7761851 ] } },
{ "type": "Feature", "properties": { "内容": "地域密着型特別養護老人ホームサンハイツ城栄【地域密着型介護老人福祉施設入所者生活介護】長崎県長崎市富士見町23番13号", "url": "https://www.kaigokensaku.mhlw.go.jp/42/index.php?action_kouhyou_detail_004_kani=true&JigyosyoCd=4290102005-00&ServiceCd=540&Type=search", "url2": "http://www.sanhaitsu.jp/" }, "geometry": { "type": "Point", "coordinates": [ 129.8535516, 32.7732986 ] } },
{ "type": "Feature", "properties": { "内容": "特別養護老人ホームみえ愛の郷【地域密着型介護老人福祉施設入所者生活介護】長崎県長崎市三京町811番地16", "url": "https://www.kaigokensaku.mhlw.go.jp/42/index.php?action_kouhyou_detail_004_kani=true&JigyosyoCd=4290100579-00&ServiceCd=540&Type=search", "url2": "https://mieainosato.com/" }, "geometry": { "type": "Point", "coordinates": [ 129.757010315344246, 32.822180632103247 ] } },
{ "type": "Feature", "properties": { "内容": "特別養護老人ホーム　南陽の丘【地域密着型介護老人福祉施設入所者生活介護】長崎県長崎市蚊焼町649番地3", "url": "https://www.kaigokensaku.mhlw.go.jp/42/index.php?action_kouhyou_detail_004_kani=true&JigyosyoCd=4290100538-00&ServiceCd=540&Type=search", "url2": "http://www.nanyoukai.com/" }, "geometry": { "type": "Point", "coordinates": [ 129.824531, 32.661350400000018 ] } },
{ "type": "Feature", "properties": { "内容": "特別養護老人ホームめざめ【地域密着型介護老人福祉施設入所者生活介護】長崎県長崎市目覚町7番2号HCS長崎ビル", "url": "https://www.kaigokensaku.mhlw.go.jp/42/index.php?action_kouhyou_detail_004_kani=true&JigyosyoCd=4290101395-00&ServiceCd=540&Type=search", "url2": "www.shunkaikai.jp/mezame" }, "geometry": { "type": "Point", "coordinates": [ 129.864806700000031, 32.7647312 ] } },
{ "type": "Feature", "properties": { "内容": "地域密着型特別養護老人ホーム　みぎわほーむ【地域密着型介護老人福祉施設入所者生活介護】長崎県長崎市片淵1丁目13番27号地域密着型特別養護老人ホーム　みぎわほーむ", "url": "https://www.kaigokensaku.mhlw.go.jp/42/index.php?action_kouhyou_detail_004_kani=true&JigyosyoCd=4290100744-00&ServiceCd=540&Type=search", "url2": "http://www.shirayukikai.jp" }, "geometry": { "type": "Point", "coordinates": [ 129.886752300000012, 32.7547327 ] } },
{ "type": "Feature", "properties": { "内容": "地域密着型介護老人福祉施設・日見あけぼの荘【地域密着型介護老人福祉施設入所者生活介護】長崎県長崎市宿町616番地1", "url": "https://www.kaigokensaku.mhlw.go.jp/42/index.php?action_kouhyou_detail_004_kani=true&JigyosyoCd=4290100603-00&ServiceCd=540&Type=search", "url2": "http://www.heisei-kai.or.jp/" }, "geometry": { "type": "Point", "coordinates": [ 129.937700800000016, 32.7603078 ] } },
{ "type": "Feature", "properties": { "内容": "特別養護老人ホーム　光る海【地域密着型介護老人福祉施設入所者生活介護】野母町2283番地7", "url": "https://www.kaigokensaku.mhlw.go.jp/42/index.php?action_kouhyou_detail_004_kani=true&JigyosyoCd=4290101114-00&ServiceCd=540&Type=search", "url2": "http://www.kouyokai.jp" }, "geometry": { "type": "Point", "coordinates": [ 129.753548899999942, 32.5796389 ] } },
{ "type": "Feature", "properties": { "内容": "特別養護老人ホーム　三重の里【地域密着型介護老人福祉施設入所者生活介護】長崎県長崎市樫山町1470番地", "url": "https://www.kaigokensaku.mhlw.go.jp/42/index.php?action_kouhyou_detail_004_kani=true&JigyosyoCd=4290100918-00&ServiceCd=540&Type=search", "url2": "http://www.mienosato.com/" }, "geometry": { "type": "Point", "coordinates": [ 129.734613599999989, 32.8124402 ] } },
{ "type": "Feature", "properties": { "内容": "地域密着型介護老人福祉施設　サンホーム江上【地域密着型介護老人福祉施設入所者生活介護】長崎県佐世保市江上町4847番6", "url": "https://www.kaigokensaku.mhlw.go.jp/42/index.php?action_kouhyou_detail_004_kani=true&JigyosyoCd=4290201013-00&ServiceCd=540&Type=search", "url2": "http://koujukai.or.jp" }, "geometry": { "type": "Point", "coordinates": [ 129.783829879762266, 33.070212282858506 ] } },
{ "type": "Feature", "properties": { "内容": "小規模特別養護老人ホームやまずみ荘【地域密着型介護老人福祉施設入所者生活介護】長崎県佐世保市山祇町３８３番地１", "url": "https://www.kaigokensaku.mhlw.go.jp/42/index.php?action_kouhyou_detail_004_kani=true&JigyosyoCd=4290201005-00&ServiceCd=540&Type=search", "url2": "https://www.yamazumiso.or.jp/" }, "geometry": { "type": "Point", "coordinates": [ 129.732742, 33.1671391 ] } },
{ "type": "Feature", "properties": { "内容": "小規模特別養護老人ホームゆうあいホーム横尾【地域密着型介護老人福祉施設入所者生活介護】長崎県佐世保市横尾町2395-1", "url": "https://www.kaigokensaku.mhlw.go.jp/42/index.php?action_kouhyou_detail_004_kani=true&JigyosyoCd=4290200692-00&ServiceCd=540&Type=search", "url2": "http://www.n-yuaikai.jp/" }, "geometry": { "type": "Point", "coordinates": [ 129.719245699999988, 33.2002413 ] } },
{ "type": "Feature", "properties": { "内容": "社会福祉法人　隆愛会　日野の里　芙蓉【地域密着型介護老人福祉施設入所者生活介護】長崎県佐世保市日野町１９９３－１", "url": "https://www.kaigokensaku.mhlw.go.jp/42/index.php?action_kouhyou_detail_004_kani=true&JigyosyoCd=4290200635-00&ServiceCd=540&Type=search", "url2": "http://seiaikai-group.or.jp/publics/index/22/" }, "geometry": { "type": "Point", "coordinates": [ 129.669917899999973, 33.1741139 ] } },
{ "type": "Feature", "properties": { "内容": "特別養護老人ホーム光の子【地域密着型介護老人福祉施設入所者生活介護】長崎県佐世保市新行江町850-1", "url": "https://www.kaigokensaku.mhlw.go.jp/42/index.php?action_kouhyou_detail_004_kani=true&JigyosyoCd=4290200619-00&ServiceCd=540&Type=search", "url2": "http://www.hikarinoko-fukushikai.or.jp/care/sisetu/multi_home_hikari/index.html" }, "geometry": { "type": "Point", "coordinates": [ 129.832925499999988, 33.1484492 ] } },
{ "type": "Feature", "properties": { "内容": "淡淡荘Ⅱ【地域密着型介護老人福祉施設入所者生活介護】長崎県島原市萩が丘２丁目6122番地", "url": "https://www.kaigokensaku.mhlw.go.jp/42/index.php?action_kouhyou_detail_004_kani=true&JigyosyoCd=4290300914-00&ServiceCd=540&Type=search", "url2": "http://rakuzankai.com/publics/index/2/" }, "geometry": { "type": "Point", "coordinates": [ 130.357261600000015, 32.7797286 ] } },
{ "type": "Feature", "properties": { "内容": "地域密着型特別養護老人ホーム　まゆやまの里【地域密着型介護老人福祉施設入所者生活介護】長崎県島原市稗田町甲227番地1", "url": "https://www.kaigokensaku.mhlw.go.jp/42/index.php?action_kouhyou_detail_004_kani=true&JigyosyoCd=4290300997-00&ServiceCd=540&Type=search", "url2": "http://zuikoukai.com" }, "geometry": { "type": "Point", "coordinates": [ 130.351602500000013, 32.8100276 ] } },
{ "type": "Feature", "properties": { "内容": "特別養護老人ホーム諫早ニュータウン【地域密着型介護老人福祉施設入所者生活介護】長崎県諫早市白岩町2番地７", "url": "https://www.kaigokensaku.mhlw.go.jp/42/index.php?action_kouhyou_detail_004_kani=true&JigyosyoCd=4290400383-00&ServiceCd=540&Type=search", "url2": "https://uki-fukushimura.jp/newtown/" }, "geometry": { "type": "Point", "coordinates": [ 130.022426599999989, 32.845659 ] } },
{ "type": "Feature", "properties": { "内容": "特別養護老人ホーム諫早中央【地域密着型介護老人福祉施設入所者生活介護】長崎県諫早市野中町６４８番地７", "url": "https://www.kaigokensaku.mhlw.go.jp/42/index.php?action_kouhyou_detail_004_kani=true&JigyosyoCd=4290400151-00&ServiceCd=540&Type=search", "url2": "http://www.uki-fukushimura.jp/" }, "geometry": { "type": "Point", "coordinates": [ 130.055845133729576, 32.835654700935919 ] } },
{ "type": "Feature", "properties": { "内容": "地域密着型特別養護老人ホーム小長井希望園【地域密着型介護老人福祉施設入所者生活介護】長崎県諫早市小長井町井崎1406", "url": "https://www.kaigokensaku.mhlw.go.jp/42/index.php?action_kouhyou_detail_004_kani=true&JigyosyoCd=4290400136-00&ServiceCd=540&Type=search", "url2": "kibouen＠kzc.biglobe.np.jp" }, "geometry": { "type": "Point", "coordinates": [ 130.183008200000017, 32.9389016 ] } },
{ "type": "Feature", "properties": { "内容": "地域密着型特別養護老人ホーム長里希望園【地域密着型介護老人福祉施設入所者生活介護】長崎県諫早市小長井町大峰980番地9", "url": "https://www.kaigokensaku.mhlw.go.jp/42/index.php?action_kouhyou_detail_004_kani=true&JigyosyoCd=4290400276-00&ServiceCd=540&Type=search", "url2": "https://yamasaki-hospital.com/nagasato-kiboen/" }, "geometry": { "type": "Point", "coordinates": [ 130.164020431877105, 32.912747850692945 ] } },
{ "type": "Feature", "properties": { "内容": "特別養護老人ホーム椿寿荘【地域密着型介護老人福祉施設入所者生活介護】長崎県諫早市栄田町582番1", "url": "https://www.kaigokensaku.mhlw.go.jp/42/index.php?action_kouhyou_detail_004_kani=true&JigyosyoCd=4290400144-00&ServiceCd=540&Type=search", "url2": "https://fuyounet.jp/tokuyou/" }, "geometry": { "type": "Point", "coordinates": [ 130.031999339811676, 32.866815225000835 ] } },
{ "type": "Feature", "properties": { "内容": "特別養護老人ホーム　なかやまの里【地域密着型介護老人福祉施設入所者生活介護】長崎県諫早市福田町3350", "url": "https://www.kaigokensaku.mhlw.go.jp/42/index.php?action_kouhyou_detail_004_kani=true&JigyosyoCd=4290400391-00&ServiceCd=540&Type=search", "url2": "www.fukusuikai.com" }, "geometry": { "type": "Point", "coordinates": [ 130.0607469, 32.8694587 ] } },
{ "type": "Feature", "properties": { "内容": "地域密着型介護老人福祉施設善隣荘【地域密着型介護老人福祉施設入所者生活介護】長崎県諫早市福田町２３６６番地１", "url": "https://www.kaigokensaku.mhlw.go.jp/42/index.php?action_kouhyou_detail_004_kani=true&JigyosyoCd=4290400227-00&ServiceCd=540&Type=search", "url2": "https://ryubikai.com/" }, "geometry": { "type": "Point", "coordinates": [ 130.056060900000034, 32.8626408 ] } },
{ "type": "Feature", "properties": { "内容": "特別養護老人ホームききつ【地域密着型介護老人福祉施設入所者生活介護】長崎県諫早市多良見町化屋1829", "url": "https://www.kaigokensaku.mhlw.go.jp/42/index.php?action_kouhyou_detail_004_kani=true&JigyosyoCd=4290400268-00&ServiceCd=540&Type=search", "url2": "https://chirokukai.jp/" }, "geometry": { "type": "Point", "coordinates": [ 129.983242545368967, 32.830250975222405 ] } },
{ "type": "Feature", "properties": { "内容": "地域密着型特別養護老人ホーム　flora【地域密着型介護老人福祉施設入所者生活介護】長崎県大村市皆同町438番地3", "url": "https://www.kaigokensaku.mhlw.go.jp/42/index.php?action_kouhyou_detail_004_kani=true&JigyosyoCd=4290500265-00&ServiceCd=540&Type=search", "url2": "f-flora.jp/" }, "geometry": { "type": "Point", "coordinates": [ 129.949644499999977, 32.960214 ] } },
{ "type": "Feature", "properties": { "内容": "地域密着型介護老人福祉施設「湖畔の宿ふる里」【地域密着型介護老人福祉施設入所者生活介護】長崎県大村市鬼橋町1416", "url": "https://www.kaigokensaku.mhlw.go.jp/42/index.php?action_kouhyou_detail_004_kani=true&JigyosyoCd=4290500372-00&ServiceCd=540&Type=search", "url2": "https://ryumei-kai.or.jp/" }, "geometry": { "type": "Point", "coordinates": [ 129.9587326, 32.9459694 ] } },
{ "type": "Feature", "properties": { "内容": "特別養護老人ホームあんのん【地域密着型介護老人福祉施設入所者生活介護】長崎県平戸市戸石川町９５０番地", "url": "https://www.kaigokensaku.mhlw.go.jp/42/index.php?action_kouhyou_detail_004_kani=true&JigyosyoCd=4290700071-00&ServiceCd=540&Type=search", "url2": "http://keishokai.jp/" }, "geometry": { "type": "Point", "coordinates": [ 129.549705170639101, 33.361639240905546 ] } },
{ "type": "Feature", "properties": { "内容": "特別養護老人ホーム海光園【地域密着型介護老人福祉施設入所者生活介護】長崎県松浦市星鹿町北久保免682番地", "url": "https://www.kaigokensaku.mhlw.go.jp/42/index.php?action_kouhyou_detail_004_kani=true&JigyosyoCd=4290800020-00&ServiceCd=540&Type=search", "url2": "http://kaikouen.com" }, "geometry": { "type": "Point", "coordinates": [ 129.672980219100083, 33.371463913660179 ] } },
{ "type": "Feature", "properties": { "内容": "地域密着型特別養護老人ホームさいわい【地域密着型介護老人福祉施設入所者生活介護】長崎県雲仙市吾妻町大木場名117-1", "url": "https://www.kaigokensaku.mhlw.go.jp/42/index.php?action_kouhyou_detail_004_kani=true&JigyosyoCd=4292400134-00&ServiceCd=540&Type=search", "url2": "http://www.shimabara.jp/sh6008845/" }, "geometry": { "type": "Point", "coordinates": [ 130.191502200000059, 32.8390524 ] } },
{ "type": "Feature", "properties": { "内容": "花みずき【地域密着型介護老人福祉施設入所者生活介護】長崎県雲仙市国見町神代丙192番地1", "url": "https://www.kaigokensaku.mhlw.go.jp/42/index.php?action_kouhyou_detail_004_kani=true&JigyosyoCd=4292400126-00&ServiceCd=540&Type=search", "url2": null }, "geometry": { "type": "Point", "coordinates": [ 130.269264107687377, 32.868847146785434 ] } },
{ "type": "Feature", "properties": { "内容": "やはたの杜【地域密着型介護老人福祉施設入所者生活介護】長崎県雲仙市南串山町丙9783番地", "url": "https://www.kaigokensaku.mhlw.go.jp/42/index.php?action_kouhyou_detail_004_kani=true&JigyosyoCd=4292400159-00&ServiceCd=540&Type=search", "url2": "https://www.hachimankai.or.jp" }, "geometry": { "type": "Point", "coordinates": [ 130.140153899999973, 32.6662237 ] } },
{ "type": "Feature", "properties": { "内容": "地域密着型特別養護老人ホーム夢の里【地域密着型介護老人福祉施設入所者生活介護】長崎県南島原市西有家町龍石5050番地1", "url": "https://www.kaigokensaku.mhlw.go.jp/42/index.php?action_kouhyou_detail_004_kani=true&JigyosyoCd=4292500164-00&ServiceCd=540&Type=search", "url2": "http://touyou-yumenosato.or.jp/" }, "geometry": { "type": "Point", "coordinates": [ 130.271821700000032, 32.6543269 ] } },
{ "type": "Feature", "properties": { "内容": "アメニティいわど【地域密着型介護老人福祉施設入所者生活介護】長崎県南島原市加津佐町乙９番地", "url": "https://www.kaigokensaku.mhlw.go.jp/42/index.php?action_kouhyou_detail_004_kani=true&JigyosyoCd=4292500081-00&ServiceCd=540&Type=search", "url2": "http://www.hakujukai.com/" }, "geometry": { "type": "Point", "coordinates": [ 130.158882876473939, 32.631365368462205 ] } },
{ "type": "Feature", "properties": { "内容": "特別養護老人ホームかがやき【地域密着型介護老人福祉施設入所者生活介護】長崎県西彼杵郡長与町本川内郷２番地３", "url": "https://www.kaigokensaku.mhlw.go.jp/42/index.php?action_kouhyou_detail_004_kani=true&JigyosyoCd=4291100057-00&ServiceCd=540&Type=search", "url2": "http://nagayo-kousaikai.jp/" }, "geometry": { "type": "Point", "coordinates": [ 129.8975299, 32.8232648 ] } },
{ "type": "Feature", "properties": { "内容": "特別養護老人ホームはさみ荘【地域密着型介護老人福祉施設入所者生活介護】長崎県東彼杵郡波佐見町稗木場郷794番地1", "url": "https://www.kaigokensaku.mhlw.go.jp/42/index.php?action_kouhyou_detail_004_kani=true&JigyosyoCd=4291200014-00&ServiceCd=540&Type=search", "url2": "https://airinkai-hasami.com" }, "geometry": { "type": "Point", "coordinates": [ 129.872084200000018, 33.1264797 ] } }
]
}
