{
"type": "FeatureCollection",
"name": "geo_42_地域密着型通所介護",
"crs": { "type": "name", "properties": { "name": "urn:ogc:def:crs:OGC:1.3:CRS84" } },
"features": [
{ "type": "Feature", "properties": { "内容": "有明の園デイサービスセンター【地域密着型通所介護】界2丁目4番15号住宅型有料老人ホーム　アシストリビング有明の園", "url": "https://www.kaigokensaku.mhlw.go.jp/42/index.php?action_kouhyou_detail_004_kani=true&JigyosyoCd=4270102769-00&ServiceCd=780&Type=search", "url2": null }, "geometry": { "type": "Point", "coordinates": [ 129.942856200000051, 32.7577943 ] } },
{ "type": "Feature", "properties": { "内容": "地域密着型通所介護　デイサービスはるか【地域密着型通所介護】長崎県長崎市高尾町46番33号", "url": "https://www.kaigokensaku.mhlw.go.jp/42/index.php?action_kouhyou_detail_004_kani=true&JigyosyoCd=4270109533-00&ServiceCd=780&Type=search", "url2": "http://yuujyu-m.jp/" }, "geometry": { "type": "Point", "coordinates": [ 129.876675699999964, 32.78037310000002 ] } },
{ "type": "Feature", "properties": { "内容": "恵珠苑　指定通所介護事業所Ⅱ【地域密着型通所介護】長崎県長崎市田上２丁目２番７号", "url": "https://www.kaigokensaku.mhlw.go.jp/42/index.php?action_kouhyou_detail_004_kani=true&JigyosyoCd=4270106612-00&ServiceCd=780&Type=search", "url2": "http://yuukikai.jp/" }, "geometry": { "type": "Point", "coordinates": [ 129.891443631911898, 32.726696112238407 ] } },
{ "type": "Feature", "properties": { "内容": "デイサービス　はまゆう【地域密着型通所介護】長崎県長崎市田中町８４５－１", "url": "https://www.kaigokensaku.mhlw.go.jp/42/index.php?action_kouhyou_detail_004_kani=true&JigyosyoCd=4270107743-00&ServiceCd=780&Type=search", "url2": null }, "geometry": { "type": "Point", "coordinates": [ 129.95187137781727, 32.768736039879435 ] } },
{ "type": "Feature", "properties": { "内容": "デイサービスうぇるずらいふ上小島【地域密着型通所介護】長崎県長崎市上小島５丁目２番１３号", "url": "https://www.kaigokensaku.mhlw.go.jp/42/index.php?action_kouhyou_detail_004_kani=true&JigyosyoCd=4270110143-00&ServiceCd=780&Type=search", "url2": "https://wellslife.jp/" }, "geometry": { "type": "Point", "coordinates": [ 129.887133567040934, 32.729945400195035 ] } },
{ "type": "Feature", "properties": { "内容": "長崎ケアハートガーデン　デイサービス南長崎【地域密着型通所介護】長崎県長崎市竿浦町754番地1", "url": "https://www.kaigokensaku.mhlw.go.jp/42/index.php?action_kouhyou_detail_004_kani=true&JigyosyoCd=4270110556-00&ServiceCd=780&Type=search", "url2": "http://www.mdlife.co.jp/" }, "geometry": { "type": "Point", "coordinates": [ 129.8396156559877, 32.675252131359315 ] } },
{ "type": "Feature", "properties": { "内容": "デイサービスセンターアスカ立神【地域密着型通所介護】長崎県長崎市東立神町１６番２２号デイサービスセンターアスカ立神", "url": "https://www.kaigokensaku.mhlw.go.jp/42/index.php?action_kouhyou_detail_004_kani=true&JigyosyoCd=4290101825-00&ServiceCd=780&Type=search", "url2": "https://asukafukushikai.jp/smarts/index/0/" }, "geometry": { "type": "Point", "coordinates": [ 129.8509137, 32.7362347 ] } },
{ "type": "Feature", "properties": { "内容": "株式会社　倫風館　ひばり苑　デイサービス戸町【地域密着型通所介護】長崎県長崎市上戸町2-17-11", "url": "https://www.kaigokensaku.mhlw.go.jp/42/index.php?action_kouhyou_detail_004_kani=true&JigyosyoCd=4290101940-00&ServiceCd=780&Type=search", "url2": "https://hibarien.jp/" }, "geometry": { "type": "Point", "coordinates": [ 129.8679372, 32.7144787 ] } },
{ "type": "Feature", "properties": { "内容": "デイサービス　ののはは【地域密着型通所介護】長崎県長崎市高浜町3203-38", "url": "https://www.kaigokensaku.mhlw.go.jp/42/index.php?action_kouhyou_detail_004_kani=true&JigyosyoCd=4270104963-00&ServiceCd=780&Type=search", "url2": null }, "geometry": { "type": "Point", "coordinates": [ 129.785349, 32.6047182 ] } },
{ "type": "Feature", "properties": { "内容": "太陽デイ吠えろ【地域密着型通所介護】長崎市中園町11-1エミナーレ", "url": "https://www.kaigokensaku.mhlw.go.jp/42/index.php?action_kouhyou_detail_004_kani=true&JigyosyoCd=4270109061-00&ServiceCd=780&Type=search", "url2": "http://www.helper-taiyo.com/" }, "geometry": { "type": "Point", "coordinates": [ 129.859751146696453, 32.792023544133926 ] } },
{ "type": "Feature", "properties": { "内容": "デイサービス　グリーン【地域密着型通所介護】長崎県長崎市江川町68番5リエゾン長崎南館", "url": "https://www.kaigokensaku.mhlw.go.jp/42/index.php?action_kouhyou_detail_004_kani=true&JigyosyoCd=4270107198-00&ServiceCd=780&Type=search", "url2": "https://liaison.gr.jp/" }, "geometry": { "type": "Point", "coordinates": [ 129.840773280976691, 32.681833318387774 ] } },
{ "type": "Feature", "properties": { "内容": "アルファデイサービスセンター諏訪の杜【地域密着型通所介護】長崎県長崎市勝山町41番地アルファリビング長崎諏訪の杜", "url": "https://www.kaigokensaku.mhlw.go.jp/42/index.php?action_kouhyou_detail_004_kani=true&JigyosyoCd=4270110218-00&ServiceCd=780&Type=search", "url2": "http://a-living.jp/nagasaki-s/" }, "geometry": { "type": "Point", "coordinates": [ 129.8806667, 32.7516634 ] } },
{ "type": "Feature", "properties": { "内容": "デイサービスらぶゆ西浜【地域密着型通所介護】長崎県長崎市銅座町４－１３リブラビル１階", "url": "https://www.kaigokensaku.mhlw.go.jp/42/index.php?action_kouhyou_detail_004_kani=true&JigyosyoCd=4270110234-00&ServiceCd=780&Type=search", "url2": "http://blog.livedoor.jp/loveyounishihama/" }, "geometry": { "type": "Point", "coordinates": [ 129.876145, 32.7433168 ] } },
{ "type": "Feature", "properties": { "内容": "医療法人　秋桜会　デイサービスコスモス【地域密着型通所介護】長崎県長崎市京泊3丁目10-5", "url": "https://www.kaigokensaku.mhlw.go.jp/42/index.php?action_kouhyou_detail_004_kani=true&JigyosyoCd=4270103692-00&ServiceCd=780&Type=search", "url2": "http://www.cosmos-garden.com/" }, "geometry": { "type": "Point", "coordinates": [ 129.7708887, 32.8228348 ] } },
{ "type": "Feature", "properties": { "内容": "医療法人宏友会　デイサービスセンター　城山クラブ【地域密着型通所介護】長崎県長崎市城山町１８番１９号", "url": "https://www.kaigokensaku.mhlw.go.jp/42/index.php?action_kouhyou_detail_004_kani=true&JigyosyoCd=4270108147-00&ServiceCd=780&Type=search", "url2": "http://www.kouyukai.com" }, "geometry": { "type": "Point", "coordinates": [ 129.856990600000017, 32.7717969 ] } },
{ "type": "Feature", "properties": { "内容": "医療法人社団　博生会　大久保医院　出島デイサービスセンター【地域密着型通所介護】長崎県長崎市新地町4番15号大久保ビル３階", "url": "https://www.kaigokensaku.mhlw.go.jp/42/index.php?action_kouhyou_detail_004_kani=true&JigyosyoCd=4270100862-00&ServiceCd=780&Type=search", "url2": null }, "geometry": { "type": "Point", "coordinates": [ 129.873675935582014, 32.741109596694223 ] } },
{ "type": "Feature", "properties": { "内容": "デイサービスセンター和庵【地域密着型通所介護】長崎県長崎市住吉町16番7号", "url": "https://www.kaigokensaku.mhlw.go.jp/42/index.php?action_kouhyou_detail_004_kani=true&JigyosyoCd=4270108642-00&ServiceCd=780&Type=search", "url2": "http://minatsuki.jp/" }, "geometry": { "type": "Point", "coordinates": [ 129.861684730519073, 32.794073106618114 ] } },
{ "type": "Feature", "properties": { "内容": "介護予防デイサービス　リハビリデイ小ヶ倉【地域密着型通所介護】長崎県長崎市小ヶ倉町3丁目92番1", "url": "https://www.kaigokensaku.mhlw.go.jp/42/index.php?action_kouhyou_detail_004_kani=true&JigyosyoCd=4270106950-00&ServiceCd=780&Type=search", "url2": "http://seikotsu109.com/access.html" }, "geometry": { "type": "Point", "coordinates": [ 129.847466220237749, 32.70351221997965 ] } },
{ "type": "Feature", "properties": { "内容": "デイサービスあおい【地域密着型通所介護】長崎市柳谷町41番2号", "url": "https://www.kaigokensaku.mhlw.go.jp/42/index.php?action_kouhyou_detail_004_kani=true&JigyosyoCd=4270109590-00&ServiceCd=780&Type=search", "url2": "https://r.goope.jp/aoi-nagasaki/" }, "geometry": { "type": "Point", "coordinates": [ 129.853024720237698, 32.791780810880063 ] } },
{ "type": "Feature", "properties": { "内容": "デイサービス　花いちもんめ【地域密着型通所介護】長崎県長崎市布巻町５３４番地１サービス付き高齢者向け住宅　ラピナスの園", "url": "https://www.kaigokensaku.mhlw.go.jp/42/index.php?action_kouhyou_detail_004_kani=true&JigyosyoCd=4270107560-00&ServiceCd=780&Type=search", "url2": "http://www.hanaichi-monme.com" }, "geometry": { "type": "Point", "coordinates": [ 129.834924071014939, 32.654425490104721 ] } },
{ "type": "Feature", "properties": { "内容": "通所介護事業所すまいるはぁと【地域密着型通所介護】長崎県長崎市平瀬町76-4", "url": "https://www.kaigokensaku.mhlw.go.jp/42/index.php?action_kouhyou_detail_004_kani=true&JigyosyoCd=4270108717-00&ServiceCd=780&Type=search", "url2": "http://www.sinkamigoto.net/" }, "geometry": { "type": "Point", "coordinates": [ 129.838634899999988, 32.6881459 ] } },
{ "type": "Feature", "properties": { "内容": "介護予防デイサービス　クローバー・ガーデン城栄【地域密着型通所介護】長崎県長崎市城栄町31-12階", "url": "https://www.kaigokensaku.mhlw.go.jp/42/index.php?action_kouhyou_detail_004_kani=true&JigyosyoCd=4270106794-00&ServiceCd=780&Type=search", "url2": "http://www.fujimoto-group.jp/" }, "geometry": { "type": "Point", "coordinates": [ 129.85509890000003, 32.7748715 ] } },
{ "type": "Feature", "properties": { "内容": "デイサービス　クローバー・ガーデン矢上【地域密着型通所介護】長崎県長崎市矢上町23番11号", "url": "https://www.kaigokensaku.mhlw.go.jp/42/index.php?action_kouhyou_detail_004_kani=true&JigyosyoCd=4270109699-00&ServiceCd=780&Type=search", "url2": "http://www.fujimoto-group.jp" }, "geometry": { "type": "Point", "coordinates": [ 129.951677300000028, 32.776229 ] } },
{ "type": "Feature", "properties": { "内容": "デイサービスセンター　グリーンピース【地域密着型通所介護】長崎県長崎市下西山町13-22", "url": "https://www.kaigokensaku.mhlw.go.jp/42/index.php?action_kouhyou_detail_004_kani=true&JigyosyoCd=4270105770-00&ServiceCd=780&Type=search", "url2": "http://fukushimori.co.jp/" }, "geometry": { "type": "Point", "coordinates": [ 129.886403635972073, 32.757637173752045 ] } },
{ "type": "Feature", "properties": { "内容": "デイサービスセンターグリーンピースＥＡＳＴ【地域密着型通所介護】長崎県長崎市東町1873-8福祉の杜グリンピース", "url": "https://www.kaigokensaku.mhlw.go.jp/42/index.php?action_kouhyou_detail_004_kani=true&JigyosyoCd=4270109277-00&ServiceCd=780&Type=search", "url2": "http://fukushimori.co.jp/" }, "geometry": { "type": "Point", "coordinates": [ 129.95536870185245, 32.780217130351971 ] } },
{ "type": "Feature", "properties": { "内容": "デイサービス　クローバー・ガーデン滑石【地域密着型通所介護】長崎県長崎市滑石6丁目5番33号", "url": "https://www.kaigokensaku.mhlw.go.jp/42/index.php?action_kouhyou_detail_004_kani=true&JigyosyoCd=4270135546-00&ServiceCd=780&Type=search", "url2": "http://www.fujimoto-group.jp" }, "geometry": { "type": "Point", "coordinates": [ 129.852717699999971, 32.8013136 ] } },
{ "type": "Feature", "properties": { "内容": "介護予防デイサービス　クローバー・ガーデン江川【地域密着型通所介護】長崎県長崎市江川町120番15号", "url": "https://www.kaigokensaku.mhlw.go.jp/42/index.php?action_kouhyou_detail_004_kani=true&JigyosyoCd=4270107693-00&ServiceCd=780&Type=search", "url2": "http://www.fujimoto-group.jp/" }, "geometry": { "type": "Point", "coordinates": [ 129.840057200000047, 32.684149 ] } },
{ "type": "Feature", "properties": { "内容": "介護予防デイサービス　クローバー・ガーデン新戸町【地域密着型通所介護】長崎県長崎市新小が倉2丁目1番1号ハイツ新戸町1階", "url": "https://www.kaigokensaku.mhlw.go.jp/42/index.php?action_kouhyou_detail_004_kani=true&JigyosyoCd=4270108303-00&ServiceCd=780&Type=search", "url2": "http://www.fujimoto-group.jp" }, "geometry": { "type": "Point", "coordinates": [ 129.862694, 32.7088834 ] } },
{ "type": "Feature", "properties": { "内容": "デイサービス　クローバー・ガーデン田上【地域密着型通所介護】長崎県長崎市田上1丁目4番11号ＭＡＴＳＵＯテナント1号室", "url": "https://www.kaigokensaku.mhlw.go.jp/42/index.php?action_kouhyou_detail_004_kani=true&JigyosyoCd=4270110168-00&ServiceCd=780&Type=search", "url2": "http://www.fujimoto-group.jp/" }, "geometry": { "type": "Point", "coordinates": [ 129.893083599999954, 32.7246498 ] } },
{ "type": "Feature", "properties": { "内容": "八坂町デイサービスぬくもり【地域密着型通所介護】長崎県長崎市油屋町2-15雄貴ビル1F", "url": "https://www.kaigokensaku.mhlw.go.jp/42/index.php?action_kouhyou_detail_004_kani=true&JigyosyoCd=4270109418-00&ServiceCd=780&Type=search", "url2": "http://www.a-nukumori.com/" }, "geometry": { "type": "Point", "coordinates": [ 129.881219699999974, 32.7431114 ] } },
{ "type": "Feature", "properties": { "内容": "油屋町デイサービスぬくもり【地域密着型通所介護】長崎県長崎市油屋町５－２ナカムラビル１Ｆ", "url": "https://www.kaigokensaku.mhlw.go.jp/42/index.php?action_kouhyou_detail_004_kani=true&JigyosyoCd=4270107842-00&ServiceCd=780&Type=search", "url2": "http://www.a-nukumori.com/" }, "geometry": { "type": "Point", "coordinates": [ 129.882589100000018, 32.7414227 ] } },
{ "type": "Feature", "properties": { "内容": "デイサービスあいばね【地域密着型通所介護】長崎県長崎市東町1753番地", "url": "https://www.kaigokensaku.mhlw.go.jp/42/index.php?action_kouhyou_detail_004_kani=true&JigyosyoCd=4270110705-00&ServiceCd=780&Type=search", "url2": null }, "geometry": { "type": "Point", "coordinates": [ 129.955680509842267, 32.778177440921155 ] } },
{ "type": "Feature", "properties": { "内容": "デイサービスセンター　フラワー【地域密着型通所介護】長崎県長崎市琴海村松町1591", "url": "https://www.kaigokensaku.mhlw.go.jp/42/index.php?action_kouhyou_detail_004_kani=true&JigyosyoCd=4270110978-00&ServiceCd=780&Type=search", "url2": null }, "geometry": { "type": "Point", "coordinates": [ 129.786086699999942, 32.8636422 ] } },
{ "type": "Feature", "properties": { "内容": "デイサービスきらり【地域密着型通所介護】長崎県長崎市星取2丁目2番43号ケアホーム星取", "url": "https://www.kaigokensaku.mhlw.go.jp/42/index.php?action_kouhyou_detail_004_kani=true&JigyosyoCd=4270100375-00&ServiceCd=780&Type=search", "url2": "kenyukai-kaigo.com" }, "geometry": { "type": "Point", "coordinates": [ 129.8828757, 32.721319 ] } },
{ "type": "Feature", "properties": { "内容": "デイサービスセンター　福陽の里【地域密着型通所介護】長崎県長崎市大浜町934番地１ケアハウス大浜1階", "url": "https://www.kaigokensaku.mhlw.go.jp/42/index.php?action_kouhyou_detail_004_kani=true&JigyosyoCd=4270105903-00&ServiceCd=780&Type=search", "url2": "https://kouranosato.com/workplace/fukuyonosato" }, "geometry": { "type": "Point", "coordinates": [ 129.8330588, 32.7467152 ] } },
{ "type": "Feature", "properties": { "内容": "デイサービス　裕庵。。【地域密着型通所介護】長崎県長崎市松原町2535番地2", "url": "https://www.kaigokensaku.mhlw.go.jp/42/index.php?action_kouhyou_detail_004_kani=true&JigyosyoCd=4270110887-00&ServiceCd=780&Type=search", "url2": null }, "geometry": { "type": "Point", "coordinates": [ 129.954857100000027, 32.796118900000018 ] } },
{ "type": "Feature", "properties": { "内容": "通所介護事業所　女の都【地域密着型通所介護】長崎県長崎市女の都１丁目1592-7", "url": "https://www.kaigokensaku.mhlw.go.jp/42/index.php?action_kouhyou_detail_004_kani=true&JigyosyoCd=4270100391-00&ServiceCd=780&Type=search", "url2": "https://www.rakuroukai.or.jp" }, "geometry": { "type": "Point", "coordinates": [ 129.880378122090178, 32.80059179968729 ] } },
{ "type": "Feature", "properties": { "内容": "通所介護事業所　琴の浦荘【地域密着型通所介護】長崎県長崎市琴海戸根町743番地47特別養護老人ホーム　琴の浦荘", "url": "https://www.kaigokensaku.mhlw.go.jp/42/index.php?action_kouhyou_detail_004_kani=true&JigyosyoCd=4270109772-00&ServiceCd=780&Type=search", "url2": "http://www.gounkai.or.jp/kotonoura/" }, "geometry": { "type": "Point", "coordinates": [ 129.791694977246152, 32.887888752889232 ] } },
{ "type": "Feature", "properties": { "内容": "デイサービスセンター　プレジールの丘【地域密着型通所介護】長崎県長崎市立山２丁目１６番５号", "url": "https://www.kaigokensaku.mhlw.go.jp/42/index.php?action_kouhyou_detail_004_kani=true&JigyosyoCd=4270108188-00&ServiceCd=780&Type=search", "url2": "http://juyoukai.com/" }, "geometry": { "type": "Point", "coordinates": [ 129.876628100000062, 32.754913 ] } },
{ "type": "Feature", "properties": { "内容": "社会福祉法人春幸会　デイサービス　なの花【地域密着型通所介護】長崎県長崎市さくらの里２丁目２７番２２号", "url": "https://www.kaigokensaku.mhlw.go.jp/42/index.php?action_kouhyou_detail_004_kani=true&JigyosyoCd=4270108238-00&ServiceCd=780&Type=search", "url2": "http://www.syunkoukai.com/" }, "geometry": { "type": "Point", "coordinates": [ 129.76433320000001, 32.8351976 ] } },
{ "type": "Feature", "properties": { "内容": "デイサービス　リエゾン長崎【地域密着型通所介護】長崎県長崎市江川町92番地", "url": "https://www.kaigokensaku.mhlw.go.jp/42/index.php?action_kouhyou_detail_004_kani=true&JigyosyoCd=4270103445-00&ServiceCd=780&Type=search", "url2": "http://www.liaison.gr.jp" }, "geometry": { "type": "Point", "coordinates": [ 129.841026599999964, 32.6823242 ] } },
{ "type": "Feature", "properties": { "内容": "デイサービスセンターサンハイツ城山【地域密着型通所介護】長崎県長崎市城山町29番1号", "url": "https://www.kaigokensaku.mhlw.go.jp/42/index.php?action_kouhyou_detail_004_kani=true&JigyosyoCd=4270106836-00&ServiceCd=780&Type=search", "url2": "http://www.sanhaitsu.jp/" }, "geometry": { "type": "Point", "coordinates": [ 129.8562045, 32.7730606 ] } },
{ "type": "Feature", "properties": { "内容": "短時間型介護予防センターサンハイツ銭座【地域密着型通所介護】長崎県長崎市銭座町2番6号", "url": "https://www.kaigokensaku.mhlw.go.jp/42/index.php?action_kouhyou_detail_004_kani=true&JigyosyoCd=4270110416-00&ServiceCd=780&Type=search", "url2": "http://www.sanhaitsu.jp/" }, "geometry": { "type": "Point", "coordinates": [ 129.867406500000016, 32.759892800000038 ] } },
{ "type": "Feature", "properties": { "内容": "デイサービスセンターサンハイツ小江原【地域密着型通所介護】長崎県長崎市小江原4丁目43-12", "url": "https://www.kaigokensaku.mhlw.go.jp/42/index.php?action_kouhyou_detail_004_kani=true&JigyosyoCd=4270105457-00&ServiceCd=780&Type=search", "url2": "http://www.sanhaitsu.jp/" }, "geometry": { "type": "Point", "coordinates": [ 129.833767099999932, 32.7489344 ] } },
{ "type": "Feature", "properties": { "内容": "デイサービスセンターサンハイツ宝栄【地域密着型通所介護】長崎県長崎市宝栄町12番6号", "url": "https://www.kaigokensaku.mhlw.go.jp/42/index.php?action_kouhyou_detail_004_kani=true&JigyosyoCd=4270135231-00&ServiceCd=780&Type=search", "url2": "http://www.sanhaitsu.jp/" }, "geometry": { "type": "Point", "coordinates": [ 129.859146099999947, 32.7685362 ] } },
{ "type": "Feature", "properties": { "内容": "みえ愛の郷デイサービスセンター【地域密着型通所介護】長崎県長崎市三京町８１１番地１６", "url": "https://www.kaigokensaku.mhlw.go.jp/42/index.php?action_kouhyou_detail_004_kani=true&JigyosyoCd=4270108105-00&ServiceCd=780&Type=search", "url2": "https://mieainosato.com/" }, "geometry": { "type": "Point", "coordinates": [ 129.7569674, 32.8221626 ] } },
{ "type": "Feature", "properties": { "内容": "デイサービスセンター　日見やすらぎ荘【地域密着型通所介護】長崎県長崎市宿町616番地養護老人ホーム　日見やすらぎ荘", "url": "https://www.kaigokensaku.mhlw.go.jp/42/index.php?action_kouhyou_detail_004_kani=true&JigyosyoCd=4270107164-00&ServiceCd=780&Type=search", "url2": "http://www.heisei-kai.or.jp/" }, "geometry": { "type": "Point", "coordinates": [ 129.937025899999981, 32.7601939 ] } },
{ "type": "Feature", "properties": { "内容": "社会福祉法人グリーンコープデイサービスセンターありすの家【地域密着型通所介護】長崎県長崎市鶴見台2丁目28番16号", "url": "https://www.kaigokensaku.mhlw.go.jp/42/index.php?action_kouhyou_detail_004_kani=true&JigyosyoCd=4270109160-00&ServiceCd=780&Type=search", "url2": "ｆｕｋｕｓｈｉ－ｇｒｅｅｎｃｏｏｐ．ｏｒ．ｊｐ/ｐｒｏｇ/ｄｂｓ/94" }, "geometry": { "type": "Point", "coordinates": [ 129.8433956, 32.6924762 ] } },
{ "type": "Feature", "properties": { "内容": "デイサービスセンターしらゆり【地域密着型通所介護】長崎県長崎市三重町461番地4", "url": "https://www.kaigokensaku.mhlw.go.jp/42/index.php?action_kouhyou_detail_004_kani=true&JigyosyoCd=4270110721-00&ServiceCd=780&Type=search", "url2": null }, "geometry": { "type": "Point", "coordinates": [ 129.745779921673574, 32.823915292481395 ] } },
{ "type": "Feature", "properties": { "内容": "かいごの花みずき　機能別対応型　デイサービス【地域密着型通所介護】長崎県長崎市平和町１７－７", "url": "https://www.kaigokensaku.mhlw.go.jp/42/index.php?action_kouhyou_detail_004_kani=true&JigyosyoCd=4270135470-00&ServiceCd=780&Type=search", "url2": "http://www.kaigo-8732.com/" }, "geometry": { "type": "Point", "coordinates": [ 129.865334100000041, 32.7752023 ] } },
{ "type": "Feature", "properties": { "内容": "デイサービスセンターけやき【地域密着型通所介護】長崎県長崎市旭町16－9", "url": "https://www.kaigokensaku.mhlw.go.jp/42/index.php?action_kouhyou_detail_004_kani=true&JigyosyoCd=4270106943-00&ServiceCd=780&Type=search", "url2": null }, "geometry": { "type": "Point", "coordinates": [ 129.863156900000035, 32.7522128 ] } },
{ "type": "Feature", "properties": { "内容": "デイサービス虹【地域密着型通所介護】長崎県長崎市鳴見台2丁目34番23号", "url": "https://www.kaigokensaku.mhlw.go.jp/42/index.php?action_kouhyou_detail_004_kani=true&JigyosyoCd=4270107396-00&ServiceCd=780&Type=search", "url2": null }, "geometry": { "type": "Point", "coordinates": [ 129.810896800000023, 32.8230521 ] } },
{ "type": "Feature", "properties": { "内容": "有限会社　トモメディカルサービス　デイサービスむつみの森【地域密着型通所介護】長崎県長崎市長浦町2584番地", "url": "https://www.kaigokensaku.mhlw.go.jp/42/index.php?action_kouhyou_detail_004_kani=true&JigyosyoCd=4270105606-00&ServiceCd=780&Type=search", "url2": null }, "geometry": { "type": "Point", "coordinates": [ 129.785388099999977, 32.9103767 ] } },
{ "type": "Feature", "properties": { "内容": "デイサービス　ひまわり【地域密着型通所介護】長崎県長崎市高浜町２４７０番地", "url": "https://www.kaigokensaku.mhlw.go.jp/42/index.php?action_kouhyou_detail_004_kani=true&JigyosyoCd=4270107628-00&ServiceCd=780&Type=search", "url2": null }, "geometry": { "type": "Point", "coordinates": [ 129.789095800000041, 32.6112483 ] } },
{ "type": "Feature", "properties": { "内容": "デイサービスセンター　風の丘【地域密着型通所介護】長崎県長崎市三京町１９６２", "url": "https://www.kaigokensaku.mhlw.go.jp/42/index.php?action_kouhyou_detail_004_kani=true&JigyosyoCd=4270106810-00&ServiceCd=780&Type=search", "url2": "http://kaze-group.com" }, "geometry": { "type": "Point", "coordinates": [ 129.755417299999976, 32.8271483 ] } },
{ "type": "Feature", "properties": { "内容": "あさひデイサービスセンター【地域密着型通所介護】長崎県長崎市旭町２１-１３", "url": "https://www.kaigokensaku.mhlw.go.jp/42/index.php?action_kouhyou_detail_004_kani=true&JigyosyoCd=4270108295-00&ServiceCd=780&Type=search", "url2": null }, "geometry": { "type": "Point", "coordinates": [ 129.8626792, 32.7517378 ] } },
{ "type": "Feature", "properties": { "内容": "生活総合支援センターおたくさ【地域密着型通所介護】長崎県長崎市毛井首町１－８７", "url": "https://www.kaigokensaku.mhlw.go.jp/42/index.php?action_kouhyou_detail_004_kani=true&JigyosyoCd=4270106406-00&ServiceCd=780&Type=search", "url2": null }, "geometry": { "type": "Point", "coordinates": [ 129.837443200000052, 32.6926122 ] } },
{ "type": "Feature", "properties": { "内容": "デイサービスセンターねいろ【地域密着型通所介護】三原一丁目７番３２号", "url": "https://www.kaigokensaku.mhlw.go.jp/42/index.php?action_kouhyou_detail_004_kani=true&JigyosyoCd=4290101965-00&ServiceCd=780&Type=search", "url2": null }, "geometry": { "type": "Point", "coordinates": [ 129.876729, 32.7814967 ] } },
{ "type": "Feature", "properties": { "内容": "丸山デイサービスセンターむかーし、昔。【地域密着型通所介護】長崎県長崎市丸山町2-6-4F4階", "url": "https://www.kaigokensaku.mhlw.go.jp/42/index.php?action_kouhyou_detail_004_kani=true&JigyosyoCd=4290101171-00&ServiceCd=780&Type=search", "url2": null }, "geometry": { "type": "Point", "coordinates": [ 129.88033889444273, 32.740842343810705 ] } },
{ "type": "Feature", "properties": { "内容": "デイサービス南越【地域密着型通所介護】長崎県長崎市南越町685番地", "url": "https://www.kaigokensaku.mhlw.go.jp/42/index.php?action_kouhyou_detail_004_kani=true&JigyosyoCd=4290101916-00&ServiceCd=780&Type=search", "url2": "http://nagasaki-omiyaclinic.com/" }, "geometry": { "type": "Point", "coordinates": [ 129.7636262, 32.5924236 ] } },
{ "type": "Feature", "properties": { "内容": "デイサービスセンターコム【地域密着型通所介護】長崎市旭町6番1号　タワーコート303A", "url": "https://www.kaigokensaku.mhlw.go.jp/42/index.php?action_kouhyou_detail_004_kani=true&JigyosyoCd=4290101635-00&ServiceCd=780&Type=search", "url2": null }, "geometry": { "type": "Point", "coordinates": [ 129.865019099999984, 32.7502505 ] } },
{ "type": "Feature", "properties": { "内容": "デイスパエール【地域密着型通所介護】長崎県長崎市岩屋１９番１５号", "url": "https://www.kaigokensaku.mhlw.go.jp/42/index.php?action_kouhyou_detail_004_kani=true&JigyosyoCd=4290101700-00&ServiceCd=780&Type=search", "url2": null }, "geometry": { "type": "Point", "coordinates": [ 129.852860103704813, 32.800893599652206 ] } },
{ "type": "Feature", "properties": { "内容": "シニアフィットネス長崎西山【地域密着型通所介護】長崎県長崎市西山2-12-14リハテックビル1階", "url": "https://www.kaigokensaku.mhlw.go.jp/42/index.php?action_kouhyou_detail_004_kani=true&JigyosyoCd=4290101296-00&ServiceCd=780&Type=search", "url2": null }, "geometry": { "type": "Point", "coordinates": [ 129.8864383, 32.7587601 ] } },
{ "type": "Feature", "properties": { "内容": "デイサービス　クローバー・ガーデン福田【地域密着型通所介護】長崎県長崎市大浜町846-22　小曽根ビル1階小曽根ビル　１階", "url": "https://www.kaigokensaku.mhlw.go.jp/42/index.php?action_kouhyou_detail_004_kani=true&JigyosyoCd=4290101668-00&ServiceCd=780&Type=search", "url2": "fujimoto-group.jp" }, "geometry": { "type": "Point", "coordinates": [ 129.832020505496217, 32.745419005288525 ] } },
{ "type": "Feature", "properties": { "内容": "介護予防デイサービス　クローバー・ガーデン【地域密着型通所介護】長崎県長崎市岩屋町26-21", "url": "https://www.kaigokensaku.mhlw.go.jp/42/index.php?action_kouhyou_detail_004_kani=true&JigyosyoCd=4290101403-00&ServiceCd=780&Type=search", "url2": "http://www.fujimoto‐group.jp" }, "geometry": { "type": "Point", "coordinates": [ 129.850508600000012, 32.8024265 ] } },
{ "type": "Feature", "properties": { "内容": "介護予防デイサービス　クローバー・ガーデン昭和町【地域密着型通所介護】昭和1-8-21", "url": "https://www.kaigokensaku.mhlw.go.jp/42/index.php?action_kouhyou_detail_004_kani=true&JigyosyoCd=4290101593-00&ServiceCd=780&Type=search", "url2": "https://www.fujimoto-group.jp" }, "geometry": { "type": "Point", "coordinates": [ 129.868848299999968, 32.7903027 ] } },
{ "type": "Feature", "properties": { "内容": "自立支援特化型デイサービス　リハステージ矢上【地域密着型通所介護】長崎県長崎市矢上町２５-５ハイグランデ矢上1階", "url": "https://www.kaigokensaku.mhlw.go.jp/42/index.php?action_kouhyou_detail_004_kani=true&JigyosyoCd=4290102062-00&ServiceCd=780&Type=search", "url2": "https://preview.studio.site/live/EjOQyDrXOJ/" }, "geometry": { "type": "Point", "coordinates": [ 129.9518318, 32.7767435 ] } },
{ "type": "Feature", "properties": { "内容": "デイサービスセンターささえ愛【地域密着型通所介護】長崎市手熊町312番地", "url": "https://www.kaigokensaku.mhlw.go.jp/42/index.php?action_kouhyou_detail_004_kani=true&JigyosyoCd=4290101734-00&ServiceCd=780&Type=search", "url2": "https://musashi.link/" }, "geometry": { "type": "Point", "coordinates": [ 129.800421601886313, 32.779321072694131 ] } },
{ "type": "Feature", "properties": { "内容": "SARUKU小ヶ倉【地域密着型通所介護】長崎県長崎市小ヶ倉町３丁目１２８", "url": "https://www.kaigokensaku.mhlw.go.jp/42/index.php?action_kouhyou_detail_004_kani=true&JigyosyoCd=4290101841-00&ServiceCd=780&Type=search", "url2": "https://sa-japan.co.jp/" }, "geometry": { "type": "Point", "coordinates": [ 129.8479261, 32.7030089 ] } },
{ "type": "Feature", "properties": { "内容": "地域デイサービスにじのいろ【地域密着型通所介護】長崎県長崎市戸石町２５４０－６", "url": "https://www.kaigokensaku.mhlw.go.jp/42/index.php?action_kouhyou_detail_004_kani=true&JigyosyoCd=4290101866-00&ServiceCd=780&Type=search", "url2": null }, "geometry": { "type": "Point", "coordinates": [ 129.9824678, 32.7622893 ] } },
{ "type": "Feature", "properties": { "内容": "介護支援センターながさき　デイサービス・ステーションうつつ川【地域密着型通所介護】長崎市現川町342-1", "url": "https://www.kaigokensaku.mhlw.go.jp/42/index.php?action_kouhyou_detail_004_kani=true&JigyosyoCd=4290102054-00&ServiceCd=780&Type=search", "url2": "https:/www.human-nw.com" }, "geometry": { "type": "Point", "coordinates": [ 129.930554199999989, 32.7927893 ] } },
{ "type": "Feature", "properties": { "内容": "介護支援センターながさき　リハステーションやよい【地域密着型通所介護】長崎県長崎市弥生町3番33号ヒューマンコミュニティやよい3階", "url": "https://www.kaigokensaku.mhlw.go.jp/42/index.php?action_kouhyou_detail_004_kani=true&JigyosyoCd=4290101981-00&ServiceCd=780&Type=search", "url2": "https://www.human-nw.com" }, "geometry": { "type": "Point", "coordinates": [ 129.8930398, 32.730839 ] } },
{ "type": "Feature", "properties": { "内容": "リハデイ　ココリ【地域密着型通所介護】長崎県長崎市田中町1546-2", "url": "https://www.kaigokensaku.mhlw.go.jp/42/index.php?action_kouhyou_detail_004_kani=true&JigyosyoCd=4290101767-00&ServiceCd=780&Type=search", "url2": null }, "geometry": { "type": "Point", "coordinates": [ 129.9471169, 32.7724831 ] } },
{ "type": "Feature", "properties": { "内容": "短時間デイサービスまごころ【地域密着型通所介護】長崎県長崎市布巻町88番地3", "url": "https://www.kaigokensaku.mhlw.go.jp/42/index.php?action_kouhyou_detail_004_kani=true&JigyosyoCd=4290101510-00&ServiceCd=780&Type=search", "url2": "https://www.tokiyoshi2018.com/" }, "geometry": { "type": "Point", "coordinates": [ 129.827383199999986, 32.6524084 ] } },
{ "type": "Feature", "properties": { "内容": "デイサービス　クローバー・ガーデンよつば【地域密着型通所介護】長崎県長崎市滑石5丁目9番38号", "url": "https://www.kaigokensaku.mhlw.go.jp/42/index.php?action_kouhyou_detail_004_kani=true&JigyosyoCd=4290102039-00&ServiceCd=780&Type=search", "url2": "https://www.fujimoto-group.jp/" }, "geometry": { "type": "Point", "coordinates": [ 129.8333136, 32.8041739 ] } },
{ "type": "Feature", "properties": { "内容": "青葉苑　通所介護事業所【地域密着型通所介護】長崎県長崎市戸町4丁目7番17号", "url": "https://www.kaigokensaku.mhlw.go.jp/42/index.php?action_kouhyou_detail_004_kani=true&JigyosyoCd=4290101726-00&ServiceCd=780&Type=search", "url2": "http://aoba-en.jp/" }, "geometry": { "type": "Point", "coordinates": [ 129.861249500000014, 32.7196392 ] } },
{ "type": "Feature", "properties": { "内容": "デイサービスセンターサンハイツ夢が丘【地域密着型通所介護】長崎県長崎市小江原5丁目25-10", "url": "https://www.kaigokensaku.mhlw.go.jp/42/index.php?action_kouhyou_detail_004_kani=true&JigyosyoCd=4290101361-00&ServiceCd=780&Type=search", "url2": "http://www.sanhaitsu.jp/" }, "geometry": { "type": "Point", "coordinates": [ 129.82105619999993, 32.7797869 ] } },
{ "type": "Feature", "properties": { "内容": "デイサービスセンター　鶴舞苑Ⅱ【地域密着型通所介護】長崎県長崎市大谷町４１８番地１", "url": "https://www.kaigokensaku.mhlw.go.jp/42/index.php?action_kouhyou_detail_004_kani=true&JigyosyoCd=4290101270-00&ServiceCd=780&Type=search", "url2": "kakubuen2day@nagasaki-kouseifukushidann.or.jp" }, "geometry": { "type": "Point", "coordinates": [ 129.851352200000065, 32.7486322 ] } },
{ "type": "Feature", "properties": { "内容": "デイサービスもみの木【地域密着型通所介護】長崎県長崎市片淵1-13-27", "url": "https://www.kaigokensaku.mhlw.go.jp/42/index.php?action_kouhyou_detail_004_kani=true&JigyosyoCd=4290101320-00&ServiceCd=780&Type=search", "url2": "http://www.shirayukikai.jp" }, "geometry": { "type": "Point", "coordinates": [ 129.886752300000012, 32.7547327 ] } },
{ "type": "Feature", "properties": { "内容": "デイサービスセンター　なでしこ荘【地域密着型通所介護】長崎県長崎市西山台２丁目３２番４７号", "url": "https://www.kaigokensaku.mhlw.go.jp/42/index.php?action_kouhyou_detail_004_kani=true&JigyosyoCd=4290101429-00&ServiceCd=780&Type=search", "url2": "http://www.nadeshikosou.com/" }, "geometry": { "type": "Point", "coordinates": [ 129.894389700000033, 32.7829049 ] } },
{ "type": "Feature", "properties": { "内容": "デイサービスりらいふ【地域密着型通所介護】長崎市琴海戸根町2925", "url": "https://www.kaigokensaku.mhlw.go.jp/42/index.php?action_kouhyou_detail_004_kani=true&JigyosyoCd=4290101486-00&ServiceCd=780&Type=search", "url2": null }, "geometry": { "type": "Point", "coordinates": [ 129.78723309999998, 32.8881234 ] } },
{ "type": "Feature", "properties": { "内容": "デイサービス　きんぎょ家【地域密着型通所介護】長崎県長崎市小ヶ倉町1丁目607番地", "url": "https://www.kaigokensaku.mhlw.go.jp/42/index.php?action_kouhyou_detail_004_kani=true&JigyosyoCd=4290101858-00&ServiceCd=780&Type=search", "url2": "http://h-well.co.jp" }, "geometry": { "type": "Point", "coordinates": [ 129.85148190000001, 32.7063537 ] } },
{ "type": "Feature", "properties": { "内容": "通所介護事業所　希楽Re【地域密着型通所介護】長崎県長崎市西海町1765-120", "url": "https://www.kaigokensaku.mhlw.go.jp/42/index.php?action_kouhyou_detail_004_kani=true&JigyosyoCd=4290102153-00&ServiceCd=780&Type=search", "url2": null }, "geometry": { "type": "Point", "coordinates": [ 129.79417628531948, 32.869522337104605 ] } },
{ "type": "Feature", "properties": { "内容": "二本松荘【地域密着型通所介護】長崎県長崎市戸町2丁目177番地28", "url": "https://www.kaigokensaku.mhlw.go.jp/42/index.php?action_kouhyou_detail_004_kani=true&JigyosyoCd=4290102161-00&ServiceCd=780&Type=search", "url2": "https://www.syunjyu-kai.or.jp/kaigo/nihonmatsusou/" }, "geometry": { "type": "Point", "coordinates": [ 129.869288, 32.7274267 ] } },
{ "type": "Feature", "properties": { "内容": "介護支援センターながさきリハステーションやよいⅡ【地域密着型通所介護】長崎市弥生町３番３３号", "url": "https://www.kaigokensaku.mhlw.go.jp/42/index.php?action_kouhyou_detail_004_kani=true&JigyosyoCd=4290102187-00&ServiceCd=780&Type=search", "url2": "https://www.human-nw.com/" }, "geometry": { "type": "Point", "coordinates": [ 129.8930398, 32.730839 ] } },
{ "type": "Feature", "properties": { "内容": "長崎ケアハートガーデン　デイサービス南長崎【地域密着型通所介護】長崎県長崎市竿浦町754番地1", "url": "https://www.kaigokensaku.mhlw.go.jp/42/index.php?action_kouhyou_detail_004_kani=true&JigyosyoCd=4290102195-00&ServiceCd=780&Type=search", "url2": "https://www.careheart-garden.com/facilities/nagasaki5.html" }, "geometry": { "type": "Point", "coordinates": [ 129.839370699999989, 32.6758086 ] } },
{ "type": "Feature", "properties": { "内容": "デイサービス　クローバー・ガーデン上小島【地域密着型通所介護】上小島5丁目2-13", "url": "https://www.kaigokensaku.mhlw.go.jp/42/index.php?action_kouhyou_detail_004_kani=true&JigyosyoCd=4290102260-00&ServiceCd=780&Type=search", "url2": "https://www.fujimoto-group.jp/office/rk/cg-kamikoshima" }, "geometry": { "type": "Point", "coordinates": [ 129.8871753, 32.7299575 ] } },
{ "type": "Feature", "properties": { "内容": "デイサービス　まごころ【地域密着型通所介護】長崎県長崎市京泊３丁目31-9松尾ビル　102号", "url": "https://www.kaigokensaku.mhlw.go.jp/42/index.php?action_kouhyou_detail_004_kani=true&JigyosyoCd=4290102104-00&ServiceCd=780&Type=search", "url2": "https://www.sanctuary-stc-2023.com" }, "geometry": { "type": "Point", "coordinates": [ 129.7725538, 32.8239312 ] } },
{ "type": "Feature", "properties": { "内容": "通所介護事業所れもん【地域密着型通所介護】長崎県長崎市小ヶ倉町2丁目667-19", "url": "https://www.kaigokensaku.mhlw.go.jp/42/index.php?action_kouhyou_detail_004_kani=true&JigyosyoCd=4270106620-00&ServiceCd=780&Type=search", "url2": "http://h-well.co.jp" }, "geometry": { "type": "Point", "coordinates": [ 129.854480700000067, 32.704703 ] } },
{ "type": "Feature", "properties": { "内容": "デイサービス風夢【地域密着型通所介護】京泊2丁目４－３７", "url": "https://www.kaigokensaku.mhlw.go.jp/42/index.php?action_kouhyou_detail_004_kani=true&JigyosyoCd=4270108196-00&ServiceCd=780&Type=search", "url2": "http://www.fumu.jp/" }, "geometry": { "type": "Point", "coordinates": [ 129.774227399999972, 32.8229764 ] } },
{ "type": "Feature", "properties": { "内容": "社会福祉法人　新生会　デイサービス　望星【地域密着型通所介護】長崎県長崎市岩屋町７４５番地４", "url": "https://www.kaigokensaku.mhlw.go.jp/42/index.php?action_kouhyou_detail_004_kani=true&JigyosyoCd=4270103809-00&ServiceCd=780&Type=search", "url2": "https://bouseisou.jp/" }, "geometry": { "type": "Point", "coordinates": [ 129.845267700000022, 32.7948607 ] } },
{ "type": "Feature", "properties": { "内容": "デイサービスあづまや。。【地域密着型通所介護】長崎県長崎市東町1732-1", "url": "https://www.kaigokensaku.mhlw.go.jp/42/index.php?action_kouhyou_detail_004_kani=true&JigyosyoCd=4290102278-00&ServiceCd=780&Type=search", "url2": null }, "geometry": { "type": "Point", "coordinates": [ 129.954835635581958, 32.777129143011649 ] } },
{ "type": "Feature", "properties": { "内容": "SARUKU城栄【地域密着型通所介護】長崎県長崎市城栄町１７－１４", "url": "https://www.kaigokensaku.mhlw.go.jp/42/index.php?action_kouhyou_detail_004_kani=true&JigyosyoCd=4290102096-00&ServiceCd=780&Type=search", "url2": "https://sa-japan.co.jp/" }, "geometry": { "type": "Point", "coordinates": [ 129.8576506, 32.7749662 ] } },
{ "type": "Feature", "properties": { "内容": "デイサービス小菅【地域密着型通所介護】長崎県長崎市小菅町15番1号", "url": "https://www.kaigokensaku.mhlw.go.jp/42/index.php?action_kouhyou_detail_004_kani=true&JigyosyoCd=4290101205-00&ServiceCd=780&Type=search", "url2": null }, "geometry": { "type": "Point", "coordinates": [ 129.863026799999943, 32.7259791 ] } },
{ "type": "Feature", "properties": { "内容": "りはびりデイなかぞの【地域密着型通所介護】長崎県長崎市中園町８番１０号サントピア中園201", "url": "https://www.kaigokensaku.mhlw.go.jp/42/index.php?action_kouhyou_detail_004_kani=true&JigyosyoCd=4270107206-00&ServiceCd=780&Type=search", "url2": "http://e-reset.co.jp" }, "geometry": { "type": "Point", "coordinates": [ 129.858728199999973, 32.791275200000022 ] } },
{ "type": "Feature", "properties": { "内容": "デイサロン結【地域密着型通所介護】為石町2524さんとぴあ21", "url": "https://www.kaigokensaku.mhlw.go.jp/42/index.php?action_kouhyou_detail_004_kani=true&JigyosyoCd=4290101692-00&ServiceCd=780&Type=search", "url2": null }, "geometry": { "type": "Point", "coordinates": [ 129.8380914, 32.6394227 ] } },
{ "type": "Feature", "properties": { "内容": "デイサービス暖らんリビング【地域密着型通所介護】長崎県長崎市川平町１１９９番地", "url": "https://www.kaigokensaku.mhlw.go.jp/42/index.php?action_kouhyou_detail_004_kani=true&JigyosyoCd=4270108246-00&ServiceCd=780&Type=search", "url2": "http://rakuten-care.jp" }, "geometry": { "type": "Point", "coordinates": [ 129.880018299999961, 32.7939311 ] } },
{ "type": "Feature", "properties": { "内容": "リハビリテーション　ラシクル【地域密着型通所介護】長崎県長崎市エミネント葉山町4-6", "url": "https://www.kaigokensaku.mhlw.go.jp/42/index.php?action_kouhyou_detail_004_kani=true&JigyosyoCd=4290101932-00&ServiceCd=780&Type=search", "url2": "https://lifecreate.info/" }, "geometry": { "type": "Point", "coordinates": [ 129.8453687, 32.7999525 ] } },
{ "type": "Feature", "properties": { "内容": "ピースクラブ深堀【地域密着型通所介護】長崎県長崎市深堀町１丁目２９３番１９", "url": "https://www.kaigokensaku.mhlw.go.jp/42/index.php?action_kouhyou_detail_004_kani=true&JigyosyoCd=4290101676-00&ServiceCd=780&Type=search", "url2": null }, "geometry": { "type": "Point", "coordinates": [ 129.8295647, 32.6826576 ] } },
{ "type": "Feature", "properties": { "内容": "ことぶきデイサービスセンター桜馬場【地域密着型通所介護】長崎県佐世保市日宇町2618－2", "url": "https://www.kaigokensaku.mhlw.go.jp/42/index.php?action_kouhyou_detail_004_kani=true&JigyosyoCd=4270204045-00&ServiceCd=780&Type=search", "url2": "http://kaigo-kotobuki.com" }, "geometry": { "type": "Point", "coordinates": [ 129.7638677, 33.1598989 ] } },
{ "type": "Feature", "properties": { "内容": "いちょうクリニックデイサービス【地域密着型通所介護】長崎県佐世保市赤崎町２９８番地いちょうクリニック", "url": "https://www.kaigokensaku.mhlw.go.jp/42/index.php?action_kouhyou_detail_004_kani=true&JigyosyoCd=4270200985-00&ServiceCd=780&Type=search", "url2": null }, "geometry": { "type": "Point", "coordinates": [ 129.693737700000042, 33.1595089 ] } },
{ "type": "Feature", "properties": { "内容": "デイサービス　澄海【地域密着型通所介護】長崎県佐世保市小佐世保町415-8", "url": "https://www.kaigokensaku.mhlw.go.jp/42/index.php?action_kouhyou_detail_004_kani=true&JigyosyoCd=4270204375-00&ServiceCd=780&Type=search", "url2": "http://allblue-fukushi.co.jp/" }, "geometry": { "type": "Point", "coordinates": [ 129.737994399999934, 33.1733775 ] } },
{ "type": "Feature", "properties": { "内容": "医療法人　梶田医院　デイサービス大塔【地域密着型通所介護】長崎県佐世保市田の浦町5番41号", "url": "https://www.kaigokensaku.mhlw.go.jp/42/index.php?action_kouhyou_detail_004_kani=true&JigyosyoCd=4270204029-00&ServiceCd=780&Type=search", "url2": "http://daitohome.ec-net.jp/" }, "geometry": { "type": "Point", "coordinates": [ 129.785585800000035, 33.1435705 ] } },
{ "type": "Feature", "properties": { "内容": "デイサービスセンターひろた【地域密着型通所介護】長崎県佐世保市広田１丁目４番７号", "url": "https://www.kaigokensaku.mhlw.go.jp/42/index.php?action_kouhyou_detail_004_kani=true&JigyosyoCd=4270202486-00&ServiceCd=780&Type=search", "url2": null }, "geometry": { "type": "Point", "coordinates": [ 129.800067899999931, 33.1303166 ] } },
{ "type": "Feature", "properties": { "内容": "医療法人社団真友会藤井医院　デイサービスみどり【地域密着型通所介護】長崎県佐世保市中通町１７番地２２", "url": "https://www.kaigokensaku.mhlw.go.jp/42/index.php?action_kouhyou_detail_004_kani=true&JigyosyoCd=4270202841-00&ServiceCd=780&Type=search", "url2": null }, "geometry": { "type": "Point", "coordinates": [ 129.711952, 33.186137 ] } },
{ "type": "Feature", "properties": { "内容": "デイサービスゆうゆう【地域密着型通所介護】長崎県佐世保市広田1-8-27", "url": "https://www.kaigokensaku.mhlw.go.jp/42/index.php?action_kouhyou_detail_004_kani=true&JigyosyoCd=4270203476-00&ServiceCd=780&Type=search", "url2": "https://www.youyou070701.com" }, "geometry": { "type": "Point", "coordinates": [ 129.801709399999936, 33.1293806 ] } },
{ "type": "Feature", "properties": { "内容": "デイサービスセンター　千ノ花【地域密着型通所介護】長崎県佐世保市天神3丁目600番地20", "url": "https://www.kaigokensaku.mhlw.go.jp/42/index.php?action_kouhyou_detail_004_kani=true&JigyosyoCd=4270204128-00&ServiceCd=780&Type=search", "url2": "https://www.senka-sasebo.com/60017092/wp-admin/index.php" }, "geometry": { "type": "Point", "coordinates": [ 129.742576178400299, 33.147633674148466 ] } },
{ "type": "Feature", "properties": { "内容": "通所介護事業所えびす【地域密着型通所介護】長崎県佐世保市天神5丁目9番25号幼老統合ケア施設えびす", "url": "https://www.kaigokensaku.mhlw.go.jp/42/index.php?action_kouhyou_detail_004_kani=true&JigyosyoCd=4270204623-00&ServiceCd=780&Type=search", "url2": "https://ks-ebisu.co.jp/" }, "geometry": { "type": "Point", "coordinates": [ 129.737269482820665, 33.144884036072646 ] } },
{ "type": "Feature", "properties": { "内容": "デイサービス　楠の木【地域密着型通所介護】長崎県佐世保市楠木町609番地8", "url": "https://www.kaigokensaku.mhlw.go.jp/42/index.php?action_kouhyou_detail_004_kani=true&JigyosyoCd=4270203468-00&ServiceCd=780&Type=search", "url2": null }, "geometry": { "type": "Point", "coordinates": [ 129.72220040000002, 33.2194034 ] } },
{ "type": "Feature", "properties": { "内容": "デイホーム　はなとき（花時間）【地域密着型通所介護】長崎県佐世保市針尾北町７４２ー６", "url": "https://www.kaigokensaku.mhlw.go.jp/42/index.php?action_kouhyou_detail_004_kani=true&JigyosyoCd=4270203054-00&ServiceCd=780&Type=search", "url2": "http://www.sakanaba.com/dayservice.html" }, "geometry": { "type": "Point", "coordinates": [ 129.757808100000034, 33.0983543 ] } },
{ "type": "Feature", "properties": { "内容": "特定非営利活動法人つくも福祉グループみはらし【地域密着型通所介護】長崎県佐世保市大和町1507-2", "url": "https://www.kaigokensaku.mhlw.go.jp/42/index.php?action_kouhyou_detail_004_kani=true&JigyosyoCd=4270201074-00&ServiceCd=780&Type=search", "url2": null }, "geometry": { "type": "Point", "coordinates": [ 129.753335200000038, 33.1657536 ] } },
{ "type": "Feature", "properties": { "内容": "デイサービス　サポート福寿　花高【地域密着型通所介護】花高４丁目７－１２", "url": "https://www.kaigokensaku.mhlw.go.jp/42/index.php?action_kouhyou_detail_004_kani=true&JigyosyoCd=4270204565-00&ServiceCd=780&Type=search", "url2": null }, "geometry": { "type": "Point", "coordinates": [ 129.812133, 33.139035600000014 ] } },
{ "type": "Feature", "properties": { "内容": "リハプライド佐世保日宇【地域密着型通所介護】長崎県佐世保市日宇町695-6大久保第二ビル１階", "url": "https://www.kaigokensaku.mhlw.go.jp/42/index.php?action_kouhyou_detail_004_kani=true&JigyosyoCd=4270204615-00&ServiceCd=780&Type=search", "url2": "http://www.rehapride.co.jp/sasebohiu/" }, "geometry": { "type": "Point", "coordinates": [ 129.758754800000048, 33.1586125 ] } },
{ "type": "Feature", "properties": { "内容": "トレーニング型デイサービスセンターLULU【地域密着型通所介護】長崎県佐世保市野中町62-34", "url": "https://www.kaigokensaku.mhlw.go.jp/42/index.php?action_kouhyou_detail_004_kani=true&JigyosyoCd=4290201377-00&ServiceCd=780&Type=search", "url2": "https://day-lulu.com" }, "geometry": { "type": "Point", "coordinates": [ 129.70671040000002, 33.2118569 ] } },
{ "type": "Feature", "properties": { "内容": "トレーニング特化型　元気になるデイサービス【地域密着型通所介護】長崎県佐世保市横尾町2395－1", "url": "https://www.kaigokensaku.mhlw.go.jp/42/index.php?action_kouhyou_detail_004_kani=true&JigyosyoCd=4290201435-00&ServiceCd=780&Type=search", "url2": null }, "geometry": { "type": "Point", "coordinates": [ 129.71960839999997, 33.2002637 ] } },
{ "type": "Feature", "properties": { "内容": "デイサービスセンターさくらプレイス広田【地域密着型通所介護】長崎県佐世保市広田4丁目3番１号", "url": "https://www.kaigokensaku.mhlw.go.jp/42/index.php?action_kouhyou_detail_004_kani=true&JigyosyoCd=4290201260-00&ServiceCd=780&Type=search", "url2": null }, "geometry": { "type": "Point", "coordinates": [ 129.794889099999978, 33.1248752 ] } },
{ "type": "Feature", "properties": { "内容": "デイサービス　ピース【地域密着型通所介護】長崎県佐世保市原分町1798-5", "url": "https://www.kaigokensaku.mhlw.go.jp/42/index.php?action_kouhyou_detail_004_kani=true&JigyosyoCd=4290201286-00&ServiceCd=780&Type=search", "url2": "http://allblue-fukushi.co.jp/" }, "geometry": { "type": "Point", "coordinates": [ 129.725103100000069, 33.2163732 ] } },
{ "type": "Feature", "properties": { "内容": "デイサービスセンター　名切の里【地域密着型通所介護】長崎県佐世保市名切町313番地1", "url": "https://www.kaigokensaku.mhlw.go.jp/42/index.php?action_kouhyou_detail_004_kani=true&JigyosyoCd=4290201542-00&ServiceCd=780&Type=search", "url2": "https://www.senka-sasebo.com.//60017092/wp-admin/index.php" }, "geometry": { "type": "Point", "coordinates": [ 129.728254099999987, 33.1813267 ] } },
{ "type": "Feature", "properties": { "内容": "共生型サービス事業所　ウィズ・ユー【地域密着型通所介護】長崎県佐世保市三浦町4-30松蔵ビル1F", "url": "https://www.kaigokensaku.mhlw.go.jp/42/index.php?action_kouhyou_detail_004_kani=true&JigyosyoCd=4290201419-00&ServiceCd=780&Type=search", "url2": "https://withyou.ltd" }, "geometry": { "type": "Point", "coordinates": [ 129.726556, 33.1656116 ] } },
{ "type": "Feature", "properties": { "内容": "ポラリスデイサービスセンター佐世保【地域密着型通所介護】長崎県佐世保市早岐1丁目3-14", "url": "https://www.kaigokensaku.mhlw.go.jp/42/index.php?action_kouhyou_detail_004_kani=true&JigyosyoCd=4290201526-00&ServiceCd=780&Type=search", "url2": "https://www.polaris.care/office/detail.php?no=MTE4" }, "geometry": { "type": "Point", "coordinates": [ 129.797624500000012, 33.1342587 ] } },
{ "type": "Feature", "properties": { "内容": "合同会社あかり【地域密着型通所介護】吉井町橋川内４０５－８", "url": "https://www.kaigokensaku.mhlw.go.jp/42/index.php?action_kouhyou_detail_004_kani=true&JigyosyoCd=4290201245-00&ServiceCd=780&Type=search", "url2": null }, "geometry": { "type": "Point", "coordinates": [ 129.71242152218565, 33.269236104921561 ] } },
{ "type": "Feature", "properties": { "内容": "社会福祉法人寛寿会（海南荘）【地域密着型通所介護】長崎県佐世保市俵ヶ浦町２１０", "url": "https://www.kaigokensaku.mhlw.go.jp/42/index.php?action_kouhyou_detail_004_kani=true&JigyosyoCd=4290201484-00&ServiceCd=780&Type=search", "url2": "http://www.kainansou.com/" }, "geometry": { "type": "Point", "coordinates": [ 129.6800537, 33.1179489 ] } },
{ "type": "Feature", "properties": { "内容": "デイサービスくろしま【地域密着型通所介護】長崎県佐世保市黒島町1137番地", "url": "https://www.kaigokensaku.mhlw.go.jp/42/index.php?action_kouhyou_detail_004_kani=true&JigyosyoCd=4290201450-00&ServiceCd=780&Type=search", "url2": null }, "geometry": { "type": "Point", "coordinates": [ 129.537610099999938, 33.1444516 ] } },
{ "type": "Feature", "properties": { "内容": "グッドリハブ　天満店【地域密着型通所介護】長崎県佐世保市天満町3-9藤田ビル101号室", "url": "https://www.kaigokensaku.mhlw.go.jp/42/index.php?action_kouhyou_detail_004_kani=true&JigyosyoCd=4290201633-00&ServiceCd=780&Type=search", "url2": null }, "geometry": { "type": "Point", "coordinates": [ 129.714674699999989, 33.177289 ] } },
{ "type": "Feature", "properties": { "内容": "トータルデイサービス安心院Ⅱ【地域密着型通所介護】長崎県佐世保市広田町718番地1", "url": "https://www.kaigokensaku.mhlw.go.jp/42/index.php?action_kouhyou_detail_004_kani=true&JigyosyoCd=4270204110-00&ServiceCd=780&Type=search", "url2": null }, "geometry": { "type": "Point", "coordinates": [ 129.805917300000033, 33.1235396 ] } },
{ "type": "Feature", "properties": { "内容": "トータルデイサービス　安心院【地域密着型通所介護】長崎県佐世保市有福町4178-1", "url": "https://www.kaigokensaku.mhlw.go.jp/42/index.php?action_kouhyou_detail_004_kani=true&JigyosyoCd=4270203799-00&ServiceCd=780&Type=search", "url2": null }, "geometry": { "type": "Point", "coordinates": [ 129.79083, 33.1349881 ] } },
{ "type": "Feature", "properties": { "内容": "デイサービスセンター輪【地域密着型通所介護】長崎県佐世保市早岐１丁目5-10", "url": "https://www.kaigokensaku.mhlw.go.jp/42/index.php?action_kouhyou_detail_004_kani=true&JigyosyoCd=4270204730-00&ServiceCd=780&Type=search", "url2": null }, "geometry": { "type": "Point", "coordinates": [ 129.797424055225378, 33.135493115884927 ] } },
{ "type": "Feature", "properties": { "内容": "リハプライド佐世保天満【地域密着型通所介護】長崎県佐世保市天満町３番２３号ル・モント・ジョリ天満１０１号室", "url": "https://www.kaigokensaku.mhlw.go.jp/42/index.php?action_kouhyou_detail_004_kani=true&JigyosyoCd=4270204557-00&ServiceCd=780&Type=search", "url2": "https://www.rehapride.co.jp/sasebotenma/" }, "geometry": { "type": "Point", "coordinates": [ 129.715196200000037, 33.1772628 ] } },
{ "type": "Feature", "properties": { "内容": "トレーニング・リハ相浦【地域密着型通所介護】長崎県佐世保市川下町165番地1", "url": "https://www.kaigokensaku.mhlw.go.jp/42/index.php?action_kouhyou_detail_004_kani=true&JigyosyoCd=4290201336-00&ServiceCd=780&Type=search", "url2": null }, "geometry": { "type": "Point", "coordinates": [ 129.6677257, 33.188928 ] } },
{ "type": "Feature", "properties": { "内容": "デイサービスセンター老福荘【地域密着型通所介護】長崎県佐世保市江迎町赤坂282-24", "url": "https://www.kaigokensaku.mhlw.go.jp/42/index.php?action_kouhyou_detail_004_kani=true&JigyosyoCd=4290201559-00&ServiceCd=780&Type=search", "url2": "https://hakujukai.com/emukae/pages/37/" }, "geometry": { "type": "Point", "coordinates": [ 129.640445, 33.2968998 ] } },
{ "type": "Feature", "properties": { "内容": "ほのほのの家地域密着型通所介護事業所【地域密着型通所介護】長崎県佐世保市横尾町1676-2", "url": "https://www.kaigokensaku.mhlw.go.jp/42/index.php?action_kouhyou_detail_004_kani=true&JigyosyoCd=4290201575-00&ServiceCd=780&Type=search", "url2": null }, "geometry": { "type": "Point", "coordinates": [ 129.7111401, 33.1970235 ] } },
{ "type": "Feature", "properties": { "内容": "デイサービスなごやか【地域密着型通所介護】長崎県佐世保市藤原町12-19", "url": "https://www.kaigokensaku.mhlw.go.jp/42/index.php?action_kouhyou_detail_004_kani=true&JigyosyoCd=4270202734-00&ServiceCd=780&Type=search", "url2": null }, "geometry": { "type": "Point", "coordinates": [ 129.73981660000004, 33.1635924 ] } },
{ "type": "Feature", "properties": { "内容": "個別リハビリ特化型ディサービスがんばReha【地域密着型通所介護】長崎県島原市桜門町2681-3", "url": "https://www.kaigokensaku.mhlw.go.jp/42/index.php?action_kouhyou_detail_004_kani=true&JigyosyoCd=4290301011-00&ServiceCd=780&Type=search", "url2": "http://hp.kaipoke.biz/yyw" }, "geometry": { "type": "Point", "coordinates": [ 130.3613861, 32.7942724 ] } },
{ "type": "Feature", "properties": { "内容": "医療法人社団東洋会　リハサポート２【地域密着型通所介護】長崎県島原市加美町９９９番地", "url": "https://www.kaigokensaku.mhlw.go.jp/42/index.php?action_kouhyou_detail_004_kani=true&JigyosyoCd=4270300900-00&ServiceCd=780&Type=search", "url2": "http://www.ikeda-hp.or.jp/" }, "geometry": { "type": "Point", "coordinates": [ 130.368194499999959, 32.7848946 ] } },
{ "type": "Feature", "properties": { "内容": "デイサービス美笑【地域密着型通所介護】長崎県島原市山寺町丙３５５－３", "url": "https://www.kaigokensaku.mhlw.go.jp/42/index.php?action_kouhyou_detail_004_kani=true&JigyosyoCd=4270300967-00&ServiceCd=780&Type=search", "url2": null }, "geometry": { "type": "Point", "coordinates": [ 130.3520499, 32.8081673 ] } },
{ "type": "Feature", "properties": { "内容": "デイサロン葵【地域密着型通所介護】長崎県島原市新湊２丁目丙１７１３番地３２", "url": "https://www.kaigokensaku.mhlw.go.jp/42/index.php?action_kouhyou_detail_004_kani=true&JigyosyoCd=4270301098-00&ServiceCd=780&Type=search", "url2": "http://www.shimabara.jp/kinedukanosato/" }, "geometry": { "type": "Point", "coordinates": [ 130.361768200000029, 32.7605247 ] } },
{ "type": "Feature", "properties": { "内容": "デイホーム輪が家【地域密着型通所介護】長崎県島原市浜の町丁182番地", "url": "https://www.kaigokensaku.mhlw.go.jp/42/index.php?action_kouhyou_detail_004_kani=true&JigyosyoCd=4270301080-00&ServiceCd=780&Type=search", "url2": null }, "geometry": { "type": "Point", "coordinates": [ 130.366692599999965, 32.7677349 ] } },
{ "type": "Feature", "properties": { "内容": "デイサービス和心【地域密着型通所介護】長崎県島原市緑町9178-1", "url": "https://www.kaigokensaku.mhlw.go.jp/42/index.php?action_kouhyou_detail_004_kani=true&JigyosyoCd=4270300991-00&ServiceCd=780&Type=search", "url2": null }, "geometry": { "type": "Point", "coordinates": [ 130.36211789999993, 32.7673822 ] } },
{ "type": "Feature", "properties": { "内容": "医療法人　重眞会　通所介護ひかり【地域密着型通所介護】長崎県島原市中野町丙３０番地７", "url": "https://www.kaigokensaku.mhlw.go.jp/42/index.php?action_kouhyou_detail_004_kani=true&JigyosyoCd=4290300989-00&ServiceCd=780&Type=search", "url2": null }, "geometry": { "type": "Point", "coordinates": [ 130.350041799999985, 32.8274684 ] } },
{ "type": "Feature", "properties": { "内容": "健康生活サポート事業ひととき。【地域密着型通所介護】長崎県島原市白土町1071-4", "url": "https://www.kaigokensaku.mhlw.go.jp/42/index.php?action_kouhyou_detail_004_kani=true&JigyosyoCd=4290301029-00&ServiceCd=780&Type=search", "url2": "https://footcare-nagasaki.com/" }, "geometry": { "type": "Point", "coordinates": [ 130.36752622158545, 32.780289094291483 ] } },
{ "type": "Feature", "properties": { "内容": "デイサービス洗心庵【地域密着型通所介護】長崎県諫早市森山町慶師野793番地", "url": "https://www.kaigokensaku.mhlw.go.jp/42/index.php?action_kouhyou_detail_004_kani=true&JigyosyoCd=4290400417-00&ServiceCd=780&Type=search", "url2": null }, "geometry": { "type": "Point", "coordinates": [ 130.1196519, 32.8238161 ] } },
{ "type": "Feature", "properties": { "内容": "デイサービスセンターたかき【地域密着型通所介護】長崎県諫早市高来町峰179番地", "url": "https://www.kaigokensaku.mhlw.go.jp/42/index.php?action_kouhyou_detail_004_kani=true&JigyosyoCd=4270401468-00&ServiceCd=780&Type=search", "url2": null }, "geometry": { "type": "Point", "coordinates": [ 130.108080100000052, 32.8933704 ] } },
{ "type": "Feature", "properties": { "内容": "デイサービス　ほたる【地域密着型通所介護】長崎県諫早市高来町黒崎79番地-3住宅型有料老人ホーム　ひまわり", "url": "https://www.kaigokensaku.mhlw.go.jp/42/index.php?action_kouhyou_detail_004_kani=true&JigyosyoCd=4290400219-00&ServiceCd=780&Type=search", "url2": "https://wakeikai.jp/" }, "geometry": { "type": "Point", "coordinates": [ 130.13218489999997, 32.9040362 ] } },
{ "type": "Feature", "properties": { "内容": "デイサービス福の家【地域密着型通所介護】諫早市福田町38-41", "url": "https://www.kaigokensaku.mhlw.go.jp/42/index.php?action_kouhyou_detail_004_kani=true&JigyosyoCd=4290400300-00&ServiceCd=780&Type=search", "url2": null }, "geometry": { "type": "Point", "coordinates": [ 130.062427800000023, 32.8515708 ] } },
{ "type": "Feature", "properties": { "内容": "デイサービスセンタースリーサポート【地域密着型通所介護】長崎県諫早市真崎町1738番地1", "url": "https://www.kaigokensaku.mhlw.go.jp/42/index.php?action_kouhyou_detail_004_kani=true&JigyosyoCd=4290400474-00&ServiceCd=780&Type=search", "url2": "https://isahaya-3sk.org" }, "geometry": { "type": "Point", "coordinates": [ 130.0300411, 32.8534336 ] } },
{ "type": "Feature", "properties": { "内容": "リハビリテーション　あいのわ　デイサービス【地域密着型通所介護】長崎県諫早市山川町2-6リハビリテーション　あいのわ　デイサービス", "url": "https://www.kaigokensaku.mhlw.go.jp/42/index.php?action_kouhyou_detail_004_kani=true&JigyosyoCd=4270402938-00&ServiceCd=780&Type=search", "url2": "http://www.reha-ainowa.co.jp" }, "geometry": { "type": "Point", "coordinates": [ 130.024079372551654, 32.846683524265288 ] } },
{ "type": "Feature", "properties": { "内容": "デイサービスみすず【地域密着型通所介護】長崎県諫早市多良見町中里1738番地1", "url": "https://www.kaigokensaku.mhlw.go.jp/42/index.php?action_kouhyou_detail_004_kani=true&JigyosyoCd=4270402946-00&ServiceCd=780&Type=search", "url2": null }, "geometry": { "type": "Point", "coordinates": [ 129.974467294056694, 32.828213704096754 ] } },
{ "type": "Feature", "properties": { "内容": "デイサービスセンター　しあわせ【地域密着型通所介護】長崎県諫早市堂崎町１５－１４", "url": "https://www.kaigokensaku.mhlw.go.jp/42/index.php?action_kouhyou_detail_004_kani=true&JigyosyoCd=4270401765-00&ServiceCd=780&Type=search", "url2": "http://www.joya.or.jp/siawase/" }, "geometry": { "type": "Point", "coordinates": [ 130.015789, 32.844512 ] } },
{ "type": "Feature", "properties": { "内容": "デイサービス　小江の里【地域密着型通所介護】長崎県諫早市高来町下与４３３番地", "url": "https://www.kaigokensaku.mhlw.go.jp/42/index.php?action_kouhyou_detail_004_kani=true&JigyosyoCd=4270402797-00&ServiceCd=780&Type=search", "url2": "http://oenosato.daa.jp/" }, "geometry": { "type": "Point", "coordinates": [ 130.1138681, 32.8942844 ] } },
{ "type": "Feature", "properties": { "内容": "ミニデイサービス　かめの家【地域密着型通所介護】長崎県諫早市久山町1751番地", "url": "https://www.kaigokensaku.mhlw.go.jp/42/index.php?action_kouhyou_detail_004_kani=true&JigyosyoCd=4270402961-00&ServiceCd=780&Type=search", "url2": null }, "geometry": { "type": "Point", "coordinates": [ 130.002645150926242, 32.833216749349482 ] } },
{ "type": "Feature", "properties": { "内容": "デイサービス　こもれび【地域密着型通所介護】長崎県　諫早市　小船越町　792-2", "url": "https://www.kaigokensaku.mhlw.go.jp/42/index.php?action_kouhyou_detail_004_kani=true&JigyosyoCd=4270403092-00&ServiceCd=780&Type=search", "url2": "day.k5151@gmail.com" }, "geometry": { "type": "Point", "coordinates": [ 130.029871400000047, 32.8452622 ] } },
{ "type": "Feature", "properties": { "内容": "株式会社優愛福祉サービス　デイサービスさくら草【地域密着型通所介護】長崎県諫早市小豆崎町530-1", "url": "https://www.kaigokensaku.mhlw.go.jp/42/index.php?action_kouhyou_detail_004_kani=true&JigyosyoCd=4270401740-00&ServiceCd=780&Type=search", "url2": "なし" }, "geometry": { "type": "Point", "coordinates": [ 130.069873963209233, 32.854631615411741 ] } },
{ "type": "Feature", "properties": { "内容": "株式会社　優愛福祉サービス　デイサービス　やまぶき【地域密着型通所介護】長崎県諫早市白岩町15番地21", "url": "https://www.kaigokensaku.mhlw.go.jp/42/index.php?action_kouhyou_detail_004_kani=true&JigyosyoCd=4270402813-00&ServiceCd=780&Type=search", "url2": null }, "geometry": { "type": "Point", "coordinates": [ 130.020613499999968, 32.8478869 ] } },
{ "type": "Feature", "properties": { "内容": "地域密着型デイサービス　あかり【地域密着型通所介護】長崎県諫早市栗面町８１４番地", "url": "https://www.kaigokensaku.mhlw.go.jp/42/index.php?action_kouhyou_detail_004_kani=true&JigyosyoCd=4270402607-00&ServiceCd=780&Type=search", "url2": "http://isahaya-akari.jimdo.com/" }, "geometry": { "type": "Point", "coordinates": [ 130.048878800000011, 32.8322334 ] } },
{ "type": "Feature", "properties": { "内容": "まごころデイサービス事業所【地域密着型通所介護】長崎県諫早市福田町23番3号", "url": "https://www.kaigokensaku.mhlw.go.jp/42/index.php?action_kouhyou_detail_004_kani=true&JigyosyoCd=4270401260-00&ServiceCd=780&Type=search", "url2": null }, "geometry": { "type": "Point", "coordinates": [ 130.062952699999983, 32.8504488 ] } },
{ "type": "Feature", "properties": { "内容": "特定非営利活動法人諌早なかよし村２１このゆびとまれ【地域密着型通所介護】長崎県諫早市福田町４４３－１", "url": "https://www.kaigokensaku.mhlw.go.jp/42/index.php?action_kouhyou_detail_004_kani=true&JigyosyoCd=4270400718-00&ServiceCd=780&Type=search", "url2": "http://www.isahaya-konoyubitomare.com/" }, "geometry": { "type": "Point", "coordinates": [ 130.061315072213773, 32.854254000975992 ] } },
{ "type": "Feature", "properties": { "内容": "デイサービスセンター　ひなたぼっこ【地域密着型通所介護】長崎県諫早市八天町１７番３３号102号", "url": "https://www.kaigokensaku.mhlw.go.jp/42/index.php?action_kouhyou_detail_004_kani=true&JigyosyoCd=4270402326-00&ServiceCd=780&Type=search", "url2": null }, "geometry": { "type": "Point", "coordinates": [ 130.05858314909915, 32.847260097678443 ] } },
{ "type": "Feature", "properties": { "内容": "リハビリコミュニティリラク【地域密着型通所介護】長崎県諫早市馬渡町7番地6", "url": "https://www.kaigokensaku.mhlw.go.jp/42/index.php?action_kouhyou_detail_004_kani=true&JigyosyoCd=4270402748-00&ServiceCd=780&Type=search", "url2": "http://rihabirinoki.jp" }, "geometry": { "type": "Point", "coordinates": [ 130.022534349073794, 32.841905140527381 ] } },
{ "type": "Feature", "properties": { "内容": "リハビリテーションケア　デイサービス利楽【地域密着型通所介護】長崎県諫早市白岩町27番地3", "url": "https://www.kaigokensaku.mhlw.go.jp/42/index.php?action_kouhyou_detail_004_kani=true&JigyosyoCd=4270402417-00&ServiceCd=780&Type=search", "url2": "http://rihabirinoki.jp/" }, "geometry": { "type": "Point", "coordinates": [ 130.019033, 32.8498784 ] } },
{ "type": "Feature", "properties": { "内容": "デイサービスセンター　ゆるり【地域密着型通所介護】長崎県諫早市栗面町810番地2", "url": "https://www.kaigokensaku.mhlw.go.jp/42/index.php?action_kouhyou_detail_004_kani=true&JigyosyoCd=4270401401-00&ServiceCd=780&Type=search", "url2": "H.P:http://hp.kaipoke.biz/zp3/" }, "geometry": { "type": "Point", "coordinates": [ 130.047615, 32.831939 ] } },
{ "type": "Feature", "properties": { "内容": "リハビリテーションあいのわupデイサービス【地域密着型通所介護】長崎県諫早市大さこ町３００番地イオンタウン諫早西武台", "url": "https://www.kaigokensaku.mhlw.go.jp/42/index.php?action_kouhyou_detail_004_kani=true&JigyosyoCd=4290400334-00&ServiceCd=780&Type=search", "url2": null }, "geometry": { "type": "Point", "coordinates": [ 130.02415368769681, 32.858235775726726 ] } },
{ "type": "Feature", "properties": { "内容": "あいのわLabデイサービス【地域密着型通所介護】長崎県諫早市幸町52-7", "url": "https://www.kaigokensaku.mhlw.go.jp/42/index.php?action_kouhyou_detail_004_kani=true&JigyosyoCd=4290400508-00&ServiceCd=780&Type=search", "url2": "https://www.reha-ainowa.co.jp/top/" }, "geometry": { "type": "Point", "coordinates": [ 130.068296800000013, 32.8389639 ] } },
{ "type": "Feature", "properties": { "内容": "デイサービス　ヤマト【地域密着型通所介護】長崎県諌早市久山台60－7", "url": "https://www.kaigokensaku.mhlw.go.jp/42/index.php?action_kouhyou_detail_004_kani=true&JigyosyoCd=4290400441-00&ServiceCd=780&Type=search", "url2": null }, "geometry": { "type": "Point", "coordinates": [ 129.9944873, 32.8258947 ] } },
{ "type": "Feature", "properties": { "内容": "デイサービス　アイ-フィット【地域密着型通所介護】長崎県諫早市福田町38-51", "url": "https://www.kaigokensaku.mhlw.go.jp/42/index.php?action_kouhyou_detail_004_kani=true&JigyosyoCd=4290400466-00&ServiceCd=780&Type=search", "url2": "ai-fit-nagasaki.com" }, "geometry": { "type": "Point", "coordinates": [ 130.0614227, 32.8515162 ] } },
{ "type": "Feature", "properties": { "内容": "デイサービスヒラキ【地域密着型通所介護】長崎県諫早市飯盛町開1368番地1", "url": "https://www.kaigokensaku.mhlw.go.jp/42/index.php?action_kouhyou_detail_004_kani=true&JigyosyoCd=4290400318-00&ServiceCd=780&Type=search", "url2": "https://www.itoyoshi-yuinohama.com" }, "geometry": { "type": "Point", "coordinates": [ 130.0156735, 32.7802897 ] } },
{ "type": "Feature", "properties": { "内容": "デイサービスささえあい【地域密着型通所介護】長崎県諫早市福田町2729番地3", "url": "https://www.kaigokensaku.mhlw.go.jp/42/index.php?action_kouhyou_detail_004_kani=true&JigyosyoCd=4290400185-00&ServiceCd=780&Type=search", "url2": null }, "geometry": { "type": "Point", "coordinates": [ 130.055204986508187, 32.856713638039722 ] } },
{ "type": "Feature", "properties": { "内容": "デイサービス　ヒスイ【地域密着型通所介護】長崎県諫早市小船越町６８０番１", "url": "https://www.kaigokensaku.mhlw.go.jp/42/index.php?action_kouhyou_detail_004_kani=true&JigyosyoCd=4290400490-00&ServiceCd=780&Type=search", "url2": null }, "geometry": { "type": "Point", "coordinates": [ 130.028640200000012, 32.8417285 ] } },
{ "type": "Feature", "properties": { "内容": "PARK　くるむ【地域密着型通所介護】長崎県諫早市福田町357-4", "url": "https://www.kaigokensaku.mhlw.go.jp/42/index.php?action_kouhyou_detail_004_kani=true&JigyosyoCd=4290400326-00&ServiceCd=780&Type=search", "url2": "http://www.airinkai.or.jp/" }, "geometry": { "type": "Point", "coordinates": [ 130.06038650000005, 32.8537365 ] } },
{ "type": "Feature", "properties": { "内容": "デイサービス椿寿荘【地域密着型通所介護】長崎県諫早市栄田町582番9", "url": "https://www.kaigokensaku.mhlw.go.jp/42/index.php?action_kouhyou_detail_004_kani=true&JigyosyoCd=4290400367-00&ServiceCd=780&Type=search", "url2": "https://fuyounet.jp/" }, "geometry": { "type": "Point", "coordinates": [ 130.0320328, 32.8664527 ] } },
{ "type": "Feature", "properties": { "内容": "デイサービスななふく【地域密着型通所介護】長崎県諫早市飯盛町古場80番地", "url": "https://www.kaigokensaku.mhlw.go.jp/42/index.php?action_kouhyou_detail_004_kani=true&JigyosyoCd=4290400540-00&ServiceCd=780&Type=search", "url2": null }, "geometry": { "type": "Point", "coordinates": [ 129.9944873, 32.783442 ] } },
{ "type": "Feature", "properties": { "内容": "デイサービス　スマイル幸【地域密着型通所介護】長崎県諫早市幸町13-8", "url": "https://www.kaigokensaku.mhlw.go.jp/42/index.php?action_kouhyou_detail_004_kani=true&JigyosyoCd=4290400557-00&ServiceCd=780&Type=search", "url2": null }, "geometry": { "type": "Point", "coordinates": [ 130.0623479, 32.8426495 ] } },
{ "type": "Feature", "properties": { "内容": "デイサービスセンター彩音half【地域密着型通所介護】長崎県諫早市貝津町1501-1", "url": "https://www.kaigokensaku.mhlw.go.jp/42/index.php?action_kouhyou_detail_004_kani=true&JigyosyoCd=4290400565-00&ServiceCd=780&Type=search", "url2": "ayane-isahaya.jp" }, "geometry": { "type": "Point", "coordinates": [ 130.013544200000013, 32.8415157 ] } },
{ "type": "Feature", "properties": { "内容": "澄実家【地域密着型通所介護】小川町353-2", "url": "https://www.kaigokensaku.mhlw.go.jp/42/index.php?action_kouhyou_detail_004_kani=true&JigyosyoCd=4290400573-00&ServiceCd=780&Type=search", "url2": "https://isahaya-yu-me.co.jp/" }, "geometry": { "type": "Point", "coordinates": [ 131.210540400000014, 32.2543526 ] } },
{ "type": "Feature", "properties": { "内容": "リハビリテーションあいのわWEST!!デイサービス【地域密着型通所介護】長崎県諫早市多良見町化屋321-25", "url": "https://www.kaigokensaku.mhlw.go.jp/42/index.php?action_kouhyou_detail_004_kani=true&JigyosyoCd=4290400599-00&ServiceCd=780&Type=search", "url2": null }, "geometry": { "type": "Point", "coordinates": [ 129.9883002, 32.8340486 ] } },
{ "type": "Feature", "properties": { "内容": "デイサービスセンターひだまりの里吉荘【地域密着型通所介護】諫早市小豆崎町351", "url": "https://www.kaigokensaku.mhlw.go.jp/42/index.php?action_kouhyou_detail_004_kani=true&JigyosyoCd=4290400458-00&ServiceCd=780&Type=search", "url2": null }, "geometry": { "type": "Point", "coordinates": [ 130.069441576721175, 32.855795797920919 ] } },
{ "type": "Feature", "properties": { "内容": "デイサービスセンターひだまりの里aim【地域密着型通所介護】長崎県諫早市小豆崎町５４７", "url": "https://www.kaigokensaku.mhlw.go.jp/42/index.php?action_kouhyou_detail_004_kani=true&JigyosyoCd=4270402706-00&ServiceCd=780&Type=search", "url2": null }, "geometry": { "type": "Point", "coordinates": [ 130.068060250154076, 32.854878632120553 ] } },
{ "type": "Feature", "properties": { "内容": "リハビリセンター　ハイタッチ【地域密着型通所介護】長崎県諫早市永昌町42-33みたちやまハウス１F", "url": "https://www.kaigokensaku.mhlw.go.jp/42/index.php?action_kouhyou_detail_004_kani=true&JigyosyoCd=4290400292-00&ServiceCd=780&Type=search", "url2": null }, "geometry": { "type": "Point", "coordinates": [ 130.036856848420854, 32.849002542143758 ] } },
{ "type": "Feature", "properties": { "内容": "デイサービス　絆【地域密着型通所介護】長崎県諫早市貝津町2334-2", "url": "https://www.kaigokensaku.mhlw.go.jp/42/index.php?action_kouhyou_detail_004_kani=true&JigyosyoCd=4270402672-00&ServiceCd=780&Type=search", "url2": null }, "geometry": { "type": "Point", "coordinates": [ 130.016110482670939, 32.840225235011594 ] } },
{ "type": "Feature", "properties": { "内容": "デイサービスセンタースリーサポート【地域密着型通所介護】長崎県諫早市真崎町1738番地1", "url": "https://www.kaigokensaku.mhlw.go.jp/42/index.php?action_kouhyou_detail_004_kani=true&JigyosyoCd=4290400581-00&ServiceCd=780&Type=search", "url2": "http://www.godo-3sp.com" }, "geometry": { "type": "Point", "coordinates": [ 130.0300394, 32.8534181 ] } },
{ "type": "Feature", "properties": { "内容": "通所介護施設　オムズ【地域密着型通所介護】長崎県大村市富の原2丁目３２１－１", "url": "https://www.kaigokensaku.mhlw.go.jp/42/index.php?action_kouhyou_detail_004_kani=true&JigyosyoCd=4270501317-00&ServiceCd=780&Type=search", "url2": "https://www.t-omuzuhome.com/" }, "geometry": { "type": "Point", "coordinates": [ 129.939386, 32.9432358 ] } },
{ "type": "Feature", "properties": { "内容": "デイサービスしんり【地域密着型通所介護】長崎県大村市上諏訪町８８０－１", "url": "https://www.kaigokensaku.mhlw.go.jp/42/index.php?action_kouhyou_detail_004_kani=true&JigyosyoCd=4270501101-00&ServiceCd=780&Type=search", "url2": null }, "geometry": { "type": "Point", "coordinates": [ 129.9650236, 32.9227494 ] } },
{ "type": "Feature", "properties": { "内容": "デイサービスセンター　なごみの郷【地域密着型通所介護】長崎県大村市松原１丁目472-8ワールドビル別館1Ｆ", "url": "https://www.kaigokensaku.mhlw.go.jp/42/index.php?action_kouhyou_detail_004_kani=true&JigyosyoCd=4270501291-00&ServiceCd=780&Type=search", "url2": "https://yamada-gp.main.jp/%e3%82%b5%e3%83%b3%e3%82%af%e3%83%95%e3%82%a3%e3%83%ab%e3%83%89%e6%a0%aa%e5%bc%8f%e4%bc%9a%e7%a4%be/%e3%81%aa%e3%81%94%e3%81%bf%e3%81%ae%e9%83%b7/" }, "geometry": { "type": "Point", "coordinates": [ 129.947134799999958, 32.975083 ] } },
{ "type": "Feature", "properties": { "内容": "デイサービスセンタースマイルケア【地域密着型通所介護】長崎県大村市宮小路1丁目281-2", "url": "https://www.kaigokensaku.mhlw.go.jp/42/index.php?action_kouhyou_detail_004_kani=true&JigyosyoCd=4270500921-00&ServiceCd=780&Type=search", "url2": "http://www.tsukasa-co.jp/" }, "geometry": { "type": "Point", "coordinates": [ 129.945273152778526, 32.947025806717441 ] } },
{ "type": "Feature", "properties": { "内容": "あいたすデイサービス【地域密着型通所介護】長崎県大村市西本町478番地3", "url": "https://www.kaigokensaku.mhlw.go.jp/42/index.php?action_kouhyou_detail_004_kani=true&JigyosyoCd=4270501705-00&ServiceCd=780&Type=search", "url2": null }, "geometry": { "type": "Point", "coordinates": [ 129.9585386, 32.9044787 ] } },
{ "type": "Feature", "properties": { "内容": "うたしデイサービス【地域密着型通所介護】長崎県大村市杭出津2-794-5", "url": "https://www.kaigokensaku.mhlw.go.jp/42/index.php?action_kouhyou_detail_004_kani=true&JigyosyoCd=4270501473-00&ServiceCd=780&Type=search", "url2": null }, "geometry": { "type": "Point", "coordinates": [ 129.951408300000026, 32.9123223 ] } },
{ "type": "Feature", "properties": { "内容": "てあーて・ながさき【地域密着型通所介護】大川田町418番4", "url": "https://www.kaigokensaku.mhlw.go.jp/42/index.php?action_kouhyou_detail_004_kani=true&JigyosyoCd=4270501671-00&ServiceCd=780&Type=search", "url2": "http://www.octp-net.ne.jp/~te-arte/" }, "geometry": { "type": "Point", "coordinates": [ 129.946713300000056, 32.9434804 ] } },
{ "type": "Feature", "properties": { "内容": "合同会社　優倫会　デイサービス絆（きずな）【地域密着型通所介護】長崎県大村市坂口町413番地3", "url": "https://www.kaigokensaku.mhlw.go.jp/42/index.php?action_kouhyou_detail_004_kani=true&JigyosyoCd=4270501192-00&ServiceCd=780&Type=search", "url2": "http://care-net.biz/42/kizuna/" }, "geometry": { "type": "Point", "coordinates": [ 129.961293, 32.9370648 ] } },
{ "type": "Feature", "properties": { "内容": "デイサービスセンターあぐりハウス【地域密着型通所介護】長崎県大村市原口町617-6", "url": "https://www.kaigokensaku.mhlw.go.jp/42/index.php?action_kouhyou_detail_004_kani=true&JigyosyoCd=4270501663-00&ServiceCd=780&Type=search", "url2": "http://agri-house.wix.com/agrihouse" }, "geometry": { "type": "Point", "coordinates": [ 129.950941, 32.9371589 ] } },
{ "type": "Feature", "properties": { "内容": "サンライフデイサービスセンター【地域密着型通所介護】長崎県大村市荒平町１２５０", "url": "https://www.kaigokensaku.mhlw.go.jp/42/index.php?action_kouhyou_detail_004_kani=true&JigyosyoCd=4270501051-00&ServiceCd=780&Type=search", "url2": "http://www.nagasaki-kouseifukushidan.or.jp/" }, "geometry": { "type": "Point", "coordinates": [ 129.9770337, 32.9197887 ] } },
{ "type": "Feature", "properties": { "内容": "デイサービス小さな家【地域密着型通所介護】長崎県大村市富の原2-81-1", "url": "https://www.kaigokensaku.mhlw.go.jp/42/index.php?action_kouhyou_detail_004_kani=true&JigyosyoCd=4270501523-00&ServiceCd=780&Type=search", "url2": "http://www.tanpopoen.npo-jp.net/" }, "geometry": { "type": "Point", "coordinates": [ 129.940397, 32.9473216 ] } },
{ "type": "Feature", "properties": { "内容": "デイサービスいきいき日和【地域密着型通所介護】長崎県大村市松山町613-1", "url": "https://www.kaigokensaku.mhlw.go.jp/42/index.php?action_kouhyou_detail_004_kani=true&JigyosyoCd=4270501580-00&ServiceCd=780&Type=search", "url2": "http://ikiikibiyori.net" }, "geometry": { "type": "Point", "coordinates": [ 129.945408600000064, 32.914933 ] } },
{ "type": "Feature", "properties": { "内容": "デイサービス　楽々園【地域密着型通所介護】長崎県大村市宮小路3丁目1394-2", "url": "https://www.kaigokensaku.mhlw.go.jp/42/index.php?action_kouhyou_detail_004_kani=true&JigyosyoCd=4270501549-00&ServiceCd=780&Type=search", "url2": null }, "geometry": { "type": "Point", "coordinates": [ 129.959518300000013, 32.930343100000016 ] } },
{ "type": "Feature", "properties": { "内容": "デイサービスいなほ【地域密着型通所介護】長崎県平戸市生月町山田免1074番地1", "url": "https://www.kaigokensaku.mhlw.go.jp/42/index.php?action_kouhyou_detail_004_kani=true&JigyosyoCd=4271500847-00&ServiceCd=780&Type=search", "url2": "http://inaho-group.jp/" }, "geometry": { "type": "Point", "coordinates": [ 129.433515400000033, 33.3700284 ] } },
{ "type": "Feature", "properties": { "内容": "医療法人医理会　リハビリ特化型　通所介護毎快【地域密着型通所介護】長崎県平戸市木引田町414番地木引田介護スクエア", "url": "https://www.kaigokensaku.mhlw.go.jp/42/index.php?action_kouhyou_detail_004_kani=true&JigyosyoCd=4290700121-00&ServiceCd=780&Type=search", "url2": "https://kakizoehospital.or.jp/" }, "geometry": { "type": "Point", "coordinates": [ 129.551622400000014, 33.3664943 ] } },
{ "type": "Feature", "properties": { "内容": "平戸市社協通所介護大島事業所【地域密着型通所介護】長崎県平戸市大島村前平2727番地", "url": "https://www.kaigokensaku.mhlw.go.jp/42/index.php?action_kouhyou_detail_004_kani=true&JigyosyoCd=4270700414-00&ServiceCd=780&Type=search", "url2": null }, "geometry": { "type": "Point", "coordinates": [ 129.547691200000031, 33.4803171 ] } },
{ "type": "Feature", "properties": { "内容": "デイサービス　ひだまり【地域密着型通所介護】長崎県平戸市度島町730-10", "url": "https://www.kaigokensaku.mhlw.go.jp/42/index.php?action_kouhyou_detail_004_kani=true&JigyosyoCd=4290700113-00&ServiceCd=780&Type=search", "url2": "https://www.facebook.com/profile.php?id=100063565331715" }, "geometry": { "type": "Point", "coordinates": [ 129.52885660000004, 33.4386603 ] } },
{ "type": "Feature", "properties": { "内容": "ディサービス　えん樹【地域密着型通所介護】長崎県松浦市調川町下免740-57", "url": "https://www.kaigokensaku.mhlw.go.jp/42/index.php?action_kouhyou_detail_004_kani=true&JigyosyoCd=4270800560-00&ServiceCd=780&Type=search", "url2": "https://care-net.biz/42/enju.soyokaze/" }, "geometry": { "type": "Point", "coordinates": [ 129.729213308459521, 33.352227595877544 ] } },
{ "type": "Feature", "properties": { "内容": "株式会社　心友　介護保険事業所　デイサービス「ふえふき」【地域密着型通所介護】長崎県松浦市志佐町笛吹免218", "url": "https://www.kaigokensaku.mhlw.go.jp/42/index.php?action_kouhyou_detail_004_kani=true&JigyosyoCd=4270800354-00&ServiceCd=780&Type=search", "url2": null }, "geometry": { "type": "Point", "coordinates": [ 129.728278234254503, 33.308981560905607 ] } },
{ "type": "Feature", "properties": { "内容": "老人デイサ－ビスセンタ－あおしま【地域密着型通所介護】長崎県松浦市星鹿町青島免483-1", "url": "https://www.kaigokensaku.mhlw.go.jp/42/index.php?action_kouhyou_detail_004_kani=true&JigyosyoCd=4270800149-00&ServiceCd=780&Type=search", "url2": "https://seiun-aoshima.webnode.jp/" }, "geometry": { "type": "Point", "coordinates": [ 129.687335100000041, 33.4129628 ] } },
{ "type": "Feature", "properties": { "内容": "通所介護事業所　春風荘【地域密着型通所介護】長崎県松浦市御厨町里免384番地1", "url": "https://www.kaigokensaku.mhlw.go.jp/42/index.php?action_kouhyou_detail_004_kani=true&JigyosyoCd=4270800164-00&ServiceCd=780&Type=search", "url2": "https://seizanso-matsuurashi.net" }, "geometry": { "type": "Point", "coordinates": [ 129.664252041139207, 33.364152564541925 ] } },
{ "type": "Feature", "properties": { "内容": "デイサービス　だんだん【地域密着型通所介護】長崎県松浦市志佐町高野免８７７番地５", "url": "https://www.kaigokensaku.mhlw.go.jp/42/index.php?action_kouhyou_detail_004_kani=true&JigyosyoCd=4290800046-00&ServiceCd=780&Type=search", "url2": null }, "geometry": { "type": "Point", "coordinates": [ 129.715357959524567, 33.329169474846289 ] } },
{ "type": "Feature", "properties": { "内容": "松浦市志佐町浦免270番地【地域密着型通所介護】松浦市志佐町浦免270番地", "url": "https://www.kaigokensaku.mhlw.go.jp/42/index.php?action_kouhyou_detail_004_kani=true&JigyosyoCd=4290800087-00&ServiceCd=780&Type=search", "url2": "https://aikouen-matsuura.com/" }, "geometry": { "type": "Point", "coordinates": [ 129.717493499999989, 33.3454101 ] } },
{ "type": "Feature", "properties": { "内容": "対馬市社会福祉協議会　上県町通所介護事業所（喜多の苑）【地域密着型通所介護】長崎県対馬市上県町佐須奈乙３３９番地", "url": "https://www.kaigokensaku.mhlw.go.jp/42/index.php?action_kouhyou_detail_004_kani=true&JigyosyoCd=4272000086-00&ServiceCd=780&Type=search", "url2": null }, "geometry": { "type": "Point", "coordinates": [ 129.400053399999933, 34.6412859 ] } },
{ "type": "Feature", "properties": { "内容": "デイサービスセンター華の郷【地域密着型通所介護】長崎県対馬市厳原町内山59番地28", "url": "https://www.kaigokensaku.mhlw.go.jp/42/index.php?action_kouhyou_detail_004_kani=true&JigyosyoCd=4292000140-00&ServiceCd=780&Type=search", "url2": null }, "geometry": { "type": "Point", "coordinates": [ 129.2230113, 34.1587966 ] } },
{ "type": "Feature", "properties": { "内容": "有明山　福祉の郷　健寿園【地域密着型通所介護】長崎県対馬市厳原町西里201番地６", "url": "https://www.kaigokensaku.mhlw.go.jp/42/index.php?action_kouhyou_detail_004_kani=true&JigyosyoCd=4292000090-00&ServiceCd=780&Type=search", "url2": null }, "geometry": { "type": "Point", "coordinates": [ 129.2849058, 34.2039202 ] } },
{ "type": "Feature", "properties": { "内容": "通所介護サービス事業所　御嶽の里【地域密着型通所介護】長崎県対馬市上県町樫滝1061-1", "url": "https://www.kaigokensaku.mhlw.go.jp/42/index.php?action_kouhyou_detail_004_kani=true&JigyosyoCd=4292000116-00&ServiceCd=780&Type=search", "url2": null }, "geometry": { "type": "Point", "coordinates": [ 129.3493489, 34.5307586 ] } },
{ "type": "Feature", "properties": { "内容": "デイサービスセンターまごころ【地域密着型通所介護】長崎県壱岐市石田町筒城東触1840-3", "url": "https://www.kaigokensaku.mhlw.go.jp/42/index.php?action_kouhyou_detail_004_kani=true&JigyosyoCd=4272100373-00&ServiceCd=780&Type=search", "url2": null }, "geometry": { "type": "Point", "coordinates": [ 129.785148656236288, 33.75179202410262 ] } },
{ "type": "Feature", "properties": { "内容": "通所介護事業所みみらくの里【地域密着型通所介護】長崎県五島市三井楽町濱ノ畔1046番地2", "url": "https://www.kaigokensaku.mhlw.go.jp/42/index.php?action_kouhyou_detail_004_kani=true&JigyosyoCd=4271600282-00&ServiceCd=780&Type=search", "url2": "https://mimiraku.info" }, "geometry": { "type": "Point", "coordinates": [ 128.69112210000003, 32.7468726 ] } },
{ "type": "Feature", "properties": { "内容": "社会福祉法人さゆり会　デイサービスセンターみはらし荘【地域密着型通所介護】長崎県五島市下崎山町７２２番地", "url": "https://www.kaigokensaku.mhlw.go.jp/42/index.php?action_kouhyou_detail_004_kani=true&JigyosyoCd=4270600085-00&ServiceCd=780&Type=search", "url2": "http://sayurikai.jp/" }, "geometry": { "type": "Point", "coordinates": [ 128.878692300000012, 32.6692459 ] } },
{ "type": "Feature", "properties": { "内容": "通所介護事業所　きじの里【地域密着型通所介護】長崎県五島市岐宿町二本楠３７５番地", "url": "https://www.kaigokensaku.mhlw.go.jp/42/index.php?action_kouhyou_detail_004_kani=true&JigyosyoCd=4271600076-00&ServiceCd=780&Type=search", "url2": "http://syuhoukai.jp/" }, "geometry": { "type": "Point", "coordinates": [ 128.72382, 32.6737041 ] } },
{ "type": "Feature", "properties": { "内容": "デイサービスあすか【地域密着型通所介護】長崎県五島市吉田町７４０番", "url": "https://www.kaigokensaku.mhlw.go.jp/42/index.php?action_kouhyou_detail_004_kani=true&JigyosyoCd=4270600556-00&ServiceCd=780&Type=search", "url2": null }, "geometry": { "type": "Point", "coordinates": [ 128.823305800000071, 32.676709100000018 ] } },
{ "type": "Feature", "properties": { "内容": "通所介護事業所イータウン【地域密着型通所介護】長崎県五島市木場町１５６－２", "url": "https://www.kaigokensaku.mhlw.go.jp/42/index.php?action_kouhyou_detail_004_kani=true&JigyosyoCd=4272200603-00&ServiceCd=780&Type=search", "url2": "http://mahoroba-e-town.jp/" }, "geometry": { "type": "Point", "coordinates": [ 128.810102700000016, 32.6905545 ] } },
{ "type": "Feature", "properties": { "内容": "通いの家　ゆるり【地域密着型通所介護】長崎県五島市吉田町3287-16", "url": "https://www.kaigokensaku.mhlw.go.jp/42/index.php?action_kouhyou_detail_004_kani=true&JigyosyoCd=4272200751-00&ServiceCd=780&Type=search", "url2": null }, "geometry": { "type": "Point", "coordinates": [ 128.804519499999969, 32.6867851 ] } },
{ "type": "Feature", "properties": { "内容": "リハビリ型デイサービスkametokura【地域密着型通所介護】長崎県五島市上大津町304番地1", "url": "https://www.kaigokensaku.mhlw.go.jp/42/index.php?action_kouhyou_detail_004_kani=true&JigyosyoCd=4292200146-00&ServiceCd=780&Type=search", "url2": null }, "geometry": { "type": "Point", "coordinates": [ 128.844621997622653, 32.689555243050584 ] } },
{ "type": "Feature", "properties": { "内容": "健友会　五島ふれあいデイサービス【地域密着型通所介護】五島市三尾野２－１－２９", "url": "https://www.kaigokensaku.mhlw.go.jp/42/index.php?action_kouhyou_detail_004_kani=true&JigyosyoCd=4272200306-00&ServiceCd=780&Type=search", "url2": "http://www.h6.dion.ne.jp/^fureai" }, "geometry": { "type": "Point", "coordinates": [ 128.841070899999977, 32.6924604 ] } },
{ "type": "Feature", "properties": { "内容": "ひだまりの舎　デイサービスセンター【地域密着型通所介護】長崎県五島市下大津町550番地4ひだまりの舎", "url": "https://www.kaigokensaku.mhlw.go.jp/42/index.php?action_kouhyou_detail_004_kani=true&JigyosyoCd=4272200884-00&ServiceCd=780&Type=search", "url2": "https://sayurikai.jp/pages/44/" }, "geometry": { "type": "Point", "coordinates": [ 128.856413009123258, 32.685722994220157 ] } },
{ "type": "Feature", "properties": { "内容": "デイサービスセンター　大浜【地域密着型通所介護】長崎県五島市浜町142-1", "url": "https://www.kaigokensaku.mhlw.go.jp/42/index.php?action_kouhyou_detail_004_kani=true&JigyosyoCd=4272200710-00&ServiceCd=780&Type=search", "url2": null }, "geometry": { "type": "Point", "coordinates": [ 128.813425300000063, 32.6529091 ] } },
{ "type": "Feature", "properties": { "内容": "デイサービス城岳【地域密着型通所介護】長崎県五島市岐宿町岐宿2683番地2デイサービス城岳", "url": "https://www.kaigokensaku.mhlw.go.jp/42/index.php?action_kouhyou_detail_004_kani=true&JigyosyoCd=4292200179-00&ServiceCd=780&Type=search", "url2": null }, "geometry": { "type": "Point", "coordinates": [ 128.755090213932817, 32.745326474802035 ] } },
{ "type": "Feature", "properties": { "内容": "社会福祉法人五島市社会福祉協議会　玉之浦支所　通所介護事業所【地域密着型通所介護】長崎県五島市玉之浦町荒川130番地2地域福祉センター　荒川温泉", "url": "https://www.kaigokensaku.mhlw.go.jp/42/index.php?action_kouhyou_detail_004_kani=true&JigyosyoCd=4271600811-00&ServiceCd=780&Type=search", "url2": "http://goto-shakyo.or.jp" }, "geometry": { "type": "Point", "coordinates": [ 128.670717400000058, 32.6672956 ] } },
{ "type": "Feature", "properties": { "内容": "社会福祉法人　五島市社会福祉協議会　三井楽支所　通所介護事業所【地域密着型通所介護】長崎県五島市三井楽町濱ノ畔１０４６番地１", "url": "https://www.kaigokensaku.mhlw.go.jp/42/index.php?action_kouhyou_detail_004_kani=true&JigyosyoCd=4271600902-00&ServiceCd=780&Type=search", "url2": "http://www.goto-shakyo.or.jp/" }, "geometry": { "type": "Point", "coordinates": [ 128.6916304, 32.7467115 ] } },
{ "type": "Feature", "properties": { "内容": "社会福祉法人　五島市社会福祉協議会　デイサービスセンターはまゆう【地域密着型通所介護】長崎県五島市三尾野一丁目７番１号", "url": "https://www.kaigokensaku.mhlw.go.jp/42/index.php?action_kouhyou_detail_004_kani=true&JigyosyoCd=4292200096-00&ServiceCd=780&Type=search", "url2": "http://www.goto-shakyo.or.jp" }, "geometry": { "type": "Point", "coordinates": [ 128.837682200000017, 32.6913521 ] } },
{ "type": "Feature", "properties": { "内容": "緑乃園デイサービスセンター【地域密着型通所介護】長崎県五島市野々切町2035番地2", "url": "https://www.kaigokensaku.mhlw.go.jp/42/index.php?action_kouhyou_detail_004_kani=true&JigyosyoCd=4292200112-00&ServiceCd=780&Type=search", "url2": "http://gotowakokai.jp/" }, "geometry": { "type": "Point", "coordinates": [ 128.832848950777162, 32.648880238707761 ] } },
{ "type": "Feature", "properties": { "内容": "デイサービスセンター清風【地域密着型通所介護】長崎県五島市武家屋敷1丁目５番地４７号", "url": "https://www.kaigokensaku.mhlw.go.jp/42/index.php?action_kouhyou_detail_004_kani=true&JigyosyoCd=4272200686-00&ServiceCd=780&Type=search", "url2": "http://syuhoukai.jp/" }, "geometry": { "type": "Point", "coordinates": [ 128.8450957, 32.691341 ] } },
{ "type": "Feature", "properties": { "内容": "地域密着型通所介護事業所　聖マリアの園【地域密着型通所介護】長崎県五島市松山町706番地3", "url": "https://www.kaigokensaku.mhlw.go.jp/42/index.php?action_kouhyou_detail_004_kani=true&JigyosyoCd=4292200161-00&ServiceCd=780&Type=search", "url2": "https://www.seimarianosono.jp" }, "geometry": { "type": "Point", "coordinates": [ 128.83778430000001, 32.7057972 ] } },
{ "type": "Feature", "properties": { "内容": "たまんなゆうゆう【地域密着型通所介護】長崎県五島市玉之浦町玉之浦１３７１－１", "url": "https://www.kaigokensaku.mhlw.go.jp/42/index.php?action_kouhyou_detail_004_kani=true&JigyosyoCd=4271600449-00&ServiceCd=780&Type=search", "url2": "http://www.u-u-sato.com/" }, "geometry": { "type": "Point", "coordinates": [ 128.614514900000017, 32.6167594 ] } },
{ "type": "Feature", "properties": { "内容": "只狩荘デイサービスセンター【地域密着型通所介護】長崎県五島市富江町黒瀬585番地", "url": "https://www.kaigokensaku.mhlw.go.jp/42/index.php?action_kouhyou_detail_004_kani=true&JigyosyoCd=4292200120-00&ServiceCd=780&Type=search", "url2": "http://sayurikai.jp/" }, "geometry": { "type": "Point", "coordinates": [ 128.7459513, 32.6054481 ] } },
{ "type": "Feature", "properties": { "内容": "社会福祉法人　五島市社会福祉協議会　岐宿支所　通所介護事業所【地域密着型通所介護】長崎県五島市岐宿町岐宿３９６番地１", "url": "https://www.kaigokensaku.mhlw.go.jp/42/index.php?action_kouhyou_detail_004_kani=true&JigyosyoCd=4271600852-00&ServiceCd=780&Type=search", "url2": "http://www.goto-shakyo.or.jp" }, "geometry": { "type": "Point", "coordinates": [ 128.756161357672113, 32.756219200000537 ] } },
{ "type": "Feature", "properties": { "内容": "デイサービス　のち【地域密着型通所介護】長崎県五島市富江町狩立481番地1", "url": "https://www.kaigokensaku.mhlw.go.jp/42/index.php?action_kouhyou_detail_004_kani=true&JigyosyoCd=4292200104-00&ServiceCd=780&Type=search", "url2": null }, "geometry": { "type": "Point", "coordinates": [ 128.764521, 32.613941299999986 ] } },
{ "type": "Feature", "properties": { "内容": "デイサービスセンター太陽【地域密着型通所介護】長崎県五島市奈留町船廻879番地1特別養護老人ホームなるの里併設", "url": "https://www.kaigokensaku.mhlw.go.jp/42/index.php?action_kouhyou_detail_004_kani=true&JigyosyoCd=4272200611-00&ServiceCd=780&Type=search", "url2": "http://narunosato.or.jp/" }, "geometry": { "type": "Point", "coordinates": [ 128.943155, 32.8441665 ] } },
{ "type": "Feature", "properties": { "内容": "未来ごとう【地域密着型通所介護】長崎県五島市吉久木町731五島シティモール2F", "url": "https://www.kaigokensaku.mhlw.go.jp/42/index.php?action_kouhyou_detail_004_kani=true&JigyosyoCd=4292200153-00&ServiceCd=780&Type=search", "url2": null }, "geometry": { "type": "Point", "coordinates": [ 128.8135179, 32.6954275 ] } },
{ "type": "Feature", "properties": { "内容": "デイサービス　さいかい【地域密着型通所介護】長崎県西海市西彼町小迎郷2517-3", "url": "https://www.kaigokensaku.mhlw.go.jp/42/index.php?action_kouhyou_detail_004_kani=true&JigyosyoCd=4292300052-00&ServiceCd=780&Type=search", "url2": "http://www.fukuikai.com" }, "geometry": { "type": "Point", "coordinates": [ 129.742274923160835, 33.04376225857164 ] } },
{ "type": "Feature", "properties": { "内容": "海風荘デイサービスセンター【地域密着型通所介護】長崎県西海市大瀬戸町瀬戸板浦郷１１２３番地１４", "url": "https://www.kaigokensaku.mhlw.go.jp/42/index.php?action_kouhyou_detail_004_kani=true&JigyosyoCd=4271100119-00&ServiceCd=780&Type=search", "url2": "https://www.kaifuso.com/" }, "geometry": { "type": "Point", "coordinates": [ 129.638221299999941, 32.9437934 ] } },
{ "type": "Feature", "properties": { "内容": "元亀の里【地域密着型通所介護】長崎県西海市中山郷2088番地1", "url": "https://www.kaigokensaku.mhlw.go.jp/42/index.php?action_kouhyou_detail_004_kani=true&JigyosyoCd=4251180032-00&ServiceCd=780&Type=search", "url2": "https://www.seihikai.jp/" }, "geometry": { "type": "Point", "coordinates": [ 129.795340500000066, 32.9931123 ] } },
{ "type": "Feature", "properties": { "内容": "ほっとハウス【地域密着型通所介護】長崎県西海市大島町１７６５番地", "url": "https://www.kaigokensaku.mhlw.go.jp/42/index.php?action_kouhyou_detail_004_kani=true&JigyosyoCd=4292300078-00&ServiceCd=780&Type=search", "url2": null }, "geometry": { "type": "Point", "coordinates": [ 129.6204051, 33.041248 ] } },
{ "type": "Feature", "properties": { "内容": "西海市社協　おおさきデイサービスセンター【地域密着型通所介護】長崎県西海市崎戸町蠣浦郷2060番地7", "url": "https://www.kaigokensaku.mhlw.go.jp/42/index.php?action_kouhyou_detail_004_kani=true&JigyosyoCd=4292300094-00&ServiceCd=780&Type=search", "url2": "http://www.shakyo-saikai.jp/" }, "geometry": { "type": "Point", "coordinates": [ 129.564398, 33.0208115 ] } },
{ "type": "Feature", "properties": { "内容": "西海市社協おおせとデイサービスセンター【地域密着型通所介護】大瀬戸町多以良内郷４３４番地2", "url": "https://www.kaigokensaku.mhlw.go.jp/42/index.php?action_kouhyou_detail_004_kani=true&JigyosyoCd=4292300102-00&ServiceCd=780&Type=search", "url2": "https://www.shakyo-saikai.jp/" }, "geometry": { "type": "Point", "coordinates": [ 129.6449409, 32.9587156 ] } },
{ "type": "Feature", "properties": { "内容": "株式会社　アイプラン【地域密着型通所介護】長崎県雲仙市小浜町北本町612-9", "url": "https://www.kaigokensaku.mhlw.go.jp/42/index.php?action_kouhyou_detail_004_kani=true&JigyosyoCd=4270402425-00&ServiceCd=780&Type=search", "url2": null }, "geometry": { "type": "Point", "coordinates": [ 130.213376743623456, 32.731033239779229 ] } },
{ "type": "Feature", "properties": { "内容": "リハビリテーションしとらす-citrus-【地域密着型通所介護】長崎県雲仙市瑞穂町古部甲1819番地", "url": "https://www.kaigokensaku.mhlw.go.jp/42/index.php?action_kouhyou_detail_004_kani=true&JigyosyoCd=4292400209-00&ServiceCd=780&Type=search", "url2": "https://reha-citrus.jp/" }, "geometry": { "type": "Point", "coordinates": [ 130.2234298, 32.8500959 ] } },
{ "type": "Feature", "properties": { "内容": "デイサービスセンター「くにみの里」【地域密着型通所介護】長崎県雲仙市国見町多比良戊１４４９－４１５", "url": "https://www.kaigokensaku.mhlw.go.jp/42/index.php?action_kouhyou_detail_004_kani=true&JigyosyoCd=4292400225-00&ServiceCd=780&Type=search", "url2": "http://nissin-g.jp" }, "geometry": { "type": "Point", "coordinates": [ 130.2914309, 32.8310738 ] } },
{ "type": "Feature", "properties": { "内容": "リハビリケアステーションきらら【地域密着型通所介護】長崎県南島原市西有家町慈恩寺502", "url": "https://www.kaigokensaku.mhlw.go.jp/42/index.php?action_kouhyou_detail_004_kani=true&JigyosyoCd=4292500172-00&ServiceCd=780&Type=search", "url2": null }, "geometry": { "type": "Point", "coordinates": [ 130.27567, 32.7017195 ] } },
{ "type": "Feature", "properties": { "内容": "デイサービスセンター　鮎の里【地域密着型通所介護】長崎県南島原市有家町尾上4083", "url": "https://www.kaigokensaku.mhlw.go.jp/42/index.php?action_kouhyou_detail_004_kani=true&JigyosyoCd=4271400402-00&ServiceCd=780&Type=search", "url2": "http://www.yuhoso.jp/" }, "geometry": { "type": "Point", "coordinates": [ 130.302786100000048, 32.70394 ] } },
{ "type": "Feature", "properties": { "内容": "デイサービスにじいろ【地域密着型通所介護】長崎県南島原市加津佐町丙１５６９番地", "url": "https://www.kaigokensaku.mhlw.go.jp/42/index.php?action_kouhyou_detail_004_kani=true&JigyosyoCd=4292500180-00&ServiceCd=780&Type=search", "url2": null }, "geometry": { "type": "Point", "coordinates": [ 130.167717, 32.6352609 ] } },
{ "type": "Feature", "properties": { "内容": "デイサービスセンターげんき【地域密着型通所介護】長崎県南島原市加津佐町己2829-1", "url": "https://www.kaigokensaku.mhlw.go.jp/42/index.php?action_kouhyou_detail_004_kani=true&JigyosyoCd=4272500457-00&ServiceCd=780&Type=search", "url2": null }, "geometry": { "type": "Point", "coordinates": [ 130.1649946, 32.6258245 ] } },
{ "type": "Feature", "properties": { "内容": "リハプライド　南島原【地域密着型通所介護】南有馬町乙1220-1", "url": "https://www.kaigokensaku.mhlw.go.jp/42/index.php?action_kouhyou_detail_004_kani=true&JigyosyoCd=4292500149-00&ServiceCd=780&Type=search", "url2": "minamishimabara@rehapride.co.jp" }, "geometry": { "type": "Point", "coordinates": [ 130.245168893254117, 32.631148871643447 ] } },
{ "type": "Feature", "properties": { "内容": "デイサービス　けやき【地域密着型通所介護】長崎県南島原市南有馬町乙1220-2", "url": "https://www.kaigokensaku.mhlw.go.jp/42/index.php?action_kouhyou_detail_004_kani=true&JigyosyoCd=4272500481-00&ServiceCd=780&Type=search", "url2": null }, "geometry": { "type": "Point", "coordinates": [ 130.245741599999974, 32.6314901 ] } },
{ "type": "Feature", "properties": { "内容": "デイサービスセンター心春【地域密着型通所介護】長崎県南島原市口之津町乙841番地2", "url": "https://www.kaigokensaku.mhlw.go.jp/42/index.php?action_kouhyou_detail_004_kani=true&JigyosyoCd=4272500523-00&ServiceCd=780&Type=search", "url2": null }, "geometry": { "type": "Point", "coordinates": [ 130.175514499999963, 32.5959888 ] } },
{ "type": "Feature", "properties": { "内容": "デイサービスセンター弥生の里【地域密着型通所介護】長崎県南島原市加津佐町乙1180番地4", "url": "https://www.kaigokensaku.mhlw.go.jp/42/index.php?action_kouhyou_detail_004_kani=true&JigyosyoCd=4292500206-00&ServiceCd=780&Type=search", "url2": null }, "geometry": { "type": "Point", "coordinates": [ 130.155390899999986, 32.6371074 ] } },
{ "type": "Feature", "properties": { "内容": "三和リハトレセンター【地域密着型通所介護】長崎県南島原市深江町丁2021-3JA深江テナントビル1F", "url": "https://www.kaigokensaku.mhlw.go.jp/42/index.php?action_kouhyou_detail_004_kani=true&JigyosyoCd=4272500556-00&ServiceCd=780&Type=search", "url2": null }, "geometry": { "type": "Point", "coordinates": [ 130.353972699999986, 32.7197013 ] } },
{ "type": "Feature", "properties": { "内容": "エフ・ステージイオンタウン長与daydream【地域密着型通所介護】長崎県西彼杵郡長与町北陽台1丁目2番1号イオンタウン長与内店舗", "url": "https://www.kaigokensaku.mhlw.go.jp/42/index.php?action_kouhyou_detail_004_kani=true&JigyosyoCd=4291100115-00&ServiceCd=780&Type=search", "url2": "entowa.co.jp" }, "geometry": { "type": "Point", "coordinates": [ 129.8724656349182, 32.822345989790435 ] } },
{ "type": "Feature", "properties": { "内容": "デイサービス　アーネスト【地域密着型通所介護】長崎県西彼杵郡長与町岡郷1474-18アーネスト", "url": "https://www.kaigokensaku.mhlw.go.jp/42/index.php?action_kouhyou_detail_004_kani=true&JigyosyoCd=4271102917-00&ServiceCd=780&Type=search", "url2": null }, "geometry": { "type": "Point", "coordinates": [ 129.868925499999932, 32.8486619 ] } },
{ "type": "Feature", "properties": { "内容": "クローバー・ガーデン長与【地域密着型通所介護】長崎県西彼杵郡長与町高田郷1240コーポはるよし1Ｆ", "url": "https://www.kaigokensaku.mhlw.go.jp/42/index.php?action_kouhyou_detail_004_kani=true&JigyosyoCd=4271103147-00&ServiceCd=780&Type=search", "url2": "http://www.fujimoto-group.jp" }, "geometry": { "type": "Point", "coordinates": [ 129.870479583348867, 32.819371142715035 ] } },
{ "type": "Feature", "properties": { "内容": "健康増進デイサービスぴーぷる長崎【地域密着型通所介護】長崎県西彼杵郡長与町岡郷１６５７番地１", "url": "https://www.kaigokensaku.mhlw.go.jp/42/index.php?action_kouhyou_detail_004_kani=true&JigyosyoCd=4271102719-00&ServiceCd=780&Type=search", "url2": "http://peapl-nagasaki.co.jp/" }, "geometry": { "type": "Point", "coordinates": [ 129.8748167, 32.8520923 ] } },
{ "type": "Feature", "properties": { "内容": "デイサービス茶の間【地域密着型通所介護】長崎県西彼杵郡時津町浦郷260-4", "url": "https://www.kaigokensaku.mhlw.go.jp/42/index.php?action_kouhyou_detail_004_kani=true&JigyosyoCd=4271102776-00&ServiceCd=780&Type=search", "url2": "http://care-meigetsudou.jp/" }, "geometry": { "type": "Point", "coordinates": [ 129.847296899999947, 32.8290491 ] } },
{ "type": "Feature", "properties": { "内容": "デイサービス詩歌【地域密着型通所介護】長崎県西彼杵郡時津町浦郷260-4", "url": "https://www.kaigokensaku.mhlw.go.jp/42/index.php?action_kouhyou_detail_004_kani=true&JigyosyoCd=4291100131-00&ServiceCd=780&Type=search", "url2": null }, "geometry": { "type": "Point", "coordinates": [ 129.8472725, 32.8290462 ] } },
{ "type": "Feature", "properties": { "内容": "デイサービス　クローバー・ガーデン時津【地域密着型通所介護】長崎県西彼杵郡時津町浦郷440-10", "url": "https://www.kaigokensaku.mhlw.go.jp/42/index.php?action_kouhyou_detail_004_kani=true&JigyosyoCd=4271103089-00&ServiceCd=780&Type=search", "url2": "http://www.fujimoto-group.jp/" }, "geometry": { "type": "Point", "coordinates": [ 129.846730200000025, 32.8311406 ] } },
{ "type": "Feature", "properties": { "内容": "くじゃくの家デイサービスセンター【地域密着型通所介護】長崎県東彼杵郡川棚町小串郷３５８番地１", "url": "https://www.kaigokensaku.mhlw.go.jp/42/index.php?action_kouhyou_detail_004_kani=true&JigyosyoCd=4271200398-00&ServiceCd=780&Type=search", "url2": "http://www.nagasaki-kouseifukushidan.or.jp" }, "geometry": { "type": "Point", "coordinates": [ 129.832930799999986, 33.0554103 ] } },
{ "type": "Feature", "properties": { "内容": "介護サービス和株式会社【地域密着型通所介護】長崎県東彼杵郡波佐見町湯無田郷９３３－６", "url": "https://www.kaigokensaku.mhlw.go.jp/42/index.php?action_kouhyou_detail_004_kani=true&JigyosyoCd=4271200786-00&ServiceCd=780&Type=search", "url2": "http://www.nagomi0753.jp" }, "geometry": { "type": "Point", "coordinates": [ 129.918403250926218, 33.141693524779846 ] } },
{ "type": "Feature", "properties": { "内容": "社会福祉法人小値賀町社会福祉協議会【地域密着型通所介護】長崎県北松浦郡小値賀町笛吹郷2367番地", "url": "https://www.kaigokensaku.mhlw.go.jp/42/index.php?action_kouhyou_detail_004_kani=true&JigyosyoCd=4291500108-00&ServiceCd=780&Type=search", "url2": "ojika-syakyo.jp" }, "geometry": { "type": "Point", "coordinates": [ 129.0582255, 33.1912334 ] } },
{ "type": "Feature", "properties": { "内容": "地域密着型通所介護ひろんた村居間【地域密着型通所介護】長崎県南松浦郡新上五島町鯛ノ浦郷８７番地６５８ひろんた村母屋", "url": "https://www.kaigokensaku.mhlw.go.jp/42/index.php?action_kouhyou_detail_004_kani=true&JigyosyoCd=4291600106-00&ServiceCd=780&Type=search", "url2": "http://www.hironta.com/" }, "geometry": { "type": "Point", "coordinates": [ 129.100732, 32.952423 ] } },
{ "type": "Feature", "properties": { "内容": "デイサービスえんち【地域密着型通所介護】長崎県南松浦郡新上五島町阿瀬津郷４５６番地１６", "url": "https://www.kaigokensaku.mhlw.go.jp/42/index.php?action_kouhyou_detail_004_kani=true&JigyosyoCd=4291600130-00&ServiceCd=780&Type=search", "url2": null }, "geometry": { "type": "Point", "coordinates": [ 129.1205434, 32.9533496 ] } },
{ "type": "Feature", "properties": { "内容": "デイサービスセンターｎａｇｏｍｉ【地域密着型通所介護】長崎県南松浦郡新上五島町奈摩郷910番地44", "url": "https://www.kaigokensaku.mhlw.go.jp/42/index.php?action_kouhyou_detail_004_kani=true&JigyosyoCd=4271601249-00&ServiceCd=780&Type=search", "url2": "http：//www.shinkamigoto.net/" }, "geometry": { "type": "Point", "coordinates": [ 129.0736647, 33.0179055 ] } },
{ "type": "Feature", "properties": { "内容": "デイサービスセンターわかまつ【地域密着型通所介護】長崎県南松浦郡新上五島町若松郷288番地特別養護老人ホームわかまつ", "url": "https://www.kaigokensaku.mhlw.go.jp/42/index.php?action_kouhyou_detail_004_kani=true&JigyosyoCd=4291600098-00&ServiceCd=780&Type=search", "url2": null }, "geometry": { "type": "Point", "coordinates": [ 129.022072799999933, 32.8872339 ] } },
{ "type": "Feature", "properties": { "内容": "北魚目デイサービスセンター【地域密着型通所介護】長崎県南松浦郡新上五島町小串郷１４４８番地", "url": "https://www.kaigokensaku.mhlw.go.jp/42/index.php?action_kouhyou_detail_004_kani=true&JigyosyoCd=4271601017-00&ServiceCd=780&Type=search", "url2": null }, "geometry": { "type": "Point", "coordinates": [ 129.097095, 33.0546328 ] } },
{ "type": "Feature", "properties": { "内容": "有川デイサービスセンターふれあい【地域密着型通所介護】有川郷2360番地8有川地域福祉センターふれあい", "url": "https://www.kaigokensaku.mhlw.go.jp/42/index.php?action_kouhyou_detail_004_kani=true&JigyosyoCd=4291600114-00&ServiceCd=780&Type=search", "url2": null }, "geometry": { "type": "Point", "coordinates": [ 129.1101536, 32.9794062 ] } }
]
}
