{
"type": "FeatureCollection",
"name": "geo_42_特定施設入居者生活介護（軽費老人ホーム）",
"crs": { "type": "name", "properties": { "name": "urn:ogc:def:crs:OGC:1.3:CRS84" } },
"features": [
{ "type": "Feature", "properties": { "内容": "特定施設入居者生活介護事業所ケアハウスかおり【特定施設入居者生活介護（軽費老人ホーム）】長崎県長崎市三京町８１１番地３３", "url": "https://www.kaigokensaku.mhlw.go.jp/42/index.php?action_kouhyou_detail_004_kani=true&JigyosyoCd=4270100631-00&ServiceCd=332&Type=search", "url2": "http://www.m-caritas.jp" }, "geometry": { "type": "Point", "coordinates": [ 129.756053599999973, 32.8218654 ] } },
{ "type": "Feature", "properties": { "内容": "特定施設入居者生活介護事業所　ケアハウス稲佐の森【特定施設入居者生活介護（軽費老人ホーム）】長崎県長崎市大谷町４１８番地１", "url": "https://www.kaigokensaku.mhlw.go.jp/42/index.php?action_kouhyou_detail_004_kani=true&JigyosyoCd=4270106547-00&ServiceCd=332&Type=search", "url2": "http://www.nagasaki-kouseifukushidan.or.jp/" }, "geometry": { "type": "Point", "coordinates": [ 129.850955, 32.7483184 ] } },
{ "type": "Feature", "properties": { "内容": "特定施設入所者生活介護　天神ベイヒルズ【特定施設入居者生活介護（軽費老人ホーム）】佐世保市天神町1205-5", "url": "https://www.kaigokensaku.mhlw.go.jp/42/index.php?action_kouhyou_detail_004_kani=true&JigyosyoCd=4270202874-00&ServiceCd=332&Type=search", "url2": "www.yohkohkai.or.jp" }, "geometry": { "type": "Point", "coordinates": [ 129.733175699999947, 33.1467358 ] } },
{ "type": "Feature", "properties": { "内容": "社会福祉法人　幼老育成会　ケアハウス和楽園【特定施設入居者生活介護（軽費老人ホーム）】長崎県佐世保市花園町２０５－５０", "url": "https://www.kaigokensaku.mhlw.go.jp/42/index.php?action_kouhyou_detail_004_kani=true&JigyosyoCd=4270200936-00&ServiceCd=332&Type=search", "url2": "https://www.yourouikuseikai.jp" }, "geometry": { "type": "Point", "coordinates": [ 129.72222869999996, 33.1821401 ] } },
{ "type": "Feature", "properties": { "内容": "ケアハウス光の子特定施設入所者生活介護事業所【特定施設入居者生活介護（軽費老人ホーム）】長崎県佐世保市上原町749-1", "url": "https://www.kaigokensaku.mhlw.go.jp/42/index.php?action_kouhyou_detail_004_kani=true&JigyosyoCd=4270202544-00&ServiceCd=332&Type=search", "url2": "http://www.hikarinoko-fukushikai.or.jp/care/sisetu/care_house/index.html" }, "geometry": { "type": "Point", "coordinates": [ 129.802503300000012, 33.1553199 ] } },
{ "type": "Feature", "properties": { "内容": "ケアハウスとうめい【特定施設入居者生活介護（軽費老人ホーム）】長崎県佐世保市江上町935番1", "url": "https://www.kaigokensaku.mhlw.go.jp/42/index.php?action_kouhyou_detail_004_kani=true&JigyosyoCd=4270203260-00&ServiceCd=332&Type=search", "url2": "https://toumeikai.com/" }, "geometry": { "type": "Point", "coordinates": [ 129.770704099999989, 33.1039014 ] } },
{ "type": "Feature", "properties": { "内容": "ケアハウスあかりさき【特定施設入居者生活介護（軽費老人ホーム）】長崎県佐世保市赤崎町1042番地", "url": "https://www.kaigokensaku.mhlw.go.jp/42/index.php?action_kouhyou_detail_004_kani=true&JigyosyoCd=4270203666-00&ServiceCd=332&Type=search", "url2": "https://www.houjyukai.net" }, "geometry": { "type": "Point", "coordinates": [ 129.701864699999987, 33.1528652 ] } },
{ "type": "Feature", "properties": { "内容": "社会福祉法人　由起会　ケアハウス　フォレスト　四季の里【特定施設入居者生活介護（軽費老人ホーム）】長崎県佐世保市柚木町２４０９番地", "url": "https://www.kaigokensaku.mhlw.go.jp/42/index.php?action_kouhyou_detail_004_kani=true&JigyosyoCd=4270203930-00&ServiceCd=332&Type=search", "url2": "http://www.cos-mos.jp/shiki/" }, "geometry": { "type": "Point", "coordinates": [ 129.769235400000071, 33.2104555 ] } },
{ "type": "Feature", "properties": { "内容": "ケアハウス　かしの木【特定施設入居者生活介護（軽費老人ホーム）】長崎県佐世保市鹿町町下歌ケ浦１０９－２", "url": "https://www.kaigokensaku.mhlw.go.jp/42/index.php?action_kouhyou_detail_004_kani=true&JigyosyoCd=4271501076-00&ServiceCd=332&Type=search", "url2": "http://www.seisyukai.jp/establishment/kashinoki.html" }, "geometry": { "type": "Point", "coordinates": [ 129.593145700000036, 33.2746343 ] } },
{ "type": "Feature", "properties": { "内容": "ケアハウス　ガーデンハイツはいき【特定施設入居者生活介護（軽費老人ホーム）】長崎県佐世保市桑木場町159番地", "url": "https://www.kaigokensaku.mhlw.go.jp/42/index.php?action_kouhyou_detail_004_kani=true&JigyosyoCd=4270204706-00&ServiceCd=332&Type=search", "url2": "https://www.kenseikai-haiki.com" }, "geometry": { "type": "Point", "coordinates": [ 129.82201520000001, 33.1450881 ] } },
{ "type": "Feature", "properties": { "内容": "ケァハウスしまばら特定施設入居者生活介護事業所【特定施設入居者生活介護（軽費老人ホーム）】長崎県島原市下川尻町８３５１番地", "url": "https://www.kaigokensaku.mhlw.go.jp/42/index.php?action_kouhyou_detail_004_kani=true&JigyosyoCd=4270300819-00&ServiceCd=332&Type=search", "url2": "https://www.care-house.net/" }, "geometry": { "type": "Point", "coordinates": [ 130.368645199999946, 32.7715345 ] } },
{ "type": "Feature", "properties": { "内容": "ケアハウス第二椿寿荘【特定施設入居者生活介護（軽費老人ホーム）】長崎県諫早市栄田町５８２番９", "url": "https://www.kaigokensaku.mhlw.go.jp/42/index.php?action_kouhyou_detail_004_kani=true&JigyosyoCd=4270401617-00&ServiceCd=332&Type=search", "url2": "https://fuyounet.jp/" }, "geometry": { "type": "Point", "coordinates": [ 130.032020797483796, 32.866517844419924 ] } },
{ "type": "Feature", "properties": { "内容": "ケアハウス豊寿園【特定施設入居者生活介護（軽費老人ホーム）】長崎県諫早市高来町西尾229番地1", "url": "https://www.kaigokensaku.mhlw.go.jp/42/index.php?action_kouhyou_detail_004_kani=true&JigyosyoCd=4270403795-00&ServiceCd=332&Type=search", "url2": "https://houjuen.com/" }, "geometry": { "type": "Point", "coordinates": [ 130.111519914016753, 32.905206738733526 ] } },
{ "type": "Feature", "properties": { "内容": "ケアハウスじゃんがら【特定施設入居者生活介護（軽費老人ホーム）】長崎県平戸市浦の町730番地1", "url": "https://www.kaigokensaku.mhlw.go.jp/42/index.php?action_kouhyou_detail_004_kani=true&JigyosyoCd=4270700299-00&ServiceCd=332&Type=search", "url2": "http://kyk-kitagawahp.com/" }, "geometry": { "type": "Point", "coordinates": [ 129.552360200000066, 33.3715197 ] } },
{ "type": "Feature", "properties": { "内容": "ケアハウス対馬の杜【特定施設入居者生活介護（軽費老人ホーム）】長崎県対馬市美津島町鶏知乙４６１番地２", "url": "https://www.kaigokensaku.mhlw.go.jp/42/index.php?action_kouhyou_detail_004_kani=true&JigyosyoCd=4272000383-00&ServiceCd=332&Type=search", "url2": "https://asukafukushikai.com/center/tsushimano_mori" }, "geometry": { "type": "Point", "coordinates": [ 129.317017466121371, 34.283992765529355 ] } },
{ "type": "Feature", "properties": { "内容": "ケアハウス桜花苑特定施設入居者生活介護事業所【特定施設入居者生活介護（軽費老人ホーム）】長崎県雲仙市小浜町北本町１０５６番地３", "url": "https://www.kaigokensaku.mhlw.go.jp/42/index.php?action_kouhyou_detail_004_kani=true&JigyosyoCd=4271401954-00&ServiceCd=332&Type=search", "url2": "http://www.oukaen.jp/" }, "geometry": { "type": "Point", "coordinates": [ 130.214800700000069, 32.7265178 ] } },
{ "type": "Feature", "properties": { "内容": "ケアハウス　フェリーチェみずほ【特定施設入居者生活介護（軽費老人ホーム）】長崎県雲仙市瑞穂町伊福甲６８１", "url": "https://www.kaigokensaku.mhlw.go.jp/42/index.php?action_kouhyou_detail_004_kani=true&JigyosyoCd=4272400294-00&ServiceCd=332&Type=search", "url2": "http://www.sinwakai.net/" }, "geometry": { "type": "Point", "coordinates": [ 130.238436500000034, 32.861447 ] } }
]
}
