{
"type": "FeatureCollection",
"name": "geo_42_小規模多機能型居宅介護",
"crs": { "type": "name", "properties": { "name": "urn:ogc:def:crs:OGC:1.3:CRS84" } },
"features": [
{ "type": "Feature", "properties": { "内容": "長崎ケアハートガーデン　小規模多機能ホーム小ヶ倉【小規模多機能型居宅介護】長崎県長崎市小ヶ倉町三丁目76番27号", "url": "https://www.kaigokensaku.mhlw.go.jp/42/index.php?action_kouhyou_detail_004_kani=true&JigyosyoCd=4290100405-00&ServiceCd=730&Type=search", "url2": "http://www.mdlife.co.jp" }, "geometry": { "type": "Point", "coordinates": [ 129.847064499999988, 32.7037003 ] } },
{ "type": "Feature", "properties": { "内容": "長崎ケアハートガーデン　小規模多機能ホーム深堀【小規模多機能型居宅介護】長崎県長崎市深堀町１丁目４４５番地", "url": "https://www.kaigokensaku.mhlw.go.jp/42/index.php?action_kouhyou_detail_004_kani=true&JigyosyoCd=4290100942-00&ServiceCd=730&Type=search", "url2": "http://www.mdlife.co.jp/" }, "geometry": { "type": "Point", "coordinates": [ 129.829593899999963, 32.6843238 ] } },
{ "type": "Feature", "properties": { "内容": "介護ハウスかたらんね【小規模多機能型居宅介護】長崎県長崎市北陽町２７－６", "url": "https://www.kaigokensaku.mhlw.go.jp/42/index.php?action_kouhyou_detail_004_kani=true&JigyosyoCd=4290101072-00&ServiceCd=730&Type=search", "url2": "https://kataranne-nagasaki.com/" }, "geometry": { "type": "Point", "coordinates": [ 129.823812456528344, 32.81122055983203 ] } },
{ "type": "Feature", "properties": { "内容": "小規模多機能型居宅介護事業所　ふるさと【小規模多機能型居宅介護】長崎県長崎市伊王島町２丁目７９２番地", "url": "https://www.kaigokensaku.mhlw.go.jp/42/index.php?action_kouhyou_detail_004_kani=true&JigyosyoCd=4290100678-00&ServiceCd=730&Type=search", "url2": "https://www.furusato-ioujima.or.jp/" }, "geometry": { "type": "Point", "coordinates": [ 129.779161935048506, 32.700990500710731 ] } },
{ "type": "Feature", "properties": { "内容": "小規模多機能型居宅介護事業所　ふるさとⅡ【小規模多機能型居宅介護】長崎県長崎市高島町２７０６番地４", "url": "https://www.kaigokensaku.mhlw.go.jp/42/index.php?action_kouhyou_detail_004_kani=true&JigyosyoCd=4290101650-00&ServiceCd=730&Type=search", "url2": "https://www.furusato-ioujima.or.jp/page1" }, "geometry": { "type": "Point", "coordinates": [ 129.7550565, 32.6596421 ] } },
{ "type": "Feature", "properties": { "内容": "医療法人昭和会　指定小規模多機能型居宅介護事業所　みなみ風【小規模多機能型居宅介護】長崎県長崎市川上町28番10号", "url": "https://www.kaigokensaku.mhlw.go.jp/42/index.php?action_kouhyou_detail_004_kani=true&JigyosyoCd=4290100264-00&ServiceCd=730&Type=search", "url2": "www.showakai-hp.jp" }, "geometry": { "type": "Point", "coordinates": [ 129.878423, 32.7273655 ] } },
{ "type": "Feature", "properties": { "内容": "小規模多機能型居宅介護　サンブライト愛宕Ⅲ【小規模多機能型居宅介護】長崎県長崎市愛宕４丁目１２番５３号", "url": "https://www.kaigokensaku.mhlw.go.jp/42/index.php?action_kouhyou_detail_004_kani=true&JigyosyoCd=4290101551-00&ServiceCd=730&Type=search", "url2": "hakuwakai.or.jp/" }, "geometry": { "type": "Point", "coordinates": [ 129.892239, 32.7336976 ] } },
{ "type": "Feature", "properties": { "内容": "医療法人社団健昌会　小規模多機能ホーム新里城栄【小規模多機能型居宅介護】長崎県長崎市城栄町１１番２号新里メディケア城栄", "url": "https://www.kaigokensaku.mhlw.go.jp/42/index.php?action_kouhyou_detail_004_kani=true&JigyosyoCd=4290100165-00&ServiceCd=730&Type=search", "url2": "http://shinzato.or.jp" }, "geometry": { "type": "Point", "coordinates": [ 129.858218099999931, 32.7749632 ] } },
{ "type": "Feature", "properties": { "内容": "小規模多機能ホームなんくり【小規模多機能型居宅介護】長崎県長崎市相生町９番７号", "url": "https://www.kaigokensaku.mhlw.go.jp/42/index.php?action_kouhyou_detail_004_kani=true&JigyosyoCd=4290100256-00&ServiceCd=730&Type=search", "url2": "http://www.syunjyu-kai.or.jp/" }, "geometry": { "type": "Point", "coordinates": [ 129.87115940000001, 32.7346619 ] } },
{ "type": "Feature", "properties": { "内容": "介護ハウス花椿2号館【小規模多機能型居宅介護】長崎県長崎市為石町3197-1", "url": "https://www.kaigokensaku.mhlw.go.jp/42/index.php?action_kouhyou_detail_004_kani=true&JigyosyoCd=4290100769-00&ServiceCd=730&Type=search", "url2": null }, "geometry": { "type": "Point", "coordinates": [ 129.83142829999997, 32.6468378 ] } },
{ "type": "Feature", "properties": { "内容": "介護ハウス花椿1号館【小規模多機能型居宅介護】長崎県長崎市為石町３１９９－５", "url": "https://www.kaigokensaku.mhlw.go.jp/42/index.php?action_kouhyou_detail_004_kani=true&JigyosyoCd=4290100439-00&ServiceCd=730&Type=search", "url2": "https://smilecs.jp" }, "geometry": { "type": "Point", "coordinates": [ 129.831106099999943, 32.6468073 ] } },
{ "type": "Feature", "properties": { "内容": "介護ハウス花椿西山館【小規模多機能型居宅介護】長崎県長崎市西山1丁目15-3", "url": "https://www.kaigokensaku.mhlw.go.jp/42/index.php?action_kouhyou_detail_004_kani=true&JigyosyoCd=4290100934-00&ServiceCd=730&Type=search", "url2": "https://smilecs.jp/" }, "geometry": { "type": "Point", "coordinates": [ 129.881765940058926, 32.758047131006421 ] } },
{ "type": "Feature", "properties": { "内容": "多機能ホーム　ハートぽっぽ　平和公園【小規模多機能型居宅介護】長崎県長崎市岡町７－１６多機能ホーム　ハートぽっぽ　平和公園", "url": "https://www.kaigokensaku.mhlw.go.jp/42/index.php?action_kouhyou_detail_004_kani=true&JigyosyoCd=4290100827-00&ServiceCd=730&Type=search", "url2": "http://www.heart-create.com" }, "geometry": { "type": "Point", "coordinates": [ 129.863661900000011, 32.7774159 ] } },
{ "type": "Feature", "properties": { "内容": "クローバーハウス【小規模多機能型居宅介護】昭和1丁目8-5", "url": "https://www.kaigokensaku.mhlw.go.jp/42/index.php?action_kouhyou_detail_004_kani=true&JigyosyoCd=4290102088-00&ServiceCd=730&Type=search", "url2": "https://www.fujimoto-group.jp/office/rk/cg-house" }, "geometry": { "type": "Point", "coordinates": [ 140.745489600000013, 41.814406 ] } },
{ "type": "Feature", "properties": { "内容": "クローバーハウス赤迫【小規模多機能型居宅介護】長崎県長崎市赤迫2丁目8番3号", "url": "https://www.kaigokensaku.mhlw.go.jp/42/index.php?action_kouhyou_detail_004_kani=true&JigyosyoCd=4290101601-00&ServiceCd=730&Type=search", "url2": "http://www.fujimoto-group.jp" }, "geometry": { "type": "Point", "coordinates": [ 129.854627400228736, 32.798734152263485 ] } },
{ "type": "Feature", "properties": { "内容": "小規模多機能ホーム　Ｌｉａｎ南ヶ丘【小規模多機能型居宅介護】長崎県長崎市南が丘町８番６号", "url": "https://www.kaigokensaku.mhlw.go.jp/42/index.php?action_kouhyou_detail_004_kani=true&JigyosyoCd=4290100843-00&ServiceCd=730&Type=search", "url2": "http://ｗｗｗ．ｓｉｎｋａｍｉｇｏｔｏ．ｎｅｔ/" }, "geometry": { "type": "Point", "coordinates": [ 129.885161499999981, 32.7281629 ] } },
{ "type": "Feature", "properties": { "内容": "上銭座の丘【小規模多機能型居宅介護】長崎県長崎市上銭座町３番１号", "url": "https://www.kaigokensaku.mhlw.go.jp/42/index.php?action_kouhyou_detail_004_kani=true&JigyosyoCd=4290102021-00&ServiceCd=730&Type=search", "url2": "https://kamizenza.com/" }, "geometry": { "type": "Point", "coordinates": [ 129.868735200000032, 32.7639696 ] } },
{ "type": "Feature", "properties": { "内容": "エフ・ステージ桜馬場【小規模多機能型居宅介護】長崎県長崎市桜馬場2丁目1-9", "url": "https://www.kaigokensaku.mhlw.go.jp/42/index.php?action_kouhyou_detail_004_kani=true&JigyosyoCd=4290101718-00&ServiceCd=730&Type=search", "url2": "https://entowa.co.jp" }, "geometry": { "type": "Point", "coordinates": [ 129.8895082, 32.7530478 ] } },
{ "type": "Feature", "properties": { "内容": "小規模多機能型居宅介護事業所　ほっとハウス北陽【小規模多機能型居宅介護】長崎県長崎市滑石５丁目５番２３号", "url": "https://www.kaigokensaku.mhlw.go.jp/42/index.php?action_kouhyou_detail_004_kani=true&JigyosyoCd=4290100470-00&ServiceCd=730&Type=search", "url2": "https://hothouse-nameshi.jp/" }, "geometry": { "type": "Point", "coordinates": [ 129.834103899999945, 32.8056596 ] } },
{ "type": "Feature", "properties": { "内容": "小規模多機能介護センター　オーシャン【小規模多機能型居宅介護】長崎市式見町461-7", "url": "https://www.kaigokensaku.mhlw.go.jp/42/index.php?action_kouhyou_detail_004_kani=true&JigyosyoCd=4290101080-00&ServiceCd=730&Type=search", "url2": "ocean@oohama50.jp" }, "geometry": { "type": "Point", "coordinates": [ 129.790632049598656, 32.785122574294483 ] } },
{ "type": "Feature", "properties": { "内容": "小規模多機能型居宅介護事業所牧島荘【小規模多機能型居宅介護】長崎市牧島町9番地1介護老人福祉施設牧島荘", "url": "https://www.kaigokensaku.mhlw.go.jp/42/index.php?action_kouhyou_detail_004_kani=true&JigyosyoCd=4290101585-00&ServiceCd=730&Type=search", "url2": "http：//www.makisima.org" }, "geometry": { "type": "Point", "coordinates": [ 129.9875108, 32.7495423 ] } },
{ "type": "Feature", "properties": { "内容": "小規模多機能型居宅介護さくらⅡ【小規模多機能型居宅介護】長崎県長崎市みなと坂1丁目5番1号", "url": "https://www.kaigokensaku.mhlw.go.jp/42/index.php?action_kouhyou_detail_004_kani=true&JigyosyoCd=4290100645-00&ServiceCd=730&Type=search", "url2": "https://asukafukushikai.jp/" }, "geometry": { "type": "Point", "coordinates": [ 129.8390948, 32.7291087 ] } },
{ "type": "Feature", "properties": { "内容": "小規模多機能型居宅介護さくら【小規模多機能型居宅介護】長崎県長崎市みなと坂1丁目6番35号", "url": "https://www.kaigokensaku.mhlw.go.jp/42/index.php?action_kouhyou_detail_004_kani=true&JigyosyoCd=4290100330-00&ServiceCd=730&Type=search", "url2": "https://asukafukushikai.com/" }, "geometry": { "type": "Point", "coordinates": [ 129.838550400000031, 32.7289948 ] } },
{ "type": "Feature", "properties": { "内容": "ハートステーション夕陽が丘【小規模多機能型居宅介護】長崎県長崎市住吉町21番7号", "url": "https://www.kaigokensaku.mhlw.go.jp/42/index.php?action_kouhyou_detail_004_kani=true&JigyosyoCd=4290101452-00&ServiceCd=730&Type=search", "url2": "https://kagurakai.or.jp" }, "geometry": { "type": "Point", "coordinates": [ 129.858705800000052, 32.7940054 ] } },
{ "type": "Feature", "properties": { "内容": "小規模多機能型居宅介護事業所サンハイツ青山【小規模多機能型居宅介護】長崎県長崎市青山町2番36号", "url": "https://www.kaigokensaku.mhlw.go.jp/42/index.php?action_kouhyou_detail_004_kani=true&JigyosyoCd=4290101882-00&ServiceCd=730&Type=search", "url2": "http://www.sanhaitsu.jp/" }, "geometry": { "type": "Point", "coordinates": [ 129.8517005, 32.778278 ] } },
{ "type": "Feature", "properties": { "内容": "小規模多機能型居宅介護事業所サンハイツ西町【小規模多機能型居宅介護】長崎県長崎市白鳥町9番9号", "url": "https://www.kaigokensaku.mhlw.go.jp/42/index.php?action_kouhyou_detail_004_kani=true&JigyosyoCd=4290101684-00&ServiceCd=730&Type=search", "url2": "http:www.sanhaitsu.jp/" }, "geometry": { "type": "Point", "coordinates": [ 129.8561436, 32.7848244 ] } },
{ "type": "Feature", "properties": { "内容": "小規模多機能型居宅介護事業所　椿ヶ丘【小規模多機能型居宅介護】長崎県長崎市神浦丸尾町1497番地2", "url": "https://www.kaigokensaku.mhlw.go.jp/42/index.php?action_kouhyou_detail_004_kani=true&JigyosyoCd=4290101106-00&ServiceCd=730&Type=search", "url2": "www.tsubakigaoka.jp" }, "geometry": { "type": "Point", "coordinates": [ 129.687562124162014, 32.881518468576246 ] } },
{ "type": "Feature", "properties": { "内容": "小規模多機能居宅介護事業所　すみれの里【小規模多機能型居宅介護】長崎県長崎市富士見町１５番５号", "url": "https://www.kaigokensaku.mhlw.go.jp/42/index.php?action_kouhyou_detail_004_kani=true&JigyosyoCd=4290100488-00&ServiceCd=730&Type=search", "url2": null }, "geometry": { "type": "Point", "coordinates": [ 129.853446399999939, 32.7709136 ] } },
{ "type": "Feature", "properties": { "内容": "多機能ホームいわや【小規模多機能型居宅介護】長崎県長崎市岩屋町２５－７　5階有限会社メディカル葉山ビル介護保険サービスセンタ-５階", "url": "https://www.kaigokensaku.mhlw.go.jp/42/index.php?action_kouhyou_detail_004_kani=true&JigyosyoCd=4290100587-00&ServiceCd=730&Type=search", "url2": "http://medical-hayama.com/" }, "geometry": { "type": "Point", "coordinates": [ 129.851216900000054, 32.8023266 ] } },
{ "type": "Feature", "properties": { "内容": "医療法人社団健昌会　小規模多機能ホーム新里大橋【小規模多機能型居宅介護】長崎県長崎市江里町2番6号新里メディケア大橋", "url": "https://www.kaigokensaku.mhlw.go.jp/42/index.php?action_kouhyou_detail_004_kani=true&JigyosyoCd=4290101064-00&ServiceCd=730&Type=search", "url2": "http://shinzato.jp/" }, "geometry": { "type": "Point", "coordinates": [ 129.857848399999966, 32.7787767 ] } },
{ "type": "Feature", "properties": { "内容": "小規模多機能型居宅介護事業所ふるさと【小規模多機能型居宅介護】長崎県長崎市伊王島町２丁目７９２番地", "url": "https://www.kaigokensaku.mhlw.go.jp/42/index.php?action_kouhyou_detail_004_kani=true&JigyosyoCd=4290102120-00&ServiceCd=730&Type=search", "url2": null }, "geometry": { "type": "Point", "coordinates": [ 129.779157199999986, 32.7009855 ] } },
{ "type": "Feature", "properties": { "内容": "小規模多機能型居宅介護事業所ふるさとⅡ【小規模多機能型居宅介護】長崎県長崎市高島町2706番地4", "url": "https://www.kaigokensaku.mhlw.go.jp/42/index.php?action_kouhyou_detail_004_kani=true&JigyosyoCd=4290102146-00&ServiceCd=730&Type=search", "url2": null }, "geometry": { "type": "Point", "coordinates": [ 129.755091099999987, 32.655302 ] } },
{ "type": "Feature", "properties": { "内容": "ながさきけあはーとがーでん　しょうきぼたきのうほーむふかほり【小規模多機能型居宅介護】長崎県長崎市深堀町１丁目445番地", "url": "https://www.kaigokensaku.mhlw.go.jp/42/index.php?action_kouhyou_detail_004_kani=true&JigyosyoCd=4290102211-00&ServiceCd=730&Type=search", "url2": "https://www.careheart-garden.com/facilities/nagasaki4.html" }, "geometry": { "type": "Point", "coordinates": [ 129.8292327, 32.6848405 ] } },
{ "type": "Feature", "properties": { "内容": "長崎ケアハートガーデン　小規模多機能ホーム南山手【小規模多機能型居宅介護】長崎県長崎市小曽根町1-33マルタヤ南山手クラブB１階", "url": "https://www.kaigokensaku.mhlw.go.jp/42/index.php?action_kouhyou_detail_004_kani=true&JigyosyoCd=4290102229-00&ServiceCd=730&Type=search", "url2": "https://www.careheart-garden.com/" }, "geometry": { "type": "Point", "coordinates": [ 129.8679105, 32.7345161 ] } },
{ "type": "Feature", "properties": { "内容": "小規模多機能ホーム小ヶ倉【小規模多機能型居宅介護】長崎市小ヶ倉町３丁目76-27", "url": "https://www.kaigokensaku.mhlw.go.jp/42/index.php?action_kouhyou_detail_004_kani=true&JigyosyoCd=4290102237-00&ServiceCd=730&Type=search", "url2": "careheart-garden.com" }, "geometry": { "type": "Point", "coordinates": [ 129.84707370000001, 32.7036425 ] } },
{ "type": "Feature", "properties": { "内容": "小規模多機能ホームうちんがた戸町【小規模多機能型居宅介護】長崎県長崎市戸町4丁目7番20号", "url": "https://www.kaigokensaku.mhlw.go.jp/42/index.php?action_kouhyou_detail_004_kani=true&JigyosyoCd=4290100215-00&ServiceCd=730&Type=search", "url2": "http://www.kenyukai.or.jp/fukushimura/" }, "geometry": { "type": "Point", "coordinates": [ 129.861166, 32.7202101 ] } },
{ "type": "Feature", "properties": { "内容": "小規模多機能型居宅介護サンブライト茂木【小規模多機能型居宅介護】長崎県長崎市茂木町148番地18", "url": "https://www.kaigokensaku.mhlw.go.jp/42/index.php?action_kouhyou_detail_004_kani=true&JigyosyoCd=4290101759-00&ServiceCd=730&Type=search", "url2": "https://hakuwakai.or.jp" }, "geometry": { "type": "Point", "coordinates": [ 129.908242569975272, 32.70888094493646 ] } },
{ "type": "Feature", "properties": { "内容": "小規模多機能型居宅介護サンブライト上小島【小規模多機能型居宅介護】長崎県長崎市上小島３丁目１番５号", "url": "https://www.kaigokensaku.mhlw.go.jp/42/index.php?action_kouhyou_detail_004_kani=true&JigyosyoCd=4290100975-00&ServiceCd=730&Type=search", "url2": "http://hakuwakai.or.jp" }, "geometry": { "type": "Point", "coordinates": [ 129.888633671163944, 32.734911493982509 ] } },
{ "type": "Feature", "properties": { "内容": "小規模多機能型居宅介護事業所　ひばり苑戸町【小規模多機能型居宅介護】長崎市上戸町2丁目17-11", "url": "https://www.kaigokensaku.mhlw.go.jp/42/index.php?action_kouhyou_detail_004_kani=true&JigyosyoCd=4290102179-00&ServiceCd=730&Type=search", "url2": "https://hibarien.jp/" }, "geometry": { "type": "Point", "coordinates": [ 129.8679262, 32.7144954 ] } },
{ "type": "Feature", "properties": { "内容": "小規模多機能型居宅介護事業所ひばり苑【小規模多機能型居宅介護】長崎県長崎市小菅町29番3号", "url": "https://www.kaigokensaku.mhlw.go.jp/42/index.php?action_kouhyou_detail_004_kani=true&JigyosyoCd=4290100728-00&ServiceCd=730&Type=search", "url2": "http://hibarien.jp/" }, "geometry": { "type": "Point", "coordinates": [ 129.864901700000019, 32.725779100000025 ] } },
{ "type": "Feature", "properties": { "内容": "小規模多機能ホーム　王樹【小規模多機能型居宅介護】長崎県長崎市古賀町994番地6", "url": "https://www.kaigokensaku.mhlw.go.jp/42/index.php?action_kouhyou_detail_004_kani=true&JigyosyoCd=4290100991-00&ServiceCd=730&Type=search", "url2": "http://life-des.com/" }, "geometry": { "type": "Point", "coordinates": [ 129.958140100000094, 32.7983271 ] } },
{ "type": "Feature", "properties": { "内容": "小規模多機能型居宅介護　春日スプリングガーデン【小規模多機能型居宅介護】長崎県佐世保市春日町　714番地　1", "url": "https://www.kaigokensaku.mhlw.go.jp/42/index.php?action_kouhyou_detail_004_kani=true&JigyosyoCd=4290200270-00&ServiceCd=730&Type=search", "url2": "http://www.yohkohkai.or.jp" }, "geometry": { "type": "Point", "coordinates": [ 129.723511899999949, 33.1985081 ] } },
{ "type": "Feature", "properties": { "内容": "小規模多機能ホーム　ドリームステイ　サンガーデン大塔【小規模多機能型居宅介護】長崎県佐世保市大塔町1703番地", "url": "https://www.kaigokensaku.mhlw.go.jp/42/index.php?action_kouhyou_detail_004_kani=true&JigyosyoCd=4290200866-00&ServiceCd=730&Type=search", "url2": "//hakujyujikai.or.jp/dream/" }, "geometry": { "type": "Point", "coordinates": [ 129.775661300000024, 33.1538748 ] } },
{ "type": "Feature", "properties": { "内容": "小規模多機能ホームこさざ【小規模多機能型居宅介護】長崎県佐世保市小佐々町葛瀧361-1", "url": "https://www.kaigokensaku.mhlw.go.jp/42/index.php?action_kouhyou_detail_004_kani=true&JigyosyoCd=4290200254-00&ServiceCd=730&Type=search", "url2": "https://kosaza-home.com" }, "geometry": { "type": "Point", "coordinates": [ 129.620495365624038, 33.226815299694501 ] } },
{ "type": "Feature", "properties": { "内容": "医療法人　梶田医院　小規模多機能ホーム　有福【小規模多機能型居宅介護】長崎県佐世保市有福町90番地6", "url": "https://www.kaigokensaku.mhlw.go.jp/42/index.php?action_kouhyou_detail_004_kani=true&JigyosyoCd=4290200940-00&ServiceCd=730&Type=search", "url2": "arifuku-home@sweet.ocn.ne.jp" }, "geometry": { "type": "Point", "coordinates": [ 129.793610299999955, 33.1321495 ] } },
{ "type": "Feature", "properties": { "内容": "小規模多機能ホーム　ケアタウンてんじん【小規模多機能型居宅介護】長崎県佐世保市天神４丁目６番２０号", "url": "https://www.kaigokensaku.mhlw.go.jp/42/index.php?action_kouhyou_detail_004_kani=true&JigyosyoCd=4290201393-00&ServiceCd=730&Type=search", "url2": null }, "geometry": { "type": "Point", "coordinates": [ 129.7375227, 33.1436667 ] } },
{ "type": "Feature", "properties": { "内容": "小規模多機能ホーム　あかりの里【小規模多機能型居宅介護】長崎県佐世保市日野町731-2", "url": "https://www.kaigokensaku.mhlw.go.jp/42/index.php?action_kouhyou_detail_004_kani=true&JigyosyoCd=4290200130-00&ServiceCd=730&Type=search", "url2": null }, "geometry": { "type": "Point", "coordinates": [ 129.686491299999943, 33.1680164 ] } },
{ "type": "Feature", "properties": { "内容": "小規模多機能型事業所うえんの２【小規模多機能型居宅介護】長崎県佐世保市鹿町町上歌ヶ浦433番地", "url": "https://www.kaigokensaku.mhlw.go.jp/42/index.php?action_kouhyou_detail_004_kani=true&JigyosyoCd=4290201179-00&ServiceCd=730&Type=search", "url2": "https://kaouuenno.wixsite.com/kaou" }, "geometry": { "type": "Point", "coordinates": [ 129.588187799999986, 33.2499211 ] } },
{ "type": "Feature", "properties": { "内容": "小規模多機能型事業所　うえんの【小規模多機能型居宅介護】長崎県佐世保市鹿町町上歌ケ浦441番地", "url": "https://www.kaigokensaku.mhlw.go.jp/42/index.php?action_kouhyou_detail_004_kani=true&JigyosyoCd=4290200809-00&ServiceCd=730&Type=search", "url2": "https://kaouuenno.wixsite.com/kaou" }, "geometry": { "type": "Point", "coordinates": [ 129.588187799999986, 33.2499211 ] } },
{ "type": "Feature", "properties": { "内容": "小規模多機能ホーム　茶話の里【小規模多機能型居宅介護】長崎県佐世保市吉井町田原73-6", "url": "https://www.kaigokensaku.mhlw.go.jp/42/index.php?action_kouhyou_detail_004_kani=true&JigyosyoCd=4290200767-00&ServiceCd=730&Type=search", "url2": "https://sawanosato.sakenoitto.com" }, "geometry": { "type": "Point", "coordinates": [ 129.700192300000026, 33.261549100000011 ] } },
{ "type": "Feature", "properties": { "内容": "小規模多機能ホーム折橋【小規模多機能型居宅介護】長崎県佐世保市折橋町2-2", "url": "https://www.kaigokensaku.mhlw.go.jp/42/index.php?action_kouhyou_detail_004_kani=true&JigyosyoCd=4290201146-00&ServiceCd=730&Type=search", "url2": null }, "geometry": { "type": "Point", "coordinates": [ 129.720063748410013, 33.185824947280715 ] } },
{ "type": "Feature", "properties": { "内容": "小規模多機能ホーム　つる【小規模多機能型居宅介護】長崎県佐世保市俵町9番8号", "url": "https://www.kaigokensaku.mhlw.go.jp/42/index.php?action_kouhyou_detail_004_kani=true&JigyosyoCd=4290200262-00&ServiceCd=730&Type=search", "url2": null }, "geometry": { "type": "Point", "coordinates": [ 129.719090199999954, 33.1866564 ] } },
{ "type": "Feature", "properties": { "内容": "小規模多機能ホーム　花あかり【小規模多機能型居宅介護】長崎県佐世保市有福町９６－２", "url": "https://www.kaigokensaku.mhlw.go.jp/42/index.php?action_kouhyou_detail_004_kani=true&JigyosyoCd=4290200916-00&ServiceCd=730&Type=search", "url2": "info-fuku@hanaakari-sasebo.com" }, "geometry": { "type": "Point", "coordinates": [ 129.794664911531072, 33.131997429283622 ] } },
{ "type": "Feature", "properties": { "内容": "小規模多機能ホーム　のどか【小規模多機能型居宅介護】長崎県佐世保市牧の地町１４９０－１", "url": "https://www.kaigokensaku.mhlw.go.jp/42/index.php?action_kouhyou_detail_004_kani=true&JigyosyoCd=4290201153-00&ServiceCd=730&Type=search", "url2": null }, "geometry": { "type": "Point", "coordinates": [ 129.697320782803303, 33.218640850234543 ] } },
{ "type": "Feature", "properties": { "内容": "小規模多機能ホーム　のなか家【小規模多機能型居宅介護】長崎県佐世保市野中町１３９－１住宅型有料老人ホームのなか家", "url": "https://www.kaigokensaku.mhlw.go.jp/42/index.php?action_kouhyou_detail_004_kani=true&JigyosyoCd=4290201112-00&ServiceCd=730&Type=search", "url2": "https://yen-nonaka.co.jp/" }, "geometry": { "type": "Point", "coordinates": [ 129.706610400000045, 33.2132345 ] } },
{ "type": "Feature", "properties": { "内容": "小規模多機能ホーム　たんぽぽ【小規模多機能型居宅介護】長崎県佐世保市世知原町栗迎41-13", "url": "https://www.kaigokensaku.mhlw.go.jp/42/index.php?action_kouhyou_detail_004_kani=true&JigyosyoCd=4290201138-00&ServiceCd=730&Type=search", "url2": "https://care-net.biz/42/tanpopo" }, "geometry": { "type": "Point", "coordinates": [ 129.750996687696841, 33.256667388672831 ] } },
{ "type": "Feature", "properties": { "内容": "小規模多機能ホーム　さくらプレイス江迎【小規模多機能型居宅介護】長崎県佐世保市江迎町三浦22－19", "url": "https://www.kaigokensaku.mhlw.go.jp/42/index.php?action_kouhyou_detail_004_kani=true&JigyosyoCd=4290200924-00&ServiceCd=730&Type=search", "url2": null }, "geometry": { "type": "Point", "coordinates": [ 129.631780343763694, 33.301894866388686 ] } },
{ "type": "Feature", "properties": { "内容": "小規模多機能ホーム　ひかり【小規模多機能型居宅介護】長崎県佐世保市小佐々町小坂254-4", "url": "https://www.kaigokensaku.mhlw.go.jp/42/index.php?action_kouhyou_detail_004_kani=true&JigyosyoCd=4290200841-00&ServiceCd=730&Type=search", "url2": null }, "geometry": { "type": "Point", "coordinates": [ 129.622196487696755, 33.216646298586568 ] } },
{ "type": "Feature", "properties": { "内容": "小規模多機能ホーム　ドリームステイ　サンガーデン【小規模多機能型居宅介護】長崎県佐世保市大和町30番地", "url": "https://www.kaigokensaku.mhlw.go.jp/42/index.php?action_kouhyou_detail_004_kani=true&JigyosyoCd=4290200783-00&ServiceCd=730&Type=search", "url2": "//hakujyujikai.or.jp/dream/" }, "geometry": { "type": "Point", "coordinates": [ 129.747565563893119, 33.156508185413543 ] } },
{ "type": "Feature", "properties": { "内容": "パスカの丘【小規模多機能型居宅介護】長崎県佐世保市江迎町栗越214-2高齢者支援複合施設パスカ", "url": "https://www.kaigokensaku.mhlw.go.jp/42/index.php?action_kouhyou_detail_004_kani=true&JigyosyoCd=4290200965-00&ServiceCd=730&Type=search", "url2": null }, "geometry": { "type": "Point", "coordinates": [ 129.647526, 33.3261429 ] } },
{ "type": "Feature", "properties": { "内容": "小規模多機能ホーム　やまずみ荘【小規模多機能型居宅介護】長崎県佐世保市山祗町390番地", "url": "https://www.kaigokensaku.mhlw.go.jp/42/index.php?action_kouhyou_detail_004_kani=true&JigyosyoCd=4290200551-00&ServiceCd=730&Type=search", "url2": "https://www.yamazumiso.or.jp" }, "geometry": { "type": "Point", "coordinates": [ 129.733249592976392, 33.168912849150239 ] } },
{ "type": "Feature", "properties": { "内容": "小規模多機能ケア　音羽の浜【小規模多機能型居宅介護】長崎県佐世保市東浜町１４２番地１", "url": "https://www.kaigokensaku.mhlw.go.jp/42/index.php?action_kouhyou_detail_004_kani=true&JigyosyoCd=4290200213-00&ServiceCd=730&Type=search", "url2": "http://otowanohama.jp" }, "geometry": { "type": "Point", "coordinates": [ 129.736534, 33.1366341 ] } },
{ "type": "Feature", "properties": { "内容": "小規模多機能　カトレア【小規模多機能型居宅介護】長崎県佐世保市柚木町2194番地1", "url": "https://www.kaigokensaku.mhlw.go.jp/42/index.php?action_kouhyou_detail_004_kani=true&JigyosyoCd=4290200759-00&ServiceCd=730&Type=search", "url2": "http://www.cos-mos.jp/" }, "geometry": { "type": "Point", "coordinates": [ 129.76522291163937, 33.208775366422351 ] } },
{ "type": "Feature", "properties": { "内容": "小規模多機能ホーム　サクラ相浦【小規模多機能型居宅介護】長崎県佐世保市愛宕町１７９番地１", "url": "https://www.kaigokensaku.mhlw.go.jp/42/index.php?action_kouhyou_detail_004_kani=true&JigyosyoCd=4290200197-00&ServiceCd=730&Type=search", "url2": null }, "geometry": { "type": "Point", "coordinates": [ 129.669283700000051, 33.19688 ] } },
{ "type": "Feature", "properties": { "内容": "小規模多機能ホーム花ぞ野【小規模多機能型居宅介護】長崎県佐世保市折橋町58－1", "url": "https://www.kaigokensaku.mhlw.go.jp/42/index.php?action_kouhyou_detail_004_kani=true&JigyosyoCd=4290200080-00&ServiceCd=730&Type=search", "url2": null }, "geometry": { "type": "Point", "coordinates": [ 129.72345472540897, 33.185142432586645 ] } },
{ "type": "Feature", "properties": { "内容": "小規模多機能ホーム　サクラ早岐【小規模多機能型居宅介護】長崎県佐世保市早岐1丁目14番42号", "url": "https://www.kaigokensaku.mhlw.go.jp/42/index.php?action_kouhyou_detail_004_kani=true&JigyosyoCd=4290200460-00&ServiceCd=730&Type=search", "url2": null }, "geometry": { "type": "Point", "coordinates": [ 129.799072499999966, 33.1360356 ] } },
{ "type": "Feature", "properties": { "内容": "小規模多機能ホームサクラ白木【小規模多機能型居宅介護】長崎県佐世保市白木町23番地", "url": "https://www.kaigokensaku.mhlw.go.jp/42/index.php?action_kouhyou_detail_004_kani=true&JigyosyoCd=4290200742-00&ServiceCd=730&Type=search", "url2": "tyhana７stshiraki@gmail.com" }, "geometry": { "type": "Point", "coordinates": [ 129.732437352917486, 33.170804225606254 ] } },
{ "type": "Feature", "properties": { "内容": "小規模多機能ホームさくら坂【小規模多機能型居宅介護】佐世保市八幡町1-1", "url": "https://www.kaigokensaku.mhlw.go.jp/42/index.php?action_kouhyou_detail_004_kani=true&JigyosyoCd=4290201211-00&ServiceCd=730&Type=search", "url2": null }, "geometry": { "type": "Point", "coordinates": [ 129.721856500000058, 33.1836261 ] } },
{ "type": "Feature", "properties": { "内容": "小規模多機能ホーム　チューリップハウス【小規模多機能型居宅介護】長崎県佐世保市卸本町３６－４", "url": "https://www.kaigokensaku.mhlw.go.jp/42/index.php?action_kouhyou_detail_004_kani=true&JigyosyoCd=4290200221-00&ServiceCd=730&Type=search", "url2": "http//www.tulip.or.jp" }, "geometry": { "type": "Point", "coordinates": [ 129.77294489999997, 33.150375 ] } },
{ "type": "Feature", "properties": { "内容": "社会福祉法人　隆愛会　芙蓉【小規模多機能型居宅介護】長崎県佐世保市日野町1993-1", "url": "https://www.kaigokensaku.mhlw.go.jp/42/index.php?action_kouhyou_detail_004_kani=true&JigyosyoCd=4290200643-00&ServiceCd=730&Type=search", "url2": "http://seiaikai-group.or.jp/publics/index/73/" }, "geometry": { "type": "Point", "coordinates": [ 129.669917899999973, 33.1741139 ] } },
{ "type": "Feature", "properties": { "内容": "小規模多機能ホーム　エルダーガーデン早岐　弐番館【小規模多機能型居宅介護】長崎県佐世保市勝海町１４０－１", "url": "https://www.kaigokensaku.mhlw.go.jp/42/index.php?action_kouhyou_detail_004_kani=true&JigyosyoCd=4290200528-00&ServiceCd=730&Type=search", "url2": "http:www.nichifuru.com" }, "geometry": { "type": "Point", "coordinates": [ 129.788677300000018, 33.1412986 ] } },
{ "type": "Feature", "properties": { "内容": "小規模多機能ホーム　エルダーガーデン　早岐　壱番館【小規模多機能型居宅介護】長崎県佐世保市勝海町140-1", "url": "https://www.kaigokensaku.mhlw.go.jp/42/index.php?action_kouhyou_detail_004_kani=true&JigyosyoCd=4290200478-00&ServiceCd=730&Type=search", "url2": null }, "geometry": { "type": "Point", "coordinates": [ 129.788677300000018, 33.1412986 ] } },
{ "type": "Feature", "properties": { "内容": "小規模多機能型居宅介護　竹の子【小規模多機能型居宅介護】長崎県佐世保市世知原町栗迎８９－４８", "url": "https://www.kaigokensaku.mhlw.go.jp/42/index.php?action_kouhyou_detail_004_kani=true&JigyosyoCd=4290200775-00&ServiceCd=730&Type=search", "url2": null }, "geometry": { "type": "Point", "coordinates": [ 129.749314, 33.2563893 ] } },
{ "type": "Feature", "properties": { "内容": "小規模多機能ホーム栞莉（しおり）【小規模多機能型居宅介護】長崎県佐世保市吉岡町７30番地857-0143", "url": "https://www.kaigokensaku.mhlw.go.jp/42/index.php?action_kouhyou_detail_004_kani=true&JigyosyoCd=4290200833-00&ServiceCd=730&Type=search", "url2": "http://www.u-ikoi.co.jp/homepage2/shiori.aspx" }, "geometry": { "type": "Point", "coordinates": [ 129.703460800000016, 33.2082156 ] } },
{ "type": "Feature", "properties": { "内容": "小規模多機能ホーム　希望の家【小規模多機能型居宅介護】長崎県佐世保市有福町５３６－４４", "url": "https://www.kaigokensaku.mhlw.go.jp/42/index.php?action_kouhyou_detail_004_kani=true&JigyosyoCd=4290200346-00&ServiceCd=730&Type=search", "url2": "http://www.e-kibounoie.com" }, "geometry": { "type": "Point", "coordinates": [ 129.790060700000026, 33.1307468 ] } },
{ "type": "Feature", "properties": { "内容": "小規模多機能ホーム風の森【小規模多機能型居宅介護】矢岳町５７１－１", "url": "https://www.kaigokensaku.mhlw.go.jp/42/index.php?action_kouhyou_detail_004_kani=true&JigyosyoCd=4290200155-00&ServiceCd=730&Type=search", "url2": "http://www.n-yuaikai.jp/kazanomori.html" }, "geometry": { "type": "Point", "coordinates": [ 129.702714300000025, 33.1767573 ] } },
{ "type": "Feature", "properties": { "内容": "小規模多機能型居宅介護事業　えびらお【小規模多機能型居宅介護】長崎県佐世保市江迎町栗越801-3", "url": "https://www.kaigokensaku.mhlw.go.jp/42/index.php?action_kouhyou_detail_004_kani=true&JigyosyoCd=4290201104-00&ServiceCd=730&Type=search", "url2": null }, "geometry": { "type": "Point", "coordinates": [ 129.650500700000066, 33.3154692 ] } },
{ "type": "Feature", "properties": { "内容": "サテライト型小規模多機能ホーム栞莉（しおり）【小規模多機能型居宅介護】長崎県佐世保市吉岡町８１５-1", "url": "https://www.kaigokensaku.mhlw.go.jp/42/index.php?action_kouhyou_detail_004_kani=true&JigyosyoCd=4290201054-00&ServiceCd=730&Type=search", "url2": "http://www.u-ikoi.co.jp/homepage2/shiori.aspx" }, "geometry": { "type": "Point", "coordinates": [ 129.702026959469748, 33.208731531938554 ] } },
{ "type": "Feature", "properties": { "内容": "小規模多機能ホーム　サクラ小島【小規模多機能型居宅介護】長崎県佐世保市小島町４４１番地２", "url": "https://www.kaigokensaku.mhlw.go.jp/42/index.php?action_kouhyou_detail_004_kani=true&JigyosyoCd=4290200239-00&ServiceCd=730&Type=search", "url2": null }, "geometry": { "type": "Point", "coordinates": [ 129.696956799999953, 33.1656416 ] } },
{ "type": "Feature", "properties": { "内容": "医療法人わかば会　小規模多機能ホームわかばレジデンス【小規模多機能型居宅介護】長崎県佐世保市俵町20-4わかばレジデンス", "url": "https://www.kaigokensaku.mhlw.go.jp/42/index.php?action_kouhyou_detail_004_kani=true&JigyosyoCd=4290200858-00&ServiceCd=730&Type=search", "url2": "http://www.wakabakai.or.jp/" }, "geometry": { "type": "Point", "coordinates": [ 129.719109600000024, 33.1878341 ] } },
{ "type": "Feature", "properties": { "内容": "三川内小規模多機能ホーム　シャロンの家【小規模多機能型居宅介護】長崎県佐世保市新行江町850番地1", "url": "https://www.kaigokensaku.mhlw.go.jp/42/index.php?action_kouhyou_detail_004_kani=true&JigyosyoCd=4290200601-00&ServiceCd=730&Type=search", "url2": "http://www.hikarinoko-fukushikai.or.jp/care/sisetu/multi_home_sharon/index.html" }, "geometry": { "type": "Point", "coordinates": [ 129.832925499999988, 33.1484492 ] } },
{ "type": "Feature", "properties": { "内容": "多機能ケアあおぞら【小規模多機能型居宅介護】長崎県島原市下折橋町３４３３番地１", "url": "https://www.kaigokensaku.mhlw.go.jp/42/index.php?action_kouhyou_detail_004_kani=true&JigyosyoCd=4290300898-00&ServiceCd=730&Type=search", "url2": null }, "geometry": { "type": "Point", "coordinates": [ 130.349406400000021, 32.7909106 ] } },
{ "type": "Feature", "properties": { "内容": "小規模多機能ホーム　楽苑【小規模多機能型居宅介護】長崎県島原市有明町湯江乙1138", "url": "https://www.kaigokensaku.mhlw.go.jp/42/index.php?action_kouhyou_detail_004_kani=true&JigyosyoCd=4290300088-00&ServiceCd=730&Type=search", "url2": "http://www.rakuen.or.jp/" }, "geometry": { "type": "Point", "coordinates": [ 130.315444800000023, 32.8404061 ] } },
{ "type": "Feature", "properties": { "内容": "小規模多機能ホーム暖【小規模多機能型居宅介護】長崎県島原市城見町４２０３－２", "url": "https://www.kaigokensaku.mhlw.go.jp/42/index.php?action_kouhyou_detail_004_kani=true&JigyosyoCd=4290300906-00&ServiceCd=730&Type=search", "url2": "http://www.gh-dan.jp/" }, "geometry": { "type": "Point", "coordinates": [ 130.358336300663723, 32.789357235687298 ] } },
{ "type": "Feature", "properties": { "内容": "小規模多機能型居宅介護事業所　「きぼうの森」【小規模多機能型居宅介護】長崎県諫早市小川町331番地", "url": "https://www.kaigokensaku.mhlw.go.jp/42/index.php?action_kouhyou_detail_004_kani=true&JigyosyoCd=4290400094-00&ServiceCd=730&Type=search", "url2": null }, "geometry": { "type": "Point", "coordinates": [ 130.058389199999965, 32.828898199999983 ] } },
{ "type": "Feature", "properties": { "内容": "社会福祉法人　真津山福祉会　小規模多機能　けやき【小規模多機能型居宅介護】長崎県諫早市貝津町2662-2", "url": "https://www.kaigokensaku.mhlw.go.jp/42/index.php?action_kouhyou_detail_004_kani=true&JigyosyoCd=4290400375-00&ServiceCd=730&Type=search", "url2": "https://matsuyamafukushikai.jp" }, "geometry": { "type": "Point", "coordinates": [ 130.0197215, 32.8330996 ] } },
{ "type": "Feature", "properties": { "内容": "小規模多機能型居宅介護事業所　きらら【小規模多機能型居宅介護】長崎県諫早市本野町2－1", "url": "https://www.kaigokensaku.mhlw.go.jp/42/index.php?action_kouhyou_detail_004_kani=true&JigyosyoCd=4290400045-00&ServiceCd=730&Type=search", "url2": "http://www.sinwakai.net/" }, "geometry": { "type": "Point", "coordinates": [ 130.024773200000027, 32.8865841 ] } },
{ "type": "Feature", "properties": { "内容": "ゆたか荘サンホーム【小規模多機能型居宅介護】長崎県諫早市長田町2781番地1", "url": "https://www.kaigokensaku.mhlw.go.jp/42/index.php?action_kouhyou_detail_004_kani=true&JigyosyoCd=4290400011-00&ServiceCd=730&Type=search", "url2": "http://seiwafukushi.jp/carenet/" }, "geometry": { "type": "Point", "coordinates": [ 130.076169108428985, 32.865050270066277 ] } },
{ "type": "Feature", "properties": { "内容": "小規模多機能型居宅介護小長井【小規模多機能型居宅介護】長崎県諫早市小長井町小川原浦1215-1シルバーハウスこながい", "url": "https://www.kaigokensaku.mhlw.go.jp/42/index.php?action_kouhyou_detail_004_kani=true&JigyosyoCd=4290400128-00&ServiceCd=730&Type=search", "url2": "http://www.zenyuukai.com" }, "geometry": { "type": "Point", "coordinates": [ 130.181847100000027, 32.9215449 ] } },
{ "type": "Feature", "properties": { "内容": "小規模多機能型居宅介護　よんしゃい【小規模多機能型居宅介護】福田町32-2", "url": "https://www.kaigokensaku.mhlw.go.jp/42/index.php?action_kouhyou_detail_004_kani=true&JigyosyoCd=4290400169-00&ServiceCd=730&Type=search", "url2": "http.//www.fukusuikai.com/" }, "geometry": { "type": "Point", "coordinates": [ 130.063190820056093, 32.851066382542115 ] } },
{ "type": "Feature", "properties": { "内容": "小規模多機能　たらみ【小規模多機能型居宅介護】長崎県諫早市多良見町化屋１２３4", "url": "https://www.kaigokensaku.mhlw.go.jp/42/index.php?action_kouhyou_detail_004_kani=true&JigyosyoCd=4290400177-00&ServiceCd=730&Type=search", "url2": null }, "geometry": { "type": "Point", "coordinates": [ 129.98664909821693, 32.826676151858386 ] } },
{ "type": "Feature", "properties": { "内容": "たきのう介護みつばち【小規模多機能型居宅介護】長崎県大村市原口町653番地2", "url": "https://www.kaigokensaku.mhlw.go.jp/42/index.php?action_kouhyou_detail_004_kani=true&JigyosyoCd=4290500133-00&ServiceCd=730&Type=search", "url2": "http://glory-llc.jp/" }, "geometry": { "type": "Point", "coordinates": [ 129.951963100000057, 32.9365201 ] } },
{ "type": "Feature", "properties": { "内容": "小規模多機能型居宅介護　なごみの郷【小規模多機能型居宅介護】長崎県大村市松原1丁目472-8ワールドビル別館2F", "url": "https://www.kaigokensaku.mhlw.go.jp/42/index.php?action_kouhyou_detail_004_kani=true&JigyosyoCd=4290500117-00&ServiceCd=730&Type=search", "url2": "https://yamada-gp.main.jp/%e3%82%b5%e3%83%b3%e3%82%af%e3%83%95%e3%82%a3%e3%83%ab%e3%83%89%e6%a0%aa%e5%bc%8f%e4%bc%9a%e7%a4%be/%e3%81%aa%e3%81%94%e3%81%bf%e3%81%ae%e9%83%b7/" }, "geometry": { "type": "Point", "coordinates": [ 129.947134799999958, 32.975083 ] } },
{ "type": "Feature", "properties": { "内容": "小規模多機能　すわの杜樂苑【小規模多機能型居宅介護】長崎県大村市諏訪1丁目605番地", "url": "https://www.kaigokensaku.mhlw.go.jp/42/index.php?action_kouhyou_detail_004_kani=true&JigyosyoCd=4290500232-00&ServiceCd=730&Type=search", "url2": "https://jijibaba-net.com" }, "geometry": { "type": "Point", "coordinates": [ 129.963740418334481, 32.926379089268039 ] } },
{ "type": "Feature", "properties": { "内容": "合同会社やすらぎの家【小規模多機能型居宅介護】長崎県大村市宮小路2丁目1342番地1", "url": "https://www.kaigokensaku.mhlw.go.jp/42/index.php?action_kouhyou_detail_004_kani=true&JigyosyoCd=4290500323-00&ServiceCd=730&Type=search", "url2": "https://yasuragi301101.crayonsite.net" }, "geometry": { "type": "Point", "coordinates": [ 129.942944, 32.9502858 ] } },
{ "type": "Feature", "properties": { "内容": "小規模多機能ﾍﾞｲサイド大村【小規模多機能型居宅介護】長崎県大村市西部町264-4", "url": "https://www.kaigokensaku.mhlw.go.jp/42/index.php?action_kouhyou_detail_004_kani=true&JigyosyoCd=4290500414-00&ServiceCd=730&Type=search", "url2": "http://zuihoukai.org/about" }, "geometry": { "type": "Point", "coordinates": [ 129.967337664418068, 32.877864741758195 ] } },
{ "type": "Feature", "properties": { "内容": "小規模多機能ホームあんのん【小規模多機能型居宅介護】長崎県大村市協和町710番地1", "url": "https://www.kaigokensaku.mhlw.go.jp/42/index.php?action_kouhyou_detail_004_kani=true&JigyosyoCd=4290500091-00&ServiceCd=730&Type=search", "url2": "http://www.annon.co.jp" }, "geometry": { "type": "Point", "coordinates": [ 129.946119599999946, 32.9185688 ] } },
{ "type": "Feature", "properties": { "内容": "多機能ホーム　かやぜの里【小規模多機能型居宅介護】長崎県大村市田下町372-1", "url": "https://www.kaigokensaku.mhlw.go.jp/42/index.php?action_kouhyou_detail_004_kani=true&JigyosyoCd=4290500174-00&ServiceCd=730&Type=search", "url2": "http://kayazenosato.com/" }, "geometry": { "type": "Point", "coordinates": [ 129.994430563145443, 32.950600942666959 ] } },
{ "type": "Feature", "properties": { "内容": "たきのう介護みつばちサテライト岩松【小規模多機能型居宅介護】長崎県大村市岩松町327番１", "url": "https://www.kaigokensaku.mhlw.go.jp/42/index.php?action_kouhyou_detail_004_kani=true&JigyosyoCd=4290500240-00&ServiceCd=730&Type=search", "url2": "https://glory-llc.jp/mall-2/takinou/" }, "geometry": { "type": "Point", "coordinates": [ 129.98067889999993, 32.8915436 ] } },
{ "type": "Feature", "properties": { "内容": "医療法人　牧山医院　パティオ虹【小規模多機能型居宅介護】長崎県大村市富の原２丁目７番地1", "url": "https://www.kaigokensaku.mhlw.go.jp/42/index.php?action_kouhyou_detail_004_kani=true&JigyosyoCd=4290500471-00&ServiceCd=730&Type=search", "url2": null }, "geometry": { "type": "Point", "coordinates": [ 129.941561900000011, 32.9494605 ] } },
{ "type": "Feature", "properties": { "内容": "小規模多機能ホームみんなの家【小規模多機能型居宅介護】長崎県平戸市生月町里免2178番１", "url": "https://www.kaigokensaku.mhlw.go.jp/42/index.php?action_kouhyou_detail_004_kani=true&JigyosyoCd=4290700055-00&ServiceCd=730&Type=search", "url2": null }, "geometry": { "type": "Point", "coordinates": [ 129.418960700000071, 33.38453710000001 ] } },
{ "type": "Feature", "properties": { "内容": "小規模多機能ホーム　みんなの家　たちうら【小規模多機能型居宅介護】長崎県平戸市生月町南免4432-53", "url": "https://www.kaigokensaku.mhlw.go.jp/42/index.php?action_kouhyou_detail_004_kani=true&JigyosyoCd=4290700105-00&ServiceCd=730&Type=search", "url2": null }, "geometry": { "type": "Point", "coordinates": [ 129.431338099999948, 33.3582134 ] } },
{ "type": "Feature", "properties": { "内容": "小規模多機能ホーム　城下【小規模多機能型居宅介護】長崎県対馬市厳原町今屋敷757番地", "url": "https://www.kaigokensaku.mhlw.go.jp/42/index.php?action_kouhyou_detail_004_kani=true&JigyosyoCd=4292000041-00&ServiceCd=730&Type=search", "url2": "http:asuka-fukushi.or.jp" }, "geometry": { "type": "Point", "coordinates": [ 129.290684599999963, 34.2034429 ] } },
{ "type": "Feature", "properties": { "内容": "ハートフルケアたまがわ　やぎはら小規模多機能居宅介護【小規模多機能型居宅介護】西彼町八木原郷2014-1", "url": "https://www.kaigokensaku.mhlw.go.jp/42/index.php?action_kouhyou_detail_004_kani=true&JigyosyoCd=4292300037-00&ServiceCd=730&Type=search", "url2": "http://www.9tama.co.jp/heart_top.html" }, "geometry": { "type": "Point", "coordinates": [ 129.7350533, 33.0178061 ] } },
{ "type": "Feature", "properties": { "内容": "小規模多機能ホームふるさと【小規模多機能型居宅介護】長崎県西海市西海町川内郷1608番地", "url": "https://www.kaigokensaku.mhlw.go.jp/42/index.php?action_kouhyou_detail_004_kani=true&JigyosyoCd=4292300029-00&ServiceCd=730&Type=search", "url2": "http://furusato-saikai.jp" }, "geometry": { "type": "Point", "coordinates": [ 129.717345803704802, 33.049595782935782 ] } },
{ "type": "Feature", "properties": { "内容": "小規模多機能ホーム　楽苑Ⅱ【小規模多機能型居宅介護】長崎県雲仙市瑞穂町西郷辛167", "url": "https://www.kaigokensaku.mhlw.go.jp/42/index.php?action_kouhyou_detail_004_kani=true&JigyosyoCd=4292400076-00&ServiceCd=730&Type=search", "url2": null }, "geometry": { "type": "Point", "coordinates": [ 130.2432222, 32.8716041 ] } },
{ "type": "Feature", "properties": { "内容": "小規模多機能ホームクベレ【小規模多機能型居宅介護】長崎県雲仙市千々石町戊182-4", "url": "https://www.kaigokensaku.mhlw.go.jp/42/index.php?action_kouhyou_detail_004_kani=true&JigyosyoCd=4292400068-00&ServiceCd=730&Type=search", "url2": "http://www.quelle-gp.jp/" }, "geometry": { "type": "Point", "coordinates": [ 130.199214899999987, 32.7835298 ] } },
{ "type": "Feature", "properties": { "内容": "小規模多機能ホーム暖だん【小規模多機能型居宅介護】国見町多比良乙122－1", "url": "https://www.kaigokensaku.mhlw.go.jp/42/index.php?action_kouhyou_detail_004_kani=true&JigyosyoCd=4292400118-00&ServiceCd=730&Type=search", "url2": "www.gh-dan.jp/" }, "geometry": { "type": "Point", "coordinates": [ 130.3091389, 32.870064100000015 ] } },
{ "type": "Feature", "properties": { "内容": "小規模多機能型居宅介護事業所　松原の里【小規模多機能型居宅介護】長崎県南島原市有家町中須川西浜793-1", "url": "https://www.kaigokensaku.mhlw.go.jp/42/index.php?action_kouhyou_detail_004_kani=true&JigyosyoCd=4292500107-00&ServiceCd=730&Type=search", "url2": "http://kurahara.jp/about.html" }, "geometry": { "type": "Point", "coordinates": [ 130.304332599999952, 32.6650295 ] } },
{ "type": "Feature", "properties": { "内容": "小規模多機能型居宅介護　加津佐荘【小規模多機能型居宅介護】長崎県南島原市加津佐町乙57番地", "url": "https://www.kaigokensaku.mhlw.go.jp/42/index.php?action_kouhyou_detail_004_kani=true&JigyosyoCd=4292500065-00&ServiceCd=730&Type=search", "url2": "https://kazusa-houjukai.jimdofree.com/" }, "geometry": { "type": "Point", "coordinates": [ 130.157396932679688, 32.632472194192843 ] } },
{ "type": "Feature", "properties": { "内容": "小規模多機能型居宅介護かがやき【小規模多機能型居宅介護】長崎県西彼杵郡長与町本川内郷２番地３特別養護老人ホームかがやき", "url": "https://www.kaigokensaku.mhlw.go.jp/42/index.php?action_kouhyou_detail_004_kani=true&JigyosyoCd=4291100073-00&ServiceCd=730&Type=search", "url2": "http://nagayo-kousaikai.jp/" }, "geometry": { "type": "Point", "coordinates": [ 129.8975299, 32.8232648 ] } },
{ "type": "Feature", "properties": { "内容": "小規模多機能型居宅介護ぴーぷる長崎【小規模多機能型居宅介護】長崎県西彼杵郡長与町岡郷１６５７番地１", "url": "https://www.kaigokensaku.mhlw.go.jp/42/index.php?action_kouhyou_detail_004_kani=true&JigyosyoCd=4291100032-00&ServiceCd=730&Type=search", "url2": "http://peapl-nagasaki.co.jp/" }, "geometry": { "type": "Point", "coordinates": [ 129.8748167, 32.8520923 ] } },
{ "type": "Feature", "properties": { "内容": "小規模多機能ホーム　侑和【小規模多機能型居宅介護】長崎県東彼杵郡波佐見町折敷瀬郷1024-1", "url": "https://www.kaigokensaku.mhlw.go.jp/42/index.php?action_kouhyou_detail_004_kani=true&JigyosyoCd=4291200048-00&ServiceCd=730&Type=search", "url2": null }, "geometry": { "type": "Point", "coordinates": [ 129.897729654075619, 33.145920164375369 ] } },
{ "type": "Feature", "properties": { "内容": "小規模多機能ホーム　笑福【小規模多機能型居宅介護】長崎県北松浦郡佐々町鴨川免168-1", "url": "https://www.kaigokensaku.mhlw.go.jp/42/index.php?action_kouhyou_detail_004_kani=true&JigyosyoCd=4291500090-00&ServiceCd=730&Type=search", "url2": "https://emifuku.sakenoitto.com" }, "geometry": { "type": "Point", "coordinates": [ 129.65804019643403, 33.253890371601734 ] } },
{ "type": "Feature", "properties": { "内容": "小規模多機能ホーム　かんろ【小規模多機能型居宅介護】長崎県南松浦郡新上五島町奈良尾郷995番2", "url": "https://www.kaigokensaku.mhlw.go.jp/42/index.php?action_kouhyou_detail_004_kani=true&JigyosyoCd=4291600072-00&ServiceCd=730&Type=search", "url2": null }, "geometry": { "type": "Point", "coordinates": [ 129.058030199999962, 32.8454105 ] } },
{ "type": "Feature", "properties": { "内容": "小規模多機能ホーム　さんくす【小規模多機能型居宅介護】長崎県南松浦郡新上五島町間伏郷70-1-2", "url": "https://www.kaigokensaku.mhlw.go.jp/42/index.php?action_kouhyou_detail_004_kani=true&JigyosyoCd=4291600056-00&ServiceCd=730&Type=search", "url2": "http：//www.shinkamigoto.net/" }, "geometry": { "type": "Point", "coordinates": [ 129.007535299999972, 32.8823564 ] } },
{ "type": "Feature", "properties": { "内容": "小規模多機能ホームゆめの郷【小規模多機能型居宅介護】長崎県南松浦郡新上五島町今里郷251-32", "url": "https://www.kaigokensaku.mhlw.go.jp/42/index.php?action_kouhyou_detail_004_kani=true&JigyosyoCd=4291600015-00&ServiceCd=730&Type=search", "url2": "http://www.n-yuaikai.jp/" }, "geometry": { "type": "Point", "coordinates": [ 129.048454699999979, 32.9569664 ] } }
]
}
