{
"type": "FeatureCollection",
"name": "geo_42_訪問リハビリテーション",
"crs": { "type": "name", "properties": { "name": "urn:ogc:def:crs:OGC:1.3:CRS84" } },
"features": [
{ "type": "Feature", "properties": { "内容": "出島病院【訪問リハビリテーション】長崎県長崎市出島町12-23", "url": "https://www.kaigokensaku.mhlw.go.jp/42/index.php?action_kouhyou_detail_004_kani=true&JigyosyoCd=4210167542-00&ServiceCd=140&Type=search", "url2": "www.shunkaikai.jp/dejima" }, "geometry": { "type": "Point", "coordinates": [ 129.8725679, 32.7423362 ] } },
{ "type": "Feature", "properties": { "内容": "訪問リハビリテーション　中の里【訪問リハビリテーション】長崎県長崎市古賀町815.-2介護老人保健施設　中の里", "url": "https://www.kaigokensaku.mhlw.go.jp/42/index.php?action_kouhyou_detail_004_kani=true&JigyosyoCd=4250180033-00&ServiceCd=140&Type=search", "url2": null }, "geometry": { "type": "Point", "coordinates": [ 129.9615891, 32.7981413 ] } },
{ "type": "Feature", "properties": { "内容": "医療法人　蘭佑会　ダイヤランド崎望館【訪問リハビリテーション】長崎県長崎市ダイヤランド3丁目31番3号", "url": "https://www.kaigokensaku.mhlw.go.jp/42/index.php?action_kouhyou_detail_004_kani=true&JigyosyoCd=4250180082-00&ServiceCd=140&Type=search", "url2": "http://kiboukan.ecgo.jp/" }, "geometry": { "type": "Point", "coordinates": [ 129.855460499999907, 32.7028778 ] } },
{ "type": "Feature", "properties": { "内容": "エスポアールそとめ【訪問リハビリテーション】長崎県長崎市上黒崎町2201番地3", "url": "https://www.kaigokensaku.mhlw.go.jp/42/index.php?action_kouhyou_detail_004_kani=true&JigyosyoCd=4251180016-00&ServiceCd=140&Type=search", "url2": "http://www.hiurakai.jp/" }, "geometry": { "type": "Point", "coordinates": [ 129.723625199999987, 32.8543659 ] } },
{ "type": "Feature", "properties": { "内容": "医療法人友愛会介護老人保健施設にしきの里【訪問リハビリテーション】長崎県長崎市錦２丁目１番１号", "url": "https://www.kaigokensaku.mhlw.go.jp/42/index.php?action_kouhyou_detail_004_kani=true&JigyosyoCd=4270112230-00&ServiceCd=140&Type=search", "url2": "https://www.youi-med-psychiatry.com/nishiki/" }, "geometry": { "type": "Point", "coordinates": [ 129.8554203, 32.7887317 ] } },
{ "type": "Feature", "properties": { "内容": "こんどう整形外科訪問リハビリテーション【訪問リハビリテーション】長崎県長崎市京泊3丁目30番11号", "url": "https://www.kaigokensaku.mhlw.go.jp/42/index.php?action_kouhyou_detail_004_kani=true&JigyosyoCd=4210164341-00&ServiceCd=140&Type=search", "url2": "https://kondou-seikei.jp/" }, "geometry": { "type": "Point", "coordinates": [ 129.771978499999989, 32.823963 ] } },
{ "type": "Feature", "properties": { "内容": "医療法人稲仁会　三原台病院【訪問リハビリテーション】長崎県長崎市三原１丁目８番３５号", "url": "https://www.kaigokensaku.mhlw.go.jp/42/index.php?action_kouhyou_detail_004_kani=true&JigyosyoCd=4210128684-00&ServiceCd=140&Type=search", "url2": "http://www.miharadai.or.jp/" }, "geometry": { "type": "Point", "coordinates": [ 129.87615310000001, 32.7815909 ] } },
{ "type": "Feature", "properties": { "内容": "大石共立病院【訪問リハビリテーション】長崎県長崎市琴海村松町246", "url": "https://www.kaigokensaku.mhlw.go.jp/42/index.php?action_kouhyou_detail_004_kani=true&JigyosyoCd=4211123346-00&ServiceCd=140&Type=search", "url2": "https://oh-ishihospital.jp/" }, "geometry": { "type": "Point", "coordinates": [ 129.7886753, 32.8813887 ] } },
{ "type": "Feature", "properties": { "内容": "医療法人　健正会　大久保病院【訪問リハビリテーション】長崎県長崎市戸石町1470番地1", "url": "https://www.kaigokensaku.mhlw.go.jp/42/index.php?action_kouhyou_detail_004_kani=true&JigyosyoCd=4210163889-00&ServiceCd=140&Type=search", "url2": "http://www.ohkubo-hp.com/" }, "geometry": { "type": "Point", "coordinates": [ 129.977037200000041, 32.7643585 ] } },
{ "type": "Feature", "properties": { "内容": "医療法人秋桜会　コスモスガーデン桜の里　訪問ﾘﾊﾋﾞﾘﾃｰｼｮﾝ【訪問リハビリテーション】長崎県長崎市さくらの里2丁目27番28号コスモスガーデン桜の里", "url": "https://www.kaigokensaku.mhlw.go.jp/42/index.php?action_kouhyou_detail_004_kani=true&JigyosyoCd=4270111521-00&ServiceCd=140&Type=search", "url2": "http://www.cosmos-garden.com/" }, "geometry": { "type": "Point", "coordinates": [ 129.764209199999982, 32.8357324 ] } },
{ "type": "Feature", "properties": { "内容": "医療法人清潮会　介護老人保健施設　みどりの里【訪問リハビリテーション】長崎県長崎市布巻町165-1", "url": "https://www.kaigokensaku.mhlw.go.jp/42/index.php?action_kouhyou_detail_004_kani=true&JigyosyoCd=4250180140-00&ServiceCd=140&Type=search", "url2": "https://midorinosato.ne.jp" }, "geometry": { "type": "Point", "coordinates": [ 129.832316900000023, 32.6542122 ] } },
{ "type": "Feature", "properties": { "内容": "医療法人　太樹会　のりむらクリニック　訪問リハビリテーション【訪問リハビリテーション】長崎県長崎市葉山1丁目5－2浜福ビル2F・3F", "url": "https://www.kaigokensaku.mhlw.go.jp/42/index.php?action_kouhyou_detail_004_kani=true&JigyosyoCd=4210167831-00&ServiceCd=140&Type=search", "url2": "http://norimuraclinic.jp" }, "geometry": { "type": "Point", "coordinates": [ 129.8516557, 32.8032869 ] } },
{ "type": "Feature", "properties": { "内容": "医療法人有葵会のぼる内科　訪問リハビリテーション【訪問リハビリテーション】長崎県長崎市中園町１０番５号", "url": "https://www.kaigokensaku.mhlw.go.jp/42/index.php?action_kouhyou_detail_004_kani=true&JigyosyoCd=4210164846-00&ServiceCd=140&Type=search", "url2": "http://noborunaika.jp/" }, "geometry": { "type": "Point", "coordinates": [ 129.859175400000026, 32.7917835 ] } },
{ "type": "Feature", "properties": { "内容": "医療法人緑風会長崎みどり病院指定訪問リハビリテーション【訪問リハビリテーション】長崎県長崎市富士見町18-24", "url": "https://www.kaigokensaku.mhlw.go.jp/42/index.php?action_kouhyou_detail_004_kani=true&JigyosyoCd=4210163566-00&ServiceCd=140&Type=search", "url2": "http://www.midorimidori.jp/" }, "geometry": { "type": "Point", "coordinates": [ 129.854646199999934, 32.7731134 ] } },
{ "type": "Feature", "properties": { "内容": "医療法人　和仁会　和仁会病院【訪問リハビリテーション】長崎県長崎市中里町96", "url": "https://www.kaigokensaku.mhlw.go.jp/42/index.php?action_kouhyou_detail_004_kani=true&JigyosyoCd=4210128155-00&ServiceCd=140&Type=search", "url2": "https://wajinkaihp.jp" }, "geometry": { "type": "Point", "coordinates": [ 129.962216400000017, 32.7977688 ] } },
{ "type": "Feature", "properties": { "内容": "医療法人　恵会　光風台病院【訪問リハビリテーション】長崎県長崎市鳴見台２丁目４５番２０号", "url": "https://www.kaigokensaku.mhlw.go.jp/42/index.php?action_kouhyou_detail_004_kani=true&JigyosyoCd=4210162659-00&ServiceCd=140&Type=search", "url2": "http://www.kfdh.org/" }, "geometry": { "type": "Point", "coordinates": [ 129.806799899999987, 32.8236769 ] } },
{ "type": "Feature", "properties": { "内容": "医療法人厚生会　道ノ尾病院【訪問リハビリテーション】長崎県長崎市虹が丘町1番1号道ノ尾病院", "url": "https://www.kaigokensaku.mhlw.go.jp/42/index.php?action_kouhyou_detail_004_kani=true&JigyosyoCd=4210112753-00&ServiceCd=140&Type=search", "url2": "http://www.michinoo.or.jp" }, "geometry": { "type": "Point", "coordinates": [ 129.84648802037654, 32.797957357750633 ] } },
{ "type": "Feature", "properties": { "内容": "医療法人社団健昌会　新里クリニック浦上【訪問リハビリテーション】長崎県長崎市茂里町3番20号", "url": "https://www.kaigokensaku.mhlw.go.jp/42/index.php?action_kouhyou_detail_004_kani=true&JigyosyoCd=4210167062-00&ServiceCd=140&Type=search", "url2": "http://shinzato.jp/" }, "geometry": { "type": "Point", "coordinates": [ 129.862695799999983, 32.7661699 ] } },
{ "type": "Feature", "properties": { "内容": "重工記念長崎病院【訪問リハビリテーション】長崎市丸尾町6番17号", "url": "https://www.kaigokensaku.mhlw.go.jp/42/index.php?action_kouhyou_detail_004_kani=true&JigyosyoCd=4210167781-00&ServiceCd=140&Type=search", "url2": "http://jmnh.or.jp" }, "geometry": { "type": "Point", "coordinates": [ 129.8604144, 32.7456924 ] } },
{ "type": "Feature", "properties": { "内容": "訪問リハビリテーション銀屋【訪問リハビリテーション】長崎県長崎市銀屋町4-11", "url": "https://www.kaigokensaku.mhlw.go.jp/42/index.php?action_kouhyou_detail_004_kani=true&JigyosyoCd=4210125458-00&ServiceCd=140&Type=search", "url2": "http://www.zeshinkai.or.jp/center" }, "geometry": { "type": "Point", "coordinates": [ 129.880522800524886, 32.745928892990449 ] } },
{ "type": "Feature", "properties": { "内容": "医療法人　あんず整形外科　訪問リハビリテーション【訪問リハビリテーション】長崎県長崎市畝刈町1613-33サクセスカバーヒルズ1階・3階", "url": "https://www.kaigokensaku.mhlw.go.jp/42/index.php?action_kouhyou_detail_004_kani=true&JigyosyoCd=4210167393-00&ServiceCd=140&Type=search", "url2": null }, "geometry": { "type": "Point", "coordinates": [ 129.7763931, 32.826009 ] } },
{ "type": "Feature", "properties": { "内容": "医療法人COMO三島内科医院訪問リハビリテーション【訪問リハビリテーション】長崎県長崎市上戸町2-8-16", "url": "https://www.kaigokensaku.mhlw.go.jp/42/index.php?action_kouhyou_detail_004_kani=true&JigyosyoCd=4210168102-00&ServiceCd=140&Type=search", "url2": null }, "geometry": { "type": "Point", "coordinates": [ 129.8680312, 32.715725 ] } },
{ "type": "Feature", "properties": { "内容": "上戸町病院【訪問リハビリテーション】長崎県長崎市上戸町4-2-20", "url": "https://www.kaigokensaku.mhlw.go.jp/42/index.php?action_kouhyou_detail_004_kani=true&JigyosyoCd=4210119634-00&ServiceCd=140&Type=search", "url2": "http://www.kenyukai.or.jp" }, "geometry": { "type": "Point", "coordinates": [ 129.869462699999985, 32.7199159 ] } },
{ "type": "Feature", "properties": { "内容": "社会医療法人　春回会　春回会クリニック　訪問リハビリテーション【訪問リハビリテーション】長崎県長崎市目覚町7番2号ＨＣＳ長崎ビル４階", "url": "https://www.kaigokensaku.mhlw.go.jp/42/index.php?action_kouhyou_detail_004_kani=true&JigyosyoCd=4210167872-00&ServiceCd=140&Type=search", "url2": "http://www.shunkaikai.jp" }, "geometry": { "type": "Point", "coordinates": [ 129.864806700000031, 32.7647312 ] } },
{ "type": "Feature", "properties": { "内容": "社会医療法人　長崎記念病院【訪問リハビリテーション】長崎県長崎市深堀町１-１１-５４", "url": "https://www.kaigokensaku.mhlw.go.jp/42/index.php?action_kouhyou_detail_004_kani=true&JigyosyoCd=4210118214-00&ServiceCd=140&Type=search", "url2": "http://www.nmhp.or.jp/" }, "geometry": { "type": "Point", "coordinates": [ 129.83338260000005, 32.6850572 ] } },
{ "type": "Feature", "properties": { "内容": "社会福祉法人　扶早会　介護老人保健施設　東長崎ナーシングホーム【訪問リハビリテーション】長崎県長崎市東町1893－5", "url": "https://www.kaigokensaku.mhlw.go.jp/42/index.php?action_kouhyou_detail_004_kani=true&JigyosyoCd=4270111604-00&ServiceCd=140&Type=search", "url2": "https://fusoukai.jp/" }, "geometry": { "type": "Point", "coordinates": [ 129.9563211, 32.7791342 ] } },
{ "type": "Feature", "properties": { "内容": "カリタス診療所【訪問リハビリテーション】長崎県長崎市西出津町67-5", "url": "https://www.kaigokensaku.mhlw.go.jp/42/index.php?action_kouhyou_detail_004_kani=true&JigyosyoCd=4270105036-00&ServiceCd=140&Type=search", "url2": null }, "geometry": { "type": "Point", "coordinates": [ 129.704590300000064, 32.8523114 ] } },
{ "type": "Feature", "properties": { "内容": "社会医療法人健友会　大浦診療所　訪問リハビリテーション【訪問リハビリテーション】長崎県長崎市大浦町9-30", "url": "https://www.kaigokensaku.mhlw.go.jp/42/index.php?action_kouhyou_detail_004_kani=true&JigyosyoCd=4210118412-00&ServiceCd=140&Type=search", "url2": "https://www.oura-shinryousyo.com/" }, "geometry": { "type": "Point", "coordinates": [ 129.8722093, 32.7349507 ] } },
{ "type": "Feature", "properties": { "内容": "社会医療法人健友会　香焼民主診療所【訪問リハビリテーション】長崎県長崎市香焼町５０１番地", "url": "https://www.kaigokensaku.mhlw.go.jp/42/index.php?action_kouhyou_detail_004_kani=true&JigyosyoCd=4211112224-00&ServiceCd=140&Type=search", "url2": "http:/www.kenyukai.or.jp/kouyagi/" }, "geometry": { "type": "Point", "coordinates": [ 129.8134394, 32.6892398 ] } },
{ "type": "Feature", "properties": { "内容": "長崎友愛病院【訪問リハビリテーション】長崎県長崎市蚊焼町2314番地1", "url": "https://www.kaigokensaku.mhlw.go.jp/42/index.php?action_kouhyou_detail_004_kani=true&JigyosyoCd=4211123239-00&ServiceCd=140&Type=search", "url2": "http://www.nagasaki-yuuai.com/" }, "geometry": { "type": "Point", "coordinates": [ 129.825203500000043, 32.6520595 ] } },
{ "type": "Feature", "properties": { "内容": "医療法人外海弘仁会居宅介護支援事業所【訪問リハビリテーション】長崎県長崎市下黒崎町1402", "url": "https://www.kaigokensaku.mhlw.go.jp/42/index.php?action_kouhyou_detail_004_kani=true&JigyosyoCd=4211123312-00&ServiceCd=140&Type=search", "url2": "https://hiurahp.jp/" }, "geometry": { "type": "Point", "coordinates": [ 129.7147237, 32.8358632 ] } },
{ "type": "Feature", "properties": { "内容": "医療法人社団　石坂脳神経外科【訪問リハビリテーション】長崎県佐世保市卸本町30ー42", "url": "https://www.kaigokensaku.mhlw.go.jp/42/index.php?action_kouhyou_detail_004_kani=true&JigyosyoCd=4210225951-00&ServiceCd=140&Type=search", "url2": "http://www.ishizaka-neurosurgery.com" }, "geometry": { "type": "Point", "coordinates": [ 129.7716336, 33.1524853 ] } },
{ "type": "Feature", "properties": { "内容": "医療法人誠愛会　佐世保記念病院【訪問リハビリテーション】長崎県佐世保市鹿子前町１０４番地", "url": "https://www.kaigokensaku.mhlw.go.jp/42/index.php?action_kouhyou_detail_004_kani=true&JigyosyoCd=4210225001-00&ServiceCd=140&Type=search", "url2": "http://seiaikai-group.or.jp" }, "geometry": { "type": "Point", "coordinates": [ 129.683204, 33.1567259 ] } },
{ "type": "Feature", "properties": { "内容": "俵町浜野病院訪問リハビリテーション【訪問リハビリテーション】長崎県　佐世保市　俵町22番1号", "url": "https://www.kaigokensaku.mhlw.go.jp/42/index.php?action_kouhyou_detail_004_kani=true&JigyosyoCd=4210226892-00&ServiceCd=140&Type=search", "url2": "http://www.wakabakai.or.jp" }, "geometry": { "type": "Point", "coordinates": [ 129.718431900000041, 33.1878174 ] } },
{ "type": "Feature", "properties": { "内容": "医療法人　愛健会　愛健医院　訪問リハビリテーション事業所【訪問リハビリテーション】長崎県佐世保市上本山町1059", "url": "https://www.kaigokensaku.mhlw.go.jp/42/index.php?action_kouhyou_detail_004_kani=true&JigyosyoCd=4210225910-00&ServiceCd=140&Type=search", "url2": "http://aikenkai.jp/" }, "geometry": { "type": "Point", "coordinates": [ 129.692634, 33.2088627 ] } },
{ "type": "Feature", "properties": { "内容": "医療法人　光省会　福田外科病院【訪問リハビリテーション】長崎県佐世保市藤原町３８番３号", "url": "https://www.kaigokensaku.mhlw.go.jp/42/index.php?action_kouhyou_detail_004_kani=true&JigyosyoCd=4210225613-00&ServiceCd=140&Type=search", "url2": "http://www.fukudageka.or.jp/" }, "geometry": { "type": "Point", "coordinates": [ 129.740519400000039, 33.161326 ] } },
{ "type": "Feature", "properties": { "内容": "久保内科病院【訪問リハビリテーション】長崎県佐世保市田原町11-9", "url": "https://www.kaigokensaku.mhlw.go.jp/42/index.php?action_kouhyou_detail_004_kani=true&JigyosyoCd=4210222271-00&ServiceCd=140&Type=search", "url2": "https://kubonaika.or.jp/" }, "geometry": { "type": "Point", "coordinates": [ 129.721348132540896, 33.207048289862904 ] } },
{ "type": "Feature", "properties": { "内容": "医療法人　雄人会　三川内病院【訪問リハビリテーション】長崎県佐世保市三川内本町290番地", "url": "https://www.kaigokensaku.mhlw.go.jp/42/index.php?action_kouhyou_detail_004_kani=true&JigyosyoCd=4210221927-00&ServiceCd=140&Type=search", "url2": "http://mikawachi.or.jp/" }, "geometry": { "type": "Point", "coordinates": [ 129.829053499999986, 33.15151 ] } },
{ "type": "Feature", "properties": { "内容": "医療法人翠山会介護老人保健施設すいざん荘訪問リハビリテーション【訪問リハビリテーション】赤崎町74-2", "url": "https://www.kaigokensaku.mhlw.go.jp/42/index.php?action_kouhyou_detail_004_kani=true&JigyosyoCd=4270205166-00&ServiceCd=140&Type=search", "url2": "https://www.suizankai.com/" }, "geometry": { "type": "Point", "coordinates": [ 129.6936359, 33.1649061 ] } },
{ "type": "Feature", "properties": { "内容": "長寿苑　訪問リハビリテーション【訪問リハビリテーション】長崎県佐世保市日宇町2835", "url": "https://www.kaigokensaku.mhlw.go.jp/42/index.php?action_kouhyou_detail_004_kani=true&JigyosyoCd=4270205240-00&ServiceCd=140&Type=search", "url2": "http://www.hakujyujikai.or.jp/tjn/" }, "geometry": { "type": "Point", "coordinates": [ 129.767086100000029, 33.1554014 ] } },
{ "type": "Feature", "properties": { "内容": "訪問リハビリテーション　サクラ【訪問リハビリテーション】長崎県佐世保市八幡町１番地の２", "url": "https://www.kaigokensaku.mhlw.go.jp/42/index.php?action_kouhyou_detail_004_kani=true&JigyosyoCd=4270204086-00&ServiceCd=140&Type=search", "url2": "http://www.roukensakura.com/" }, "geometry": { "type": "Point", "coordinates": [ 129.722212, 33.1832511 ] } },
{ "type": "Feature", "properties": { "内容": "特定医療法人雄博会　千住病院【訪問リハビリテーション】長崎県佐世保市宮地町５番５号", "url": "https://www.kaigokensaku.mhlw.go.jp/42/index.php?action_kouhyou_detail_004_kani=true&JigyosyoCd=4270203245-00&ServiceCd=140&Type=search", "url2": "http://www.1010hosp.or.jp/" }, "geometry": { "type": "Point", "coordinates": [ 129.722334300000057, 33.174863 ] } },
{ "type": "Feature", "properties": { "内容": "医療法人　済家会　柴田長庚堂病院【訪問リハビリテーション】長崎県島原市中堀町68番地", "url": "https://www.kaigokensaku.mhlw.go.jp/42/index.php?action_kouhyou_detail_004_kani=true&JigyosyoCd=4210320398-00&ServiceCd=140&Type=search", "url2": "http://www.saikakai.com" }, "geometry": { "type": "Point", "coordinates": [ 130.370394499999946, 32.7825726 ] } },
{ "type": "Feature", "properties": { "内容": "松岡病院　訪問リハビリテーション【訪問リハビリテーション】長崎県島原市江戸丁1919", "url": "https://www.kaigokensaku.mhlw.go.jp/42/index.php?action_kouhyou_detail_004_kani=true&JigyosyoCd=4210321123-00&ServiceCd=140&Type=search", "url2": "http://www.shimabara.jp/ik-matuokahp/" }, "geometry": { "type": "Point", "coordinates": [ 130.3646195, 32.7882248 ] } },
{ "type": "Feature", "properties": { "内容": "医療法人社団東洋会　池田病院【訪問リハビリテーション】長崎県島原市湖南町6893-2", "url": "https://www.kaigokensaku.mhlw.go.jp/42/index.php?action_kouhyou_detail_004_kani=true&JigyosyoCd=4210320802-00&ServiceCd=140&Type=search", "url2": "http://www.ikeda-hp.or.jp/" }, "geometry": { "type": "Point", "coordinates": [ 130.368192099999987, 32.7784396 ] } },
{ "type": "Feature", "properties": { "内容": "医療法人城内会　新生病院訪問リハビリテーション【訪問リハビリテーション】長崎県島原市城内1丁目1193番地", "url": "https://www.kaigokensaku.mhlw.go.jp/42/index.php?action_kouhyou_detail_004_kani=true&JigyosyoCd=4210320489-00&ServiceCd=140&Type=search", "url2": "http://www.shinsei-hospital.com" }, "geometry": { "type": "Point", "coordinates": [ 130.368958199999952, 32.788636 ] } },
{ "type": "Feature", "properties": { "内容": "医療法人有隣会　貴田神経内科・呼吸器科・内科病院【訪問リハビリテーション】長崎県島原市有明町大三東戊790番地2", "url": "https://www.kaigokensaku.mhlw.go.jp/42/index.php?action_kouhyou_detail_004_kani=true&JigyosyoCd=4211422045-00&ServiceCd=140&Type=search", "url2": "http://kida-hp.or.jp/" }, "geometry": { "type": "Point", "coordinates": [ 130.332792899999959, 32.8539467 ] } },
{ "type": "Feature", "properties": { "内容": "諫早記念病院【訪問リハビリテーション】長崎県諫早市天満町2‐21", "url": "https://www.kaigokensaku.mhlw.go.jp/42/index.php?action_kouhyou_detail_004_kani=true&JigyosyoCd=4210411056-00&ServiceCd=140&Type=search", "url2": "http://www.kohzenkai.or.jp/" }, "geometry": { "type": "Point", "coordinates": [ 130.045385142327859, 32.849958516127366 ] } },
{ "type": "Feature", "properties": { "内容": "介護老人保健施設　恵仁荘【訪問リハビリテーション】長崎県諫早市有喜町648", "url": "https://www.kaigokensaku.mhlw.go.jp/42/index.php?action_kouhyou_detail_004_kani=true&JigyosyoCd=4250480045-00&ServiceCd=140&Type=search", "url2": "http://uki-fukushimura.jp/keijinso/" }, "geometry": { "type": "Point", "coordinates": [ 130.077007099999946, 32.7910256 ] } },
{ "type": "Feature", "properties": { "内容": "西諫早病院訪問リハビリ【訪問リハビリテーション】長崎県諫早市貝津町３０１５", "url": "https://www.kaigokensaku.mhlw.go.jp/42/index.php?action_kouhyou_detail_004_kani=true&JigyosyoCd=4210412104-00&ServiceCd=140&Type=search", "url2": "https:www.syoujinkai.com" }, "geometry": { "type": "Point", "coordinates": [ 130.020385798811276, 32.836574048082184 ] } },
{ "type": "Feature", "properties": { "内容": "訪問リハビリステーション　恵風園【訪問リハビリテーション】長崎県諫早市多良見町化屋995番地", "url": "https://www.kaigokensaku.mhlw.go.jp/42/index.php?action_kouhyou_detail_004_kani=true&JigyosyoCd=4270403456-00&ServiceCd=140&Type=search", "url2": "http://www.jyunseikai-jikei.jp/" }, "geometry": { "type": "Point", "coordinates": [ 129.983048199999985, 32.8282548 ] } },
{ "type": "Feature", "properties": { "内容": "宮崎病院訪問リハビリセンター【訪問リハビリテーション】長崎県諌早市久山町1575－1", "url": "https://www.kaigokensaku.mhlw.go.jp/42/index.php?action_kouhyou_detail_004_kani=true&JigyosyoCd=4210411619-00&ServiceCd=140&Type=search", "url2": "http://www.sankoukai.net" }, "geometry": { "type": "Point", "coordinates": [ 130.002095455819671, 32.830579525906415 ] } },
{ "type": "Feature", "properties": { "内容": "山崎病院【訪問リハビリテーション】長崎県諫早市小長井町小川原浦656", "url": "https://www.kaigokensaku.mhlw.go.jp/42/index.php?action_kouhyou_detail_004_kani=true&JigyosyoCd=4210423275-00&ServiceCd=140&Type=search", "url2": "https://yamasaki-hospital.com" }, "geometry": { "type": "Point", "coordinates": [ 130.1881812, 32.9269338 ] } },
{ "type": "Feature", "properties": { "内容": "医療法人　樹愛会　うえだ記念内科クリニック【訪問リハビリテーション】長崎県大村市諏訪一丁目６７０番地の１", "url": "https://www.kaigokensaku.mhlw.go.jp/42/index.php?action_kouhyou_detail_004_kani=true&JigyosyoCd=4210521797-00&ServiceCd=140&Type=search", "url2": "http://juai.or.jp/" }, "geometry": { "type": "Point", "coordinates": [ 129.962204400000019, 32.924302 ] } },
{ "type": "Feature", "properties": { "内容": "南野病院　訪問リハビリテーション【訪問リハビリテーション】長崎県大村市東三城町33番地", "url": "https://www.kaigokensaku.mhlw.go.jp/42/index.php?action_kouhyou_detail_004_kani=true&JigyosyoCd=4210521466-00&ServiceCd=140&Type=search", "url2": "http://www.minamino-hosp.jp/" }, "geometry": { "type": "Point", "coordinates": [ 129.960496599999942, 32.9121308 ] } },
{ "type": "Feature", "properties": { "内容": "医療法人　慧明会貞松病院【訪問リハビリテーション】長崎県大村市東本町５３７", "url": "https://www.kaigokensaku.mhlw.go.jp/42/index.php?action_kouhyou_detail_004_kani=true&JigyosyoCd=4210511012-00&ServiceCd=140&Type=search", "url2": "https://sadamatsu-hp.wixsite.com/home" }, "geometry": { "type": "Point", "coordinates": [ 129.96145375233607, 32.907523406736964 ] } },
{ "type": "Feature", "properties": { "内容": "さくらクリニック【訪問リハビリテーション】長崎県大村市池田1丁目50-1", "url": "https://www.kaigokensaku.mhlw.go.jp/42/index.php?action_kouhyou_detail_004_kani=true&JigyosyoCd=4210522365-00&ServiceCd=140&Type=search", "url2": "http://www.midori-group.com/" }, "geometry": { "type": "Point", "coordinates": [ 129.962073788954939, 32.930218997465595 ] } },
{ "type": "Feature", "properties": { "内容": "医療法人明和会伊崎脳神経外科・内科【訪問リハビリテーション】長崎県大村市東本町168番地", "url": "https://www.kaigokensaku.mhlw.go.jp/42/index.php?action_kouhyou_detail_004_kani=true&JigyosyoCd=4210521664-00&ServiceCd=140&Type=search", "url2": "http://izaki-med.net/" }, "geometry": { "type": "Point", "coordinates": [ 129.961054900000022, 32.9100838 ] } },
{ "type": "Feature", "properties": { "内容": "北川病院【訪問リハビリテーション】長崎県平戸市浦の町７３７番地", "url": "https://www.kaigokensaku.mhlw.go.jp/42/index.php?action_kouhyou_detail_004_kani=true&JigyosyoCd=4210720274-00&ServiceCd=140&Type=search", "url2": "http://kyk-kitagawahp.com/" }, "geometry": { "type": "Point", "coordinates": [ 129.5521032, 33.3720425 ] } },
{ "type": "Feature", "properties": { "内容": "医療法人医理会　柿添病院【訪問リハビリテーション】長崎県平戸市鏡川町278", "url": "https://www.kaigokensaku.mhlw.go.jp/42/index.php?action_kouhyou_detail_004_kani=true&JigyosyoCd=4210720324-00&ServiceCd=140&Type=search", "url2": "http://www.kakizoehospital.or.jp" }, "geometry": { "type": "Point", "coordinates": [ 129.55199360000006, 33.3692061 ] } },
{ "type": "Feature", "properties": { "内容": "青洲会病院【訪問リハビリテーション】長崎県平戸市田平町山内免612番地の4", "url": "https://www.kaigokensaku.mhlw.go.jp/42/index.php?action_kouhyou_detail_004_kani=true&JigyosyoCd=4211511458-00&ServiceCd=140&Type=search", "url2": "http://s.seisyukai.jp" }, "geometry": { "type": "Point", "coordinates": [ 129.575431168122805, 33.364487557588603 ] } },
{ "type": "Feature", "properties": { "内容": "平戸市立生月病院【訪問リハビリテーション】長崎県平戸市生月町山田免2965番地", "url": "https://www.kaigokensaku.mhlw.go.jp/42/index.php?action_kouhyou_detail_004_kani=true&JigyosyoCd=4218124305-00&ServiceCd=140&Type=search", "url2": "https://www.ikitsuki-hospital.com/" }, "geometry": { "type": "Point", "coordinates": [ 129.4233805, 33.3795562 ] } },
{ "type": "Feature", "properties": { "内容": "医療法人長愛会菊地病院訪問リハビリテーション【訪問リハビリテーション】長崎県松浦市志佐町浦免1765-4", "url": "https://www.kaigokensaku.mhlw.go.jp/42/index.php?action_kouhyou_detail_004_kani=true&JigyosyoCd=4210820447-00&ServiceCd=140&Type=search", "url2": "http://.kikuchi-hp.com" }, "geometry": { "type": "Point", "coordinates": [ 129.704666, 33.341314500000031 ] } },
{ "type": "Feature", "properties": { "内容": "長崎県対馬病院【訪問リハビリテーション】長崎県対馬市美津島町鶏知乙1168番7", "url": "https://www.kaigokensaku.mhlw.go.jp/42/index.php?action_kouhyou_detail_004_kani=true&JigyosyoCd=4218124651-00&ServiceCd=140&Type=search", "url2": "http://www.tsushima-hospital.jp/" }, "geometry": { "type": "Point", "coordinates": [ 129.317300199999977, 34.2859521 ] } },
{ "type": "Feature", "properties": { "内容": "介護老人保健施設　壱岐【訪問リハビリテーション】長崎県壱岐市勝本町本宮南触236番地", "url": "https://www.kaigokensaku.mhlw.go.jp/42/index.php?action_kouhyou_detail_004_kani=true&JigyosyoCd=4272100357-00&ServiceCd=140&Type=search", "url2": null }, "geometry": { "type": "Point", "coordinates": [ 129.686536100000012, 33.8082883 ] } },
{ "type": "Feature", "properties": { "内容": "社会医療法人　玄州会　光武内科循環器科病院【訪問リハビリテーション】長崎県壱岐市郷ノ浦町郷ノ浦15番地3", "url": "https://www.kaigokensaku.mhlw.go.jp/42/index.php?action_kouhyou_detail_004_kani=true&JigyosyoCd=4211720430-00&ServiceCd=140&Type=search", "url2": "https://www.gensyukai.or.jp/mitsutake.html" }, "geometry": { "type": "Point", "coordinates": [ 129.690954299999987, 33.7478291 ] } },
{ "type": "Feature", "properties": { "内容": "リハビリセンターふくえ【訪問リハビリテーション】長崎県五島市吉田町2390", "url": "https://www.kaigokensaku.mhlw.go.jp/42/index.php?action_kouhyou_detail_004_kani=true&JigyosyoCd=4250680016-00&ServiceCd=140&Type=search", "url2": "http://www.rehabilicenter-fukue.jp" }, "geometry": { "type": "Point", "coordinates": [ 128.8176803, 32.6879492 ] } },
{ "type": "Feature", "properties": { "内容": "末広荘【訪問リハビリテーション】長崎県五島市末広町7-5", "url": "https://www.kaigokensaku.mhlw.go.jp/42/index.php?action_kouhyou_detail_004_kani=true&JigyosyoCd=4250680024-00&ServiceCd=140&Type=search", "url2": "http://www.suehirosou.com/" }, "geometry": { "type": "Point", "coordinates": [ 128.842844317196665, 32.695973094591437 ] } },
{ "type": "Feature", "properties": { "内容": "長崎セント・ノーヴァ病院指定訪問リハビリテーション事業所【訪問リハビリテーション】長崎県西海市西彼町伊ノ浦郷１２７番地", "url": "https://www.kaigokensaku.mhlw.go.jp/42/index.php?action_kouhyou_detail_004_kani=true&JigyosyoCd=4211122710-00&ServiceCd=140&Type=search", "url2": "http://sentnova.jp" }, "geometry": { "type": "Point", "coordinates": [ 129.746362299999987, 33.0557969 ] } },
{ "type": "Feature", "properties": { "内容": "訪問リハビリテーション　さいかい【訪問リハビリテーション】長崎県西海市大島町1876番地59", "url": "https://www.kaigokensaku.mhlw.go.jp/42/index.php?action_kouhyou_detail_004_kani=true&JigyosyoCd=4272300338-00&ServiceCd=140&Type=search", "url2": "http://fukuikai.com" }, "geometry": { "type": "Point", "coordinates": [ 129.619490254769858, 33.035068982199782 ] } },
{ "type": "Feature", "properties": { "内容": "公立小浜温泉病院【訪問リハビリテーション】長崎県雲仙市小浜町マリーナ3番地2", "url": "https://www.kaigokensaku.mhlw.go.jp/42/index.php?action_kouhyou_detail_004_kani=true&JigyosyoCd=4218123695-00&ServiceCd=140&Type=search", "url2": "http://obama-byoin.com/" }, "geometry": { "type": "Point", "coordinates": [ 130.202567068232554, 32.72274377287571 ] } },
{ "type": "Feature", "properties": { "内容": "医療法人　伴帥会　介護老人保健施設　ガイアの里【訪問リハビリテーション】長崎県雲仙市愛野町乙2314-1", "url": "https://www.kaigokensaku.mhlw.go.jp/42/index.php?action_kouhyou_detail_004_kani=true&JigyosyoCd=4251480044-00&ServiceCd=140&Type=search", "url2": "http://www.ainomhp.jp/commuting.html" }, "geometry": { "type": "Point", "coordinates": [ 130.1602374, 32.8013638 ] } },
{ "type": "Feature", "properties": { "内容": "真寿苑　訪問リハビリテーション【訪問リハビリテーション】長崎県雲仙市瑞穂町伊福甲６８１番地", "url": "https://www.kaigokensaku.mhlw.go.jp/42/index.php?action_kouhyou_detail_004_kani=true&JigyosyoCd=4272400583-00&ServiceCd=140&Type=search", "url2": "http://www.sinwakai.net/" }, "geometry": { "type": "Point", "coordinates": [ 130.238436500000034, 32.861447 ] } },
{ "type": "Feature", "properties": { "内容": "愛野記念病院訪問リハビリテーション【訪問リハビリテーション】長崎県雲仙市愛野町3838-1", "url": "https://www.kaigokensaku.mhlw.go.jp/42/index.php?action_kouhyou_detail_004_kani=true&JigyosyoCd=4211421484-00&ServiceCd=140&Type=search", "url2": "http://www.ainomhp.jp/" }, "geometry": { "type": "Point", "coordinates": [ 130.15757450000001, 32.8186293 ] } },
{ "type": "Feature", "properties": { "内容": "医療法人　龍仙会　木戸医院【訪問リハビリテーション】長崎県雲仙市小浜町北本町２７番地木戸医院", "url": "https://www.kaigokensaku.mhlw.go.jp/42/index.php?action_kouhyou_detail_004_kani=true&JigyosyoCd=4211422920-00&ServiceCd=140&Type=search", "url2": null }, "geometry": { "type": "Point", "coordinates": [ 130.207612404893524, 32.731645927093766 ] } },
{ "type": "Feature", "properties": { "内容": "介護老人保健施設ろうけんかづさ【訪問リハビリテーション】加津佐町戊4450", "url": "https://www.kaigokensaku.mhlw.go.jp/42/index.php?action_kouhyou_detail_004_kani=true&JigyosyoCd=4251480036-00&ServiceCd=140&Type=search", "url2": "http://kouchikai.com/" }, "geometry": { "type": "Point", "coordinates": [ 130.1940319, 32.6284487 ] } },
{ "type": "Feature", "properties": { "内容": "医療法人　弘池会　口之津病院【訪問リハビリテーション】長崎県南島原市口之津町丁5615番地", "url": "https://www.kaigokensaku.mhlw.go.jp/42/index.php?action_kouhyou_detail_004_kani=true&JigyosyoCd=4211422227-00&ServiceCd=140&Type=search", "url2": "http://ｗｗｗ.kouchikai.com" }, "geometry": { "type": "Point", "coordinates": [ 130.1941656, 32.6107701 ] } },
{ "type": "Feature", "properties": { "内容": "哲翁病院　訪問リハビリテーション【訪問リハビリテーション】長崎県南島原市口之津町甲1181番地", "url": "https://www.kaigokensaku.mhlw.go.jp/42/index.php?action_kouhyou_detail_004_kani=true&JigyosyoCd=4211420080-00&ServiceCd=140&Type=search", "url2": "https://www.tetsuou-hp.jp" }, "geometry": { "type": "Point", "coordinates": [ 130.188346626983645, 32.60514967603001 ] } },
{ "type": "Feature", "properties": { "内容": "介護老人保健施設　フォンテ　訪問リハビリテーション【訪問リハビリテーション】長崎県南島原市深江町丁2421介護老人保健施設フォンテ", "url": "https://www.kaigokensaku.mhlw.go.jp/42/index.php?action_kouhyou_detail_004_kani=true&JigyosyoCd=4272500499-00&ServiceCd=140&Type=search", "url2": "http://izumikawa.or.jp/index.php/c_Main/showToppage" }, "geometry": { "type": "Point", "coordinates": [ 130.3504467, 32.7181126 ] } },
{ "type": "Feature", "properties": { "内容": "こみねせいけいげかくりにっく【訪問リハビリテーション】南島原市有家町中須川196-1", "url": "https://www.kaigokensaku.mhlw.go.jp/42/index.php?action_kouhyou_detail_004_kani=true&JigyosyoCd=4211422961-00&ServiceCd=140&Type=search", "url2": null }, "geometry": { "type": "Point", "coordinates": [ 130.3046315, 32.6630381 ] } },
{ "type": "Feature", "properties": { "内容": "長崎北徳洲会介護センター【訪問リハビリテーション】長崎県西彼杵郡長与町北陽台1丁目5番地1", "url": "https://www.kaigokensaku.mhlw.go.jp/42/index.php?action_kouhyou_detail_004_kani=true&JigyosyoCd=4211124310-00&ServiceCd=140&Type=search", "url2": "http://www.nk-toku.jp" }, "geometry": { "type": "Point", "coordinates": [ 129.87229640000001, 32.8241142 ] } },
{ "type": "Feature", "properties": { "内容": "医療法人　啓正会　清水病院【訪問リハビリテーション】長崎県西彼杵郡時津町浜田郷572", "url": "https://www.kaigokensaku.mhlw.go.jp/42/index.php?action_kouhyou_detail_004_kani=true&JigyosyoCd=4211121936-00&ServiceCd=140&Type=search", "url2": "http://www.keiseikai.biz" }, "geometry": { "type": "Point", "coordinates": [ 129.8594127, 32.8334822 ] } },
{ "type": "Feature", "properties": { "内容": "社会医療法人　春回会　長崎北病院【訪問リハビリテーション】長崎県西彼杵郡時津町元村郷800番地", "url": "https://www.kaigokensaku.mhlw.go.jp/42/index.php?action_kouhyou_detail_004_kani=true&JigyosyoCd=4211123965-00&ServiceCd=140&Type=search", "url2": "http://www.shunkaikai.jp/" }, "geometry": { "type": "Point", "coordinates": [ 129.848829300000034, 32.8204414 ] } },
{ "type": "Feature", "properties": { "内容": "医療法人光善会　長崎百合野病院【訪問リハビリテーション】長崎県西彼杵郡時津町元村郷1155-2", "url": "https://www.kaigokensaku.mhlw.go.jp/42/index.php?action_kouhyou_detail_004_kani=true&JigyosyoCd=4211112026-00&ServiceCd=140&Type=search", "url2": "https://www.yurinohp.jp" }, "geometry": { "type": "Point", "coordinates": [ 129.8496624, 32.8147046 ] } },
{ "type": "Feature", "properties": { "内容": "さざ・煌きの里訪問リハビリテーション事業所【訪問リハビリテーション】長崎県北松浦郡佐々町八口免805－2", "url": "https://www.kaigokensaku.mhlw.go.jp/42/index.php?action_kouhyou_detail_004_kani=true&JigyosyoCd=4271501480-00&ServiceCd=140&Type=search", "url2": "www.kiramekinosato.com/" }, "geometry": { "type": "Point", "coordinates": [ 129.6831924, 33.2556664 ] } },
{ "type": "Feature", "properties": { "内容": "グリーンヒル訪問リハステーション【訪問リハビリテーション】長崎県南松浦郡新上五島町浦桑郷643番地1", "url": "https://www.kaigokensaku.mhlw.go.jp/42/index.php?action_kouhyou_detail_004_kani=true&JigyosyoCd=4251680023-00&ServiceCd=140&Type=search", "url2": "https://www.greenhill-kamigoto.com/" }, "geometry": { "type": "Point", "coordinates": [ 129.083537, 32.989978 ] } }
]
}
