{
"type": "FeatureCollection",
"name": "geo_42_訪問入浴介護",
"crs": { "type": "name", "properties": { "name": "urn:ogc:def:crs:OGC:1.3:CRS84" } },
"features": [
{ "type": "Feature", "properties": { "内容": "訪問入浴Jasmine【訪問入浴介護】新戸町3丁目17-27中山ビル1階", "url": "https://www.kaigokensaku.mhlw.go.jp/42/index.php?action_kouhyou_detail_004_kani=true&JigyosyoCd=4270136296-00&ServiceCd=120&Type=search", "url2": "https://dreamconnect-jasmine.jp/" }, "geometry": { "type": "Point", "coordinates": [ 129.867029858117007, 32.712708198244023 ] } },
{ "type": "Feature", "properties": { "内容": "アースサポート長崎【訪問入浴介護】長崎県長崎市松山町4番52号囲本社ビル201", "url": "https://www.kaigokensaku.mhlw.go.jp/42/index.php?action_kouhyou_detail_004_kani=true&JigyosyoCd=4270107230-00&ServiceCd=120&Type=search", "url2": "http://www.earthsupport.co.jp" }, "geometry": { "type": "Point", "coordinates": [ 129.862567899999931, 32.7720082 ] } },
{ "type": "Feature", "properties": { "内容": "アスケア訪問入浴　長崎【訪問入浴介護】長崎県長崎市銀屋町３番１０号綿屋ビル１階", "url": "https://www.kaigokensaku.mhlw.go.jp/42/index.php?action_kouhyou_detail_004_kani=true&JigyosyoCd=4270136320-00&ServiceCd=120&Type=search", "url2": "https://www.as-care.co.jp/" }, "geometry": { "type": "Point", "coordinates": [ 129.881184499999989, 32.745902 ] } },
{ "type": "Feature", "properties": { "内容": "白十字会訪問入浴ステーション【訪問入浴介護】長崎県佐世保市戸尾町4-5白十字ビル　8階", "url": "https://www.kaigokensaku.mhlw.go.jp/42/index.php?action_kouhyou_detail_004_kani=true&JigyosyoCd=4270200209-00&ServiceCd=120&Type=search", "url2": "http://www.hakujyujikai.or.jp/san/" }, "geometry": { "type": "Point", "coordinates": [ 129.72438139999997, 33.1681831 ] } },
{ "type": "Feature", "properties": { "内容": "訪問入浴介護事業所　サクラ【訪問入浴介護】長崎県佐世保市八幡町1-2老人保健施設サクラ", "url": "https://www.kaigokensaku.mhlw.go.jp/42/index.php?action_kouhyou_detail_004_kani=true&JigyosyoCd=4270200464-00&ServiceCd=120&Type=search", "url2": "http://roukensakura.floppy.jp/" }, "geometry": { "type": "Point", "coordinates": [ 129.7224731, 33.1811263 ] } },
{ "type": "Feature", "properties": { "内容": "セントケア佐世保【訪問入浴介護】長崎県佐世保市広田3丁目14番51号杢尾ビル2号室", "url": "https://www.kaigokensaku.mhlw.go.jp/42/index.php?action_kouhyou_detail_004_kani=true&JigyosyoCd=4270205091-00&ServiceCd=120&Type=search", "url2": "http://www.saint-care.com/index.html" }, "geometry": { "type": "Point", "coordinates": [ 129.804287, 33.1223563 ] } },
{ "type": "Feature", "properties": { "内容": "訪問入浴介護事業所　愉楽【訪問入浴介護】長崎県諫早市日の出町44番地14", "url": "https://www.kaigokensaku.mhlw.go.jp/42/index.php?action_kouhyou_detail_004_kani=true&JigyosyoCd=4270403555-00&ServiceCd=120&Type=search", "url2": "yuraku2019.amebaownd.com" }, "geometry": { "type": "Point", "coordinates": [ 130.04877907851963, 32.865476211985992 ] } },
{ "type": "Feature", "properties": { "内容": "平戸市社協訪問入浴介護平戸事業所【訪問入浴介護】長崎県平戸市岩の上町1466番地", "url": "https://www.kaigokensaku.mhlw.go.jp/42/index.php?action_kouhyou_detail_004_kani=true&JigyosyoCd=4270700422-00&ServiceCd=120&Type=search", "url2": "http://www.sha-kyo.net/" }, "geometry": { "type": "Point", "coordinates": [ 129.5566043, 33.3692951 ] } },
{ "type": "Feature", "properties": { "内容": "対馬市社会福祉協議会　下地区訪問入浴介護事業所【訪問入浴介護】長崎県対馬市美津島雞知乙１１６８番地１対馬市総合福祉保健センター", "url": "https://www.kaigokensaku.mhlw.go.jp/42/index.php?action_kouhyou_detail_004_kani=true&JigyosyoCd=4272000029-00&ServiceCd=120&Type=search", "url2": "http://tsushima-city-shakyo.jp/" }, "geometry": { "type": "Point", "coordinates": [ 129.319390032225897, 34.285390016817416 ] } },
{ "type": "Feature", "properties": { "内容": "壱岐市社協　勝本訪問入浴介護事業所【訪問入浴介護】長崎県壱岐市勝本町大久保触１７３６番地２", "url": "https://www.kaigokensaku.mhlw.go.jp/42/index.php?action_kouhyou_detail_004_kani=true&JigyosyoCd=4272100068-00&ServiceCd=120&Type=search", "url2": "https://ikicity-csw.jp/" }, "geometry": { "type": "Point", "coordinates": [ 129.6918508, 33.8439195 ] } },
{ "type": "Feature", "properties": { "内容": "南島原市社協　訪問入浴サービスセンター【訪問入浴介護】長崎県南島原市有家町石田8番地46", "url": "https://www.kaigokensaku.mhlw.go.jp/42/index.php?action_kouhyou_detail_004_kani=true&JigyosyoCd=4272500309-00&ServiceCd=120&Type=search", "url2": "https://www.minashimashakyo.or.jp/" }, "geometry": { "type": "Point", "coordinates": [ 130.33203530000003, 32.6686132 ] } },
{ "type": "Feature", "properties": { "内容": "訪問入浴介護事業所すまいるはぁと【訪問入浴介護】新上五島町奈摩郷379番地5", "url": "https://www.kaigokensaku.mhlw.go.jp/42/index.php?action_kouhyou_detail_004_kani=true&JigyosyoCd=4271601462-00&ServiceCd=120&Type=search", "url2": "https://www.sinkamigoto.net/" }, "geometry": { "type": "Point", "coordinates": [ 129.0669435, 33.017485 ] } }
]
}
