{
"type": "FeatureCollection",
"name": "geo_42_通所リハビリテーション",
"crs": { "type": "name", "properties": { "name": "urn:ogc:def:crs:OGC:1.3:CRS84" } },
"features": [
{ "type": "Feature", "properties": { "内容": "朝長医院【通所リハビリテーション】長崎県長崎市長浦町2583番地", "url": "https://www.kaigokensaku.mhlw.go.jp/42/index.php?action_kouhyou_detail_004_kani=true&JigyosyoCd=4211122074-00&ServiceCd=160&Type=search", "url2": null }, "geometry": { "type": "Point", "coordinates": [ 129.784818800000039, 32.9103017 ] } },
{ "type": "Feature", "properties": { "内容": "千綿病院デイ・ケア【通所リハビリテーション】長崎県長崎市矢上町9番12号", "url": "https://www.kaigokensaku.mhlw.go.jp/42/index.php?action_kouhyou_detail_004_kani=true&JigyosyoCd=4270101233-00&ServiceCd=160&Type=search", "url2": "http://seijinkai-chiwata.jp/" }, "geometry": { "type": "Point", "coordinates": [ 129.951230200000026, 32.7739153 ] } },
{ "type": "Feature", "properties": { "内容": "医療法人緑風会　介護医療院　学び舎　通所リハビリテーション【通所リハビリテーション】長崎県長崎市富士見町18-24", "url": "https://www.kaigokensaku.mhlw.go.jp/42/index.php?action_kouhyou_detail_004_kani=true&JigyosyoCd=42B0100020-00&ServiceCd=160&Type=search", "url2": "http://midorimidori.jp/" }, "geometry": { "type": "Point", "coordinates": [ 129.854672, 32.7731467 ] } },
{ "type": "Feature", "properties": { "内容": "デイケアカリタス【通所リハビリテーション】長崎県長崎市西出津町67-5", "url": "https://www.kaigokensaku.mhlw.go.jp/42/index.php?action_kouhyou_detail_004_kani=true&JigyosyoCd=4270105465-00&ServiceCd=160&Type=search", "url2": null }, "geometry": { "type": "Point", "coordinates": [ 129.705026399999952, 32.8526114 ] } },
{ "type": "Feature", "properties": { "内容": "デイケアセンター　こころ【通所リハビリテーション】長崎県長崎市琴海村松町728-1", "url": "https://www.kaigokensaku.mhlw.go.jp/42/index.php?action_kouhyou_detail_004_kani=true&JigyosyoCd=4211123817-00&ServiceCd=160&Type=search", "url2": null }, "geometry": { "type": "Point", "coordinates": [ 129.785574214680537, 32.865705419288254 ] } },
{ "type": "Feature", "properties": { "内容": "こんどう整形外科デイケアセンターオルト【通所リハビリテーション】長崎県長崎市京泊3丁目30番11号", "url": "https://www.kaigokensaku.mhlw.go.jp/42/index.php?action_kouhyou_detail_004_kani=true&JigyosyoCd=4270135413-00&ServiceCd=160&Type=search", "url2": null }, "geometry": { "type": "Point", "coordinates": [ 129.772013600000037, 32.8239625 ] } },
{ "type": "Feature", "properties": { "内容": "医療法人稲仁会三原台病院【通所リハビリテーション】長崎県長崎市三原１丁目８番３５号", "url": "https://www.kaigokensaku.mhlw.go.jp/42/index.php?action_kouhyou_detail_004_kani=true&JigyosyoCd=4210128684-00&ServiceCd=160&Type=search", "url2": "http://www.miharadai.or.jp/" }, "geometry": { "type": "Point", "coordinates": [ 129.876073857672054, 32.781117259244525 ] } },
{ "type": "Feature", "properties": { "内容": "長崎友愛病院デイケアセンター　はっぴい【通所リハビリテーション】長崎県長崎市蚊焼町２３１４番地１", "url": "https://www.kaigokensaku.mhlw.go.jp/42/index.php?action_kouhyou_detail_004_kani=true&JigyosyoCd=4270106802-00&ServiceCd=160&Type=search", "url2": "http://www.nagasaki-yuuai.com/" }, "geometry": { "type": "Point", "coordinates": [ 129.824806533065839, 32.651892384204523 ] } },
{ "type": "Feature", "properties": { "内容": "医療法人　恵会　光風台病院通所リハビリセンター【通所リハビリテーション】長崎県長崎市鳴見台２丁目４５番２０号", "url": "https://www.kaigokensaku.mhlw.go.jp/42/index.php?action_kouhyou_detail_004_kani=true&JigyosyoCd=4270102546-00&ServiceCd=160&Type=search", "url2": "https://megumikai.org/" }, "geometry": { "type": "Point", "coordinates": [ 129.806799899999987, 32.8236769 ] } },
{ "type": "Feature", "properties": { "内容": "医療法人　健正会　大久保病院　通所リハビリテーション　予防通所リハビリテーション【通所リハビリテーション】長崎県長崎市戸石町１４７０－１", "url": "https://www.kaigokensaku.mhlw.go.jp/42/index.php?action_kouhyou_detail_004_kani=true&JigyosyoCd=4210163889-00&ServiceCd=160&Type=search", "url2": "http:/www.ohkubo-hp.com" }, "geometry": { "type": "Point", "coordinates": [ 129.977037200000041, 32.7643585 ] } },
{ "type": "Feature", "properties": { "内容": "医療法人　宏友会　さとう内科医院　デイケアセンター【通所リハビリテーション】長崎県長崎市富士見町３－２５", "url": "https://www.kaigokensaku.mhlw.go.jp/42/index.php?action_kouhyou_detail_004_kani=true&JigyosyoCd=4270105580-00&ServiceCd=160&Type=search", "url2": "http;//www.kouyukai.com/" }, "geometry": { "type": "Point", "coordinates": [ 129.856221199999936, 32.7714775 ] } },
{ "type": "Feature", "properties": { "内容": "医療法人慈恵会　小江原中央病院【通所リハビリテーション】長崎県長崎市小江原２丁目１番２０号", "url": "https://www.kaigokensaku.mhlw.go.jp/42/index.php?action_kouhyou_detail_004_kani=true&JigyosyoCd=4270102447-00&ServiceCd=160&Type=search", "url2": "http://www.koebaru.com/" }, "geometry": { "type": "Point", "coordinates": [ 129.841729799999939, 32.7818676 ] } },
{ "type": "Feature", "properties": { "内容": "介護老人保健施設コスモスガーデン桜の里【通所リハビリテーション】長崎県長崎市さくらの里２丁目２７番２８号", "url": "https://www.kaigokensaku.mhlw.go.jp/42/index.php?action_kouhyou_detail_004_kani=true&JigyosyoCd=4250180108-00&ServiceCd=160&Type=search", "url2": "http://www.cosmos-garden.com/" }, "geometry": { "type": "Point", "coordinates": [ 129.764247100000034, 32.8356698 ] } },
{ "type": "Feature", "properties": { "内容": "医療法人秋桜会　通所リハビリテーション【通所リハビリテーション】長崎県長崎市京泊3丁目30-3", "url": "https://www.kaigokensaku.mhlw.go.jp/42/index.php?action_kouhyou_detail_004_kani=true&JigyosyoCd=4270103718-00&ServiceCd=160&Type=search", "url2": "http://www.cosmos-garden.com/" }, "geometry": { "type": "Point", "coordinates": [ 129.772158539286778, 32.82370621129337 ] } },
{ "type": "Feature", "properties": { "内容": "医療法人昭和会昭和会病院　指定通所リハビリテーション事業所【通所リハビリテーション】長崎県長崎市東山手町６番５１号", "url": "https://www.kaigokensaku.mhlw.go.jp/42/index.php?action_kouhyou_detail_004_kani=true&JigyosyoCd=4270101118-00&ServiceCd=160&Type=search", "url2": "http://www.showakai-hp.jp" }, "geometry": { "type": "Point", "coordinates": [ 129.873081400000046, 32.7367228 ] } },
{ "type": "Feature", "properties": { "内容": "デイケアセンター桜園【通所リハビリテーション】長崎県長崎市田中町２６６番地２医療法人植松整形外科医院３階", "url": "https://www.kaigokensaku.mhlw.go.jp/42/index.php?action_kouhyou_detail_004_kani=true&JigyosyoCd=4270135314-00&ServiceCd=160&Type=search", "url2": null }, "geometry": { "type": "Point", "coordinates": [ 129.950694399999946, 32.76423 ] } },
{ "type": "Feature", "properties": { "内容": "医療法人　泉田外科　介護老人保健施設メープル【通所リハビリテーション】長崎県長崎市宿町３６", "url": "https://www.kaigokensaku.mhlw.go.jp/42/index.php?action_kouhyou_detail_004_kani=true&JigyosyoCd=4250180124-00&ServiceCd=160&Type=search", "url2": null }, "geometry": { "type": "Point", "coordinates": [ 129.9419034, 32.7582831 ] } },
{ "type": "Feature", "properties": { "内容": "医療法人　太樹会　のりむらクリニック　通所リハビリテーション【通所リハビリテーション】長崎県長崎市葉山1丁目5－2浜福ビル2F・3F", "url": "https://www.kaigokensaku.mhlw.go.jp/42/index.php?action_kouhyou_detail_004_kani=true&JigyosyoCd=4210167831-00&ServiceCd=160&Type=search", "url2": "http://norimuraclinic.jp" }, "geometry": { "type": "Point", "coordinates": [ 129.8516557, 32.8032869 ] } },
{ "type": "Feature", "properties": { "内容": "医療法人大宮医院　通所リハビリテーション【通所リハビリテーション】長崎市平山台１丁目１番１０号", "url": "https://www.kaigokensaku.mhlw.go.jp/42/index.php?action_kouhyou_detail_004_kani=true&JigyosyoCd=4210165827-00&ServiceCd=160&Type=search", "url2": null }, "geometry": { "type": "Point", "coordinates": [ 129.8345526, 32.6620039 ] } },
{ "type": "Feature", "properties": { "内容": "サテライト型　小規模介護老人保健施設　サンブライト愛宕Ⅱ【通所リハビリテーション】長崎県長崎市愛宕4丁目11番1号", "url": "https://www.kaigokensaku.mhlw.go.jp/42/index.php?action_kouhyou_detail_004_kani=true&JigyosyoCd=4250180116-00&ServiceCd=160&Type=search", "url2": "http://hakuwakai.or.jp/" }, "geometry": { "type": "Point", "coordinates": [ 129.892030299999988, 32.734143 ] } },
{ "type": "Feature", "properties": { "内容": "通所リハビリテーション楓【通所リハビリテーション】長崎県長崎市東町1918-1", "url": "https://www.kaigokensaku.mhlw.go.jp/42/index.php?action_kouhyou_detail_004_kani=true&JigyosyoCd=4210167609-00&ServiceCd=160&Type=search", "url2": "http://www.kaede-day.com" }, "geometry": { "type": "Point", "coordinates": [ 129.954488099999935, 32.7801065 ] } },
{ "type": "Feature", "properties": { "内容": "平田クリニックすこやかデイケア【通所リハビリテーション】長崎市上野町1番5号", "url": "https://www.kaigokensaku.mhlw.go.jp/42/index.php?action_kouhyou_detail_004_kani=true&JigyosyoCd=4270101324-00&ServiceCd=160&Type=search", "url2": "https://sukoyaka-daycare.com/" }, "geometry": { "type": "Point", "coordinates": [ 129.8685365, 32.7768772 ] } },
{ "type": "Feature", "properties": { "内容": "医療法人　保善会　田上病院【通所リハビリテーション】長崎県長崎市田上2丁目14-15", "url": "https://www.kaigokensaku.mhlw.go.jp/42/index.php?action_kouhyou_detail_004_kani=true&JigyosyoCd=4210123164-00&ServiceCd=160&Type=search", "url2": "http://www.tagami-hp.com" }, "geometry": { "type": "Point", "coordinates": [ 129.887386399999968, 32.7258437 ] } },
{ "type": "Feature", "properties": { "内容": "医療法人友愛会介護老人保健施設にしきの里【通所リハビリテーション】長崎県長崎市錦2丁目1番1号", "url": "https://www.kaigokensaku.mhlw.go.jp/42/index.php?action_kouhyou_detail_004_kani=true&JigyosyoCd=4250180066-00&ServiceCd=160&Type=search", "url2": "https://www.youi-med-psychiatry.com/nishiki/" }, "geometry": { "type": "Point", "coordinates": [ 129.855620199999947, 32.7884088 ] } },
{ "type": "Feature", "properties": { "内容": "医療法人有葵会のぼる内科　通所リハビリテーション【通所リハビリテーション】長崎県長崎市中園町10番5号吉田ビル", "url": "https://www.kaigokensaku.mhlw.go.jp/42/index.php?action_kouhyou_detail_004_kani=true&JigyosyoCd=4210164846-00&ServiceCd=160&Type=search", "url2": "http://noborunaika.jp/" }, "geometry": { "type": "Point", "coordinates": [ 129.859175400000026, 32.7917835 ] } },
{ "type": "Feature", "properties": { "内容": "医療法人緑風会長崎みどり病院指定通所リハビリテーション【通所リハビリテーション】長崎県長崎市富士見町18－24", "url": "https://www.kaigokensaku.mhlw.go.jp/42/index.php?action_kouhyou_detail_004_kani=true&JigyosyoCd=4270101688-00&ServiceCd=160&Type=search", "url2": "http://www.midorimidori.jp/" }, "geometry": { "type": "Point", "coordinates": [ 129.854646199999934, 32.7731134 ] } },
{ "type": "Feature", "properties": { "内容": "和仁会病院　通所リハビリセンター【通所リハビリテーション】長崎県長崎市中里町９６", "url": "https://www.kaigokensaku.mhlw.go.jp/42/index.php?action_kouhyou_detail_004_kani=true&JigyosyoCd=4270101696-00&ServiceCd=160&Type=search", "url2": "http://wajinkai.jp/" }, "geometry": { "type": "Point", "coordinates": [ 129.962084299999987, 32.7979466 ] } },
{ "type": "Feature", "properties": { "内容": "通所リハビリテーション　あけぼの【通所リハビリテーション】長崎県長崎市三原３丁目５６９番地", "url": "https://www.kaigokensaku.mhlw.go.jp/42/index.php?action_kouhyou_detail_004_kani=true&JigyosyoCd=4210150498-00&ServiceCd=160&Type=search", "url2": "akebono@kojinkai-hospital.jp" }, "geometry": { "type": "Point", "coordinates": [ 129.8862239, 32.7793274 ] } },
{ "type": "Feature", "properties": { "内容": "医療法人社団健昌会　デイケア新里浦上【通所リハビリテーション】長崎県長崎市茂里町３番２０号新里メディケアセンター", "url": "https://www.kaigokensaku.mhlw.go.jp/42/index.php?action_kouhyou_detail_004_kani=true&JigyosyoCd=4210167062-00&ServiceCd=160&Type=search", "url2": "http://shinzato.jp/" }, "geometry": { "type": "Point", "coordinates": [ 129.862695799999983, 32.7661699 ] } },
{ "type": "Feature", "properties": { "内容": "医療法人社団健昌会　デイケア新里城山台【通所リハビリテーション】長崎県長崎市立岩町３４番１０号新里メディケア城山台", "url": "https://www.kaigokensaku.mhlw.go.jp/42/index.php?action_kouhyou_detail_004_kani=true&JigyosyoCd=4270109566-00&ServiceCd=160&Type=search", "url2": "http://shinzato.jp/" }, "geometry": { "type": "Point", "coordinates": [ 129.844269299999951, 32.7673859 ] } },
{ "type": "Feature", "properties": { "内容": "医療法人社団春秋会南長崎クリニック　通所リハビリテーション【通所リハビリテーション】長崎県長崎市松が枝町3番20号", "url": "https://www.kaigokensaku.mhlw.go.jp/42/index.php?action_kouhyou_detail_004_kani=true&JigyosyoCd=4210162006-00&ServiceCd=160&Type=search", "url2": "http://www.syunjyu-kai.or.jp" }, "geometry": { "type": "Point", "coordinates": [ 129.8714205, 32.7347563 ] } },
{ "type": "Feature", "properties": { "内容": "医療法人　社団　田島整形外科・外科・クリニック【通所リハビリテーション】長崎市目覚町４番１５号", "url": "https://www.kaigokensaku.mhlw.go.jp/42/index.php?action_kouhyou_detail_004_kani=true&JigyosyoCd=4210162303-00&ServiceCd=160&Type=search", "url2": "http://www.tashima.or.jp/" }, "geometry": { "type": "Point", "coordinates": [ 129.865737200000012, 32.7637452 ] } },
{ "type": "Feature", "properties": { "内容": "ニュー琴海病院【通所リハビリテーション】長崎県長崎市琴海形上町1849-7", "url": "https://www.kaigokensaku.mhlw.go.jp/42/index.php?action_kouhyou_detail_004_kani=true&JigyosyoCd=4210167047-00&ServiceCd=160&Type=search", "url2": "http://www.newkinkai.or.jp/" }, "geometry": { "type": "Point", "coordinates": [ 129.785389799999962, 32.9483197 ] } },
{ "type": "Feature", "properties": { "内容": "医療法人清潮会　介護老人保健施設　みどりの里【通所リハビリテーション】長崎県長崎市布巻町１６５番地１", "url": "https://www.kaigokensaku.mhlw.go.jp/42/index.php?action_kouhyou_detail_004_kani=true&JigyosyoCd=4251180040-00&ServiceCd=160&Type=search", "url2": "https://midorinosato.ne.jp/" }, "geometry": { "type": "Point", "coordinates": [ 129.832316900000023, 32.6542122 ] } },
{ "type": "Feature", "properties": { "内容": "医療法人　蘭佑会　ダイヤランド崎望館【通所リハビリテーション】長崎県長崎市ダイヤランド３丁目３１番３号", "url": "https://www.kaigokensaku.mhlw.go.jp/42/index.php?action_kouhyou_detail_004_kani=true&JigyosyoCd=4250180082-00&ServiceCd=160&Type=search", "url2": "kiboukan@ngs2.cncm.ne.jp" }, "geometry": { "type": "Point", "coordinates": [ 129.855500200000051, 32.7028893 ] } },
{ "type": "Feature", "properties": { "内容": "介護老人保健施設　中の里　通所リハビリテーション【通所リハビリテーション】長崎県長崎市古賀町８１５－２", "url": "https://www.kaigokensaku.mhlw.go.jp/42/index.php?action_kouhyou_detail_004_kani=true&JigyosyoCd=4250180033-00&ServiceCd=160&Type=search", "url2": "http://wajinkai.jp/" }, "geometry": { "type": "Point", "coordinates": [ 129.961737099999937, 32.7979605 ] } },
{ "type": "Feature", "properties": { "内容": "通所リハビリテーション　銀屋通り【通所リハビリテーション】長崎県長崎市銀屋町4番11号", "url": "https://www.kaigokensaku.mhlw.go.jp/42/index.php?action_kouhyou_detail_004_kani=true&JigyosyoCd=4210125458-00&ServiceCd=160&Type=search", "url2": "http://www.zeshinkai.or.jp/center" }, "geometry": { "type": "Point", "coordinates": [ 129.880705799999987, 32.7457528 ] } },
{ "type": "Feature", "properties": { "内容": "医療法人　あんず整形外科　通所リハビリテーション【通所リハビリテーション】長崎県長崎市畝刈町1613-33サクセスカバーヒルズ1・3階", "url": "https://www.kaigokensaku.mhlw.go.jp/42/index.php?action_kouhyou_detail_004_kani=true&JigyosyoCd=4210167393-00&ServiceCd=160&Type=search", "url2": null }, "geometry": { "type": "Point", "coordinates": [ 129.7763931, 32.826009 ] } },
{ "type": "Feature", "properties": { "内容": "三島内科医院通所リハビリテーション【通所リハビリテーション】長崎県長崎市上戸町2-8-16", "url": "https://www.kaigokensaku.mhlw.go.jp/42/index.php?action_kouhyou_detail_004_kani=true&JigyosyoCd=4210168102-00&ServiceCd=160&Type=search", "url2": null }, "geometry": { "type": "Point", "coordinates": [ 129.8680312, 32.715725 ] } },
{ "type": "Feature", "properties": { "内容": "上戸町病院【通所リハビリテーション】長崎県長崎市上戸町4-2-20", "url": "https://www.kaigokensaku.mhlw.go.jp/42/index.php?action_kouhyou_detail_004_kani=true&JigyosyoCd=4210119634-00&ServiceCd=160&Type=search", "url2": "http://www.kenyukai.or.jp" }, "geometry": { "type": "Point", "coordinates": [ 129.869462699999985, 32.7199159 ] } },
{ "type": "Feature", "properties": { "内容": "社会医療法人春回会　春回会クリニック　通所リハビリテーション【通所リハビリテーション】長崎県長崎市目覚町7番2号ＨＣＳ長崎ビル4階", "url": "https://www.kaigokensaku.mhlw.go.jp/42/index.php?action_kouhyou_detail_004_kani=true&JigyosyoCd=4210167872-00&ServiceCd=160&Type=search", "url2": null }, "geometry": { "type": "Point", "coordinates": [ 129.864806700000031, 32.7647312 ] } },
{ "type": "Feature", "properties": { "内容": "長崎記念病院通所リハビリテーションきねん【通所リハビリテーション】長崎県長崎市深堀町1丁目145-22", "url": "https://www.kaigokensaku.mhlw.go.jp/42/index.php?action_kouhyou_detail_004_kani=true&JigyosyoCd=4210118214-00&ServiceCd=160&Type=search", "url2": null }, "geometry": { "type": "Point", "coordinates": [ 129.8335131, 32.6847544 ] } },
{ "type": "Feature", "properties": { "内容": "介護老人保健施設　ハーモニーガーデン　通所リハビリテーション【通所リハビリテーション】長崎県長崎市網場町４９２番地３７", "url": "https://www.kaigokensaku.mhlw.go.jp/42/index.php?action_kouhyou_detail_004_kani=true&JigyosyoCd=4250180025-00&ServiceCd=160&Type=search", "url2": "http://www.yugikai.or.jp/harmony.html" }, "geometry": { "type": "Point", "coordinates": [ 129.946792475532561, 32.757267688683854 ] } },
{ "type": "Feature", "properties": { "内容": "シンフォニー稲佐の森　デイケアサービスセンター【通所リハビリテーション】長崎県長崎市大谷町418番地1", "url": "https://www.kaigokensaku.mhlw.go.jp/42/index.php?action_kouhyou_detail_004_kani=true&JigyosyoCd=4250180009-00&ServiceCd=160&Type=search", "url2": "http://www.symphony@nagasaki-kouseifukushidan.or.jp" }, "geometry": { "type": "Point", "coordinates": [ 129.850955, 32.7483184 ] } },
{ "type": "Feature", "properties": { "内容": "デイケアサービスセンターシンフォニー稲佐の森II【通所リハビリテーション】長崎県長崎市大谷町418番地１", "url": "https://www.kaigokensaku.mhlw.go.jp/42/index.php?action_kouhyou_detail_004_kani=true&JigyosyoCd=4250180090-00&ServiceCd=160&Type=search", "url2": "http://www.nagasaki-kouseifukushidan.or.jp" }, "geometry": { "type": "Point", "coordinates": [ 129.850955, 32.7483184 ] } },
{ "type": "Feature", "properties": { "内容": "エスポアールそとめ【通所リハビリテーション】長崎県長崎市上黒崎町2201番地3", "url": "https://www.kaigokensaku.mhlw.go.jp/42/index.php?action_kouhyou_detail_004_kani=true&JigyosyoCd=4251180016-00&ServiceCd=160&Type=search", "url2": "http://www.hiurakai.jp/" }, "geometry": { "type": "Point", "coordinates": [ 129.723261099999945, 32.8546143 ] } },
{ "type": "Feature", "properties": { "内容": "介護老人保健施設　東長崎ナーシングホーム【通所リハビリテーション】長崎県長崎市東町1893-5", "url": "https://www.kaigokensaku.mhlw.go.jp/42/index.php?action_kouhyou_detail_004_kani=true&JigyosyoCd=4250180074-00&ServiceCd=160&Type=search", "url2": "http://fusoukai.jp/" }, "geometry": { "type": "Point", "coordinates": [ 129.956263, 32.779165 ] } },
{ "type": "Feature", "properties": { "内容": "通所リハビリ・ナーシングケア横尾【通所リハビリテーション】長崎県長崎市横尾3丁目26番2号", "url": "https://www.kaigokensaku.mhlw.go.jp/42/index.php?action_kouhyou_detail_004_kani=true&JigyosyoCd=4250180041-00&ServiceCd=160&Type=search", "url2": "http://www.heisei-kai.or.jp/" }, "geometry": { "type": "Point", "coordinates": [ 129.839453300000059, 32.8168669 ] } },
{ "type": "Feature", "properties": { "内容": "大石共立病院　通所リハビリテーション【通所リハビリテーション】長崎県長崎市琴海村松町246番地", "url": "https://www.kaigokensaku.mhlw.go.jp/42/index.php?action_kouhyou_detail_004_kani=true&JigyosyoCd=4271101620-00&ServiceCd=160&Type=search", "url2": "https://oh-ishihospital.jp/" }, "geometry": { "type": "Point", "coordinates": [ 129.78857210000001, 32.8814212 ] } },
{ "type": "Feature", "properties": { "内容": "大浦診療所【通所リハビリテーション】長崎県長崎市大浦町9-30", "url": "https://www.kaigokensaku.mhlw.go.jp/42/index.php?action_kouhyou_detail_004_kani=true&JigyosyoCd=4210118412-00&ServiceCd=160&Type=search", "url2": "http://www.oura-shinryousyo.com" }, "geometry": { "type": "Point", "coordinates": [ 129.8722093, 32.7349507 ] } },
{ "type": "Feature", "properties": { "内容": "社会医療法人健友会　香焼民主診療所【通所リハビリテーション】長崎県長崎市香焼町５０１番地香焼民主診療所", "url": "https://www.kaigokensaku.mhlw.go.jp/42/index.php?action_kouhyou_detail_004_kani=true&JigyosyoCd=4271100077-00&ServiceCd=160&Type=search", "url2": "http://www.kenyukai.or.jp/kouyagi/" }, "geometry": { "type": "Point", "coordinates": [ 129.8134394, 32.6892398 ] } },
{ "type": "Feature", "properties": { "内容": "デイケアセンター　たちばな【通所リハビリテーション】長崎県長崎市網場町487-8", "url": "https://www.kaigokensaku.mhlw.go.jp/42/index.php?action_kouhyou_detail_004_kani=true&JigyosyoCd=4270100748-00&ServiceCd=160&Type=search", "url2": "http://imamura-group.co.jp/" }, "geometry": { "type": "Point", "coordinates": [ 129.944461700000033, 32.7549723 ] } },
{ "type": "Feature", "properties": { "内容": "医療法人光省会　福田外科病院【通所リハビリテーション】長崎県佐世保市藤原町38-3", "url": "https://www.kaigokensaku.mhlw.go.jp/42/index.php?action_kouhyou_detail_004_kani=true&JigyosyoCd=4210225613-00&ServiceCd=160&Type=search", "url2": "http://fukudageka.or.jp" }, "geometry": { "type": "Point", "coordinates": [ 129.7404977, 33.1613417 ] } },
{ "type": "Feature", "properties": { "内容": "医療法人愛生会医院通所リハビリテーション事業所【通所リハビリテーション】長崎県佐世保市中里町342－3", "url": "https://www.kaigokensaku.mhlw.go.jp/42/index.php?action_kouhyou_detail_004_kani=true&JigyosyoCd=4270202957-00&ServiceCd=160&Type=search", "url2": null }, "geometry": { "type": "Point", "coordinates": [ 129.682582300000036, 33.2030075 ] } },
{ "type": "Feature", "properties": { "内容": "医療法人誠愛会　佐世保記念病院【通所リハビリテーション】長崎県佐世保市鹿子前町104番地", "url": "https://www.kaigokensaku.mhlw.go.jp/42/index.php?action_kouhyou_detail_004_kani=true&JigyosyoCd=4210225001-00&ServiceCd=160&Type=search", "url2": "http://seiaikai-group.or.jp" }, "geometry": { "type": "Point", "coordinates": [ 129.683204, 33.1567259 ] } },
{ "type": "Feature", "properties": { "内容": "医療法人　まつお内科医院【通所リハビリテーション】長崎県佐世保市下本山町1316-4", "url": "https://www.kaigokensaku.mhlw.go.jp/42/index.php?action_kouhyou_detail_004_kani=true&JigyosyoCd=4210226140-00&ServiceCd=160&Type=search", "url2": null }, "geometry": { "type": "Point", "coordinates": [ 129.681573899999989, 33.2060933 ] } },
{ "type": "Feature", "properties": { "内容": "医療法人愛健会　愛健医院　通所リハビリセンター【通所リハビリテーション】長崎県佐世保市上本山町1092-1", "url": "https://www.kaigokensaku.mhlw.go.jp/42/index.php?action_kouhyou_detail_004_kani=true&JigyosyoCd=4270200266-00&ServiceCd=160&Type=search", "url2": "http://www.aikenkai.jp/daycare.html" }, "geometry": { "type": "Point", "coordinates": [ 129.692634, 33.2088627 ] } },
{ "type": "Feature", "properties": { "内容": "医療法人愛和会村上内科ハナレイ倶楽部通所リハビリテーション【通所リハビリテーション】長崎県佐世保市城山町3-21", "url": "https://www.kaigokensaku.mhlw.go.jp/42/index.php?action_kouhyou_detail_004_kani=true&JigyosyoCd=4210227791-00&ServiceCd=160&Type=search", "url2": "https://www.aiwakai.com/" }, "geometry": { "type": "Point", "coordinates": [ 129.717309800000066, 33.1836983 ] } },
{ "type": "Feature", "properties": { "内容": "医療法人　種榮会　あかがき内科・循環器科　通所リハビリテーション事業所【通所リハビリテーション】長崎県佐世保市萩坂町1741", "url": "https://www.kaigokensaku.mhlw.go.jp/42/index.php?action_kouhyou_detail_004_kani=true&JigyosyoCd=4270200449-00&ServiceCd=160&Type=search", "url2": "http://www.akagaki-naika.com/" }, "geometry": { "type": "Point", "coordinates": [ 129.817164300000059, 33.0879598 ] } },
{ "type": "Feature", "properties": { "内容": "通所リハビリテーション　潜竜【通所リハビリテーション】長崎県佐世保市江迎町田ノ元467", "url": "https://www.kaigokensaku.mhlw.go.jp/42/index.php?action_kouhyou_detail_004_kani=true&JigyosyoCd=4211521184-00&ServiceCd=160&Type=search", "url2": null }, "geometry": { "type": "Point", "coordinates": [ 129.682334500000024, 33.2820934 ] } },
{ "type": "Feature", "properties": { "内容": "医療法人松栄会　介護老人保健施設松寿園　通所リハビリテーション【通所リハビリテーション】長崎県佐世保市小佐世保町2番1号", "url": "https://www.kaigokensaku.mhlw.go.jp/42/index.php?action_kouhyou_detail_004_kani=true&JigyosyoCd=4250280023-00&ServiceCd=160&Type=search", "url2": null }, "geometry": { "type": "Point", "coordinates": [ 129.731192, 33.17381060000001 ] } },
{ "type": "Feature", "properties": { "内容": "サン・レモリハビリ病院　通所リハビリテーション事業所【通所リハビリテーション】長崎県佐世保市江上町4848番地1", "url": "https://www.kaigokensaku.mhlw.go.jp/42/index.php?action_kouhyou_detail_004_kani=true&JigyosyoCd=4270200639-00&ServiceCd=160&Type=search", "url2": "http://kokowakai.or.jp/sanremo/" }, "geometry": { "type": "Point", "coordinates": [ 129.784703700000023, 33.0691355 ] } },
{ "type": "Feature", "properties": { "内容": "介護老人保健施設すいざん荘【通所リハビリテーション】長崎県佐世保市赤崎町７４－２", "url": "https://www.kaigokensaku.mhlw.go.jp/42/index.php?action_kouhyou_detail_004_kani=true&JigyosyoCd=4250280031-00&ServiceCd=160&Type=search", "url2": null }, "geometry": { "type": "Point", "coordinates": [ 129.693865499999987, 33.164439 ] } },
{ "type": "Feature", "properties": { "内容": "村上医院通所リハビリテーション【通所リハビリテーション】長崎県佐世保市広田1丁目4番7号", "url": "https://www.kaigokensaku.mhlw.go.jp/42/index.php?action_kouhyou_detail_004_kani=true&JigyosyoCd=4270200381-00&ServiceCd=160&Type=search", "url2": null }, "geometry": { "type": "Point", "coordinates": [ 129.800067899999931, 33.1303166 ] } },
{ "type": "Feature", "properties": { "内容": "医療法人翠山会いちょうクリニック通所リハビリテーション【通所リハビリテーション】長崎県佐世保市赤崎町２９８番地", "url": "https://www.kaigokensaku.mhlw.go.jp/42/index.php?action_kouhyou_detail_004_kani=true&JigyosyoCd=4210226074-00&ServiceCd=160&Type=search", "url2": null }, "geometry": { "type": "Point", "coordinates": [ 129.693705200000068, 33.1595466 ] } },
{ "type": "Feature", "properties": { "内容": "医療法人　増田整形外科　デイケア　オリーブ【通所リハビリテーション】長崎県佐世保市高砂町４番２１号", "url": "https://www.kaigokensaku.mhlw.go.jp/42/index.php?action_kouhyou_detail_004_kani=true&JigyosyoCd=4210227270-00&ServiceCd=160&Type=search", "url2": "https://masudaseikeigeka.com" }, "geometry": { "type": "Point", "coordinates": [ 129.715835, 33.178782099999985 ] } },
{ "type": "Feature", "properties": { "内容": "医療法人　雄人会　三川内病院　通所リハビリ　ひだまり【通所リハビリテーション】長崎県佐世保市三川内本町２９３番地１", "url": "https://www.kaigokensaku.mhlw.go.jp/42/index.php?action_kouhyou_detail_004_kani=true&JigyosyoCd=4210221927-00&ServiceCd=160&Type=search", "url2": "http://mikawachi.or.jp" }, "geometry": { "type": "Point", "coordinates": [ 129.829053499999986, 33.15151 ] } },
{ "type": "Feature", "properties": { "内容": "最勝寺内科医院【通所リハビリテーション】長崎県佐世保市光町1-18", "url": "https://www.kaigokensaku.mhlw.go.jp/42/index.php?action_kouhyou_detail_004_kani=true&JigyosyoCd=4270200068-00&ServiceCd=160&Type=search", "url2": "http://www.saishouji-iin.com/" }, "geometry": { "type": "Point", "coordinates": [ 129.651587599999971, 33.2072535 ] } },
{ "type": "Feature", "properties": { "内容": "介護老人保健施設　つつじの郷【通所リハビリテーション】長崎県佐世保市鹿町町下歌ケ浦109-1", "url": "https://www.kaigokensaku.mhlw.go.jp/42/index.php?action_kouhyou_detail_004_kani=true&JigyosyoCd=4251580025-00&ServiceCd=160&Type=search", "url2": "https://sf.seisyukai.jp/rehabilitation/" }, "geometry": { "type": "Point", "coordinates": [ 129.5926346, 33.274626 ] } },
{ "type": "Feature", "properties": { "内容": "介護老人保健施設　リハビリサポートひうみ【通所リハビリテーション】長崎県佐世保市ひうみ町1879番31", "url": "https://www.kaigokensaku.mhlw.go.jp/42/index.php?action_kouhyou_detail_004_kani=true&JigyosyoCd=4250280114-00&ServiceCd=160&Type=search", "url2": "https://hakujyujikai.or.jp/hiumi/" }, "geometry": { "type": "Point", "coordinates": [ 129.7633231, 33.1540805 ] } },
{ "type": "Feature", "properties": { "内容": "介護老人保健施設　サン【通所リハビリテーション】長崎県佐世保市大和町30番地", "url": "https://www.kaigokensaku.mhlw.go.jp/42/index.php?action_kouhyou_detail_004_kani=true&JigyosyoCd=4250280049-00&ServiceCd=160&Type=search", "url2": "http://www.hakujyujikai-san.jp" }, "geometry": { "type": "Point", "coordinates": [ 129.747002299999963, 33.1563016 ] } },
{ "type": "Feature", "properties": { "内容": "介護老人保健施設ひまわり　通所リハビリテーション【通所リハビリテーション】長崎県佐世保市指方町５０４０番地３", "url": "https://www.kaigokensaku.mhlw.go.jp/42/index.php?action_kouhyou_detail_004_kani=true&JigyosyoCd=4250280064-00&ServiceCd=160&Type=search", "url2": "http://www.hoyukai.info/himawari/" }, "geometry": { "type": "Point", "coordinates": [ 129.784181, 33.091139 ] } },
{ "type": "Feature", "properties": { "内容": "老人保健施設コスモス【通所リハビリテーション】長崎県佐世保市上柚木町２５１５番地", "url": "https://www.kaigokensaku.mhlw.go.jp/42/index.php?action_kouhyou_detail_004_kani=true&JigyosyoCd=4250280015-00&ServiceCd=160&Type=search", "url2": "http://www.cos-mos.jp" }, "geometry": { "type": "Point", "coordinates": [ 129.770096400000057, 33.2108472 ] } },
{ "type": "Feature", "properties": { "内容": "通所リハビリテーション　サクラ【通所リハビリテーション】長崎県佐世保市八幡町１番地の２", "url": "https://www.kaigokensaku.mhlw.go.jp/42/index.php?action_kouhyou_detail_004_kani=true&JigyosyoCd=4250280056-00&ServiceCd=160&Type=search", "url2": "https://roukensakura.floppy.jp/" }, "geometry": { "type": "Point", "coordinates": [ 129.722212, 33.1832511 ] } },
{ "type": "Feature", "properties": { "内容": "世知原クリニック【通所リハビリテーション】長崎県佐世保市世知原町栗迎155番地1", "url": "https://www.kaigokensaku.mhlw.go.jp/42/index.php?action_kouhyou_detail_004_kani=true&JigyosyoCd=4270203286-00&ServiceCd=160&Type=search", "url2": null }, "geometry": { "type": "Point", "coordinates": [ 129.754460900000026, 33.2552784 ] } },
{ "type": "Feature", "properties": { "内容": "医療法人社団　石坂脳神経外科　きらら【通所リハビリテーション】長崎県佐世保市卸本町30-42", "url": "https://www.kaigokensaku.mhlw.go.jp/42/index.php?action_kouhyou_detail_004_kani=true&JigyosyoCd=4270201405-00&ServiceCd=160&Type=search", "url2": "http://www.ishizaka-neurosurgery.com" }, "geometry": { "type": "Point", "coordinates": [ 129.771656099999973, 33.1524915 ] } },
{ "type": "Feature", "properties": { "内容": "指定通所リハビリテーション　なごみ【通所リハビリテーション】長崎県佐世保市指方町２２１７－１", "url": "https://www.kaigokensaku.mhlw.go.jp/42/index.php?action_kouhyou_detail_004_kani=true&JigyosyoCd=4270202056-00&ServiceCd=160&Type=search", "url2": "https:://kuriya-naika.com/page0102-4.html" }, "geometry": { "type": "Point", "coordinates": [ 129.785141971827699, 33.106215954733941 ] } },
{ "type": "Feature", "properties": { "内容": "医療法人わかば会俵町浜野病院デイケアセンター【通所リハビリテーション】長崎県佐世保市俵町２２番１号", "url": "https://www.kaigokensaku.mhlw.go.jp/42/index.php?action_kouhyou_detail_004_kani=true&JigyosyoCd=4270201785-00&ServiceCd=160&Type=search", "url2": "http://www.wakabakai.or.jp" }, "geometry": { "type": "Point", "coordinates": [ 129.7183986, 33.1877396 ] } },
{ "type": "Feature", "properties": { "内容": "柴田長庚堂病院　通所リハビリテーション【通所リハビリテーション】長崎県島原市中堀町６1番地アプリコット", "url": "https://www.kaigokensaku.mhlw.go.jp/42/index.php?action_kouhyou_detail_004_kani=true&JigyosyoCd=4270300769-00&ServiceCd=160&Type=search", "url2": "http://www.saikakai.com" }, "geometry": { "type": "Point", "coordinates": [ 130.369930059524506, 32.782631659583778 ] } },
{ "type": "Feature", "properties": { "内容": "介護老人保健施設　フォスター島原【通所リハビリテーション】長崎県島原市中野町丙２７番地１", "url": "https://www.kaigokensaku.mhlw.go.jp/42/index.php?action_kouhyou_detail_004_kani=true&JigyosyoCd=4250380005-00&ServiceCd=160&Type=search", "url2": null }, "geometry": { "type": "Point", "coordinates": [ 130.3497307, 32.8277656 ] } },
{ "type": "Feature", "properties": { "内容": "松岡病院　通所リハビリテーション【通所リハビリテーション】長崎県島原市江戸丁１９１９", "url": "https://www.kaigokensaku.mhlw.go.jp/42/index.php?action_kouhyou_detail_004_kani=true&JigyosyoCd=4210321123-00&ServiceCd=160&Type=search", "url2": "http://www.shimabara.jp/ik-matuokahp/" }, "geometry": { "type": "Point", "coordinates": [ 130.3646195, 32.7882248 ] } },
{ "type": "Feature", "properties": { "内容": "医療法人社団東洋会　池田病院【通所リハビリテーション】長崎県島原市湖南町6893-2", "url": "https://www.kaigokensaku.mhlw.go.jp/42/index.php?action_kouhyou_detail_004_kani=true&JigyosyoCd=4210320802-00&ServiceCd=160&Type=search", "url2": "http://www.ikeda-hp.or.jp/" }, "geometry": { "type": "Point", "coordinates": [ 130.368192099999987, 32.7784396 ] } },
{ "type": "Feature", "properties": { "内容": "医療法人慈眼会　坂本医院デイケア【通所リハビリテーション】長崎県島原市親和町丁2670-10", "url": "https://www.kaigokensaku.mhlw.go.jp/42/index.php?action_kouhyou_detail_004_kani=true&JigyosyoCd=4270300074-00&ServiceCd=160&Type=search", "url2": "http://www.himawarinet.ne.jp/~jigenkai/index.htm" }, "geometry": { "type": "Point", "coordinates": [ 130.366642899999988, 32.7607052 ] } },
{ "type": "Feature", "properties": { "内容": "医療法人有隣会　貴田神経内科・呼吸器科・内科病院【通所リハビリテーション】長崎県島原市有明町大三東戊790番地2", "url": "https://www.kaigokensaku.mhlw.go.jp/42/index.php?action_kouhyou_detail_004_kani=true&JigyosyoCd=4211422045-00&ServiceCd=160&Type=search", "url2": "http://kida-hp.or.jp" }, "geometry": { "type": "Point", "coordinates": [ 130.332884095106465, 32.8539467 ] } },
{ "type": "Feature", "properties": { "内容": "通所リハ　貝田整形【通所リハビリテーション】長崎県諫早市東小路町12-10", "url": "https://www.kaigokensaku.mhlw.go.jp/42/index.php?action_kouhyou_detail_004_kani=true&JigyosyoCd=4210421725-00&ServiceCd=160&Type=search", "url2": null }, "geometry": { "type": "Point", "coordinates": [ 130.054598899999974, 32.8421435 ] } },
{ "type": "Feature", "properties": { "内容": "医療法人社団　淳生会　介護老人保健施設　恵風園【通所リハビリテーション】長崎県諫早市多良見町化屋９９５番地", "url": "https://www.kaigokensaku.mhlw.go.jp/42/index.php?action_kouhyou_detail_004_kani=true&JigyosyoCd=4251180057-00&ServiceCd=160&Type=search", "url2": "http://www.jyunseikai-jikei.jp/" }, "geometry": { "type": "Point", "coordinates": [ 129.983048199999985, 32.8282548 ] } },
{ "type": "Feature", "properties": { "内容": "介護老人保健施設　ケアホーム・クローバー【通所リハビリテーション】長崎県諫早市長田町２５４７", "url": "https://www.kaigokensaku.mhlw.go.jp/42/index.php?action_kouhyou_detail_004_kani=true&JigyosyoCd=4250480011-00&ServiceCd=160&Type=search", "url2": "http://danno-clover.com/" }, "geometry": { "type": "Point", "coordinates": [ 130.080573299999969, 32.8627315 ] } },
{ "type": "Feature", "properties": { "内容": "医療法人　祥仁会　介護老人保健施設　ろうけん西諫早【通所リハビリテーション】長崎県諫早市貝津町3015番地", "url": "https://www.kaigokensaku.mhlw.go.jp/42/index.php?action_kouhyou_detail_004_kani=true&JigyosyoCd=4250480003-00&ServiceCd=160&Type=search", "url2": "http://www.syoujinkai.com/rouken/" }, "geometry": { "type": "Point", "coordinates": [ 130.020316061540598, 32.837036495344982 ] } },
{ "type": "Feature", "properties": { "内容": "医療法人和光会　介護老人保健施設　恵仁荘【通所リハビリテーション】長崎県諫早市有喜町648", "url": "https://www.kaigokensaku.mhlw.go.jp/42/index.php?action_kouhyou_detail_004_kani=true&JigyosyoCd=4250480045-00&ServiceCd=160&Type=search", "url2": "http://uki-fukushimura.jp" }, "geometry": { "type": "Point", "coordinates": [ 130.077007099999946, 32.7910256 ] } },
{ "type": "Feature", "properties": { "内容": "医療法人　祐里会　姉川病院【通所リハビリテーション】長崎県諫早市小野島町2378-2", "url": "https://www.kaigokensaku.mhlw.go.jp/42/index.php?action_kouhyou_detail_004_kani=true&JigyosyoCd=4210421550-00&ServiceCd=160&Type=search", "url2": "https：//anegawa-hp.jp/" }, "geometry": { "type": "Point", "coordinates": [ 130.088408699999945, 32.8511804 ] } },
{ "type": "Feature", "properties": { "内容": "宮崎病院通所リハビリセンター【通所リハビリテーション】長崎県諫早市久山町1561-4", "url": "https://www.kaigokensaku.mhlw.go.jp/42/index.php?action_kouhyou_detail_004_kani=true&JigyosyoCd=4210411619-00&ServiceCd=160&Type=search", "url2": "http://www.sankoukai.net" }, "geometry": { "type": "Point", "coordinates": [ 130.002242071055662, 32.830051042859544 ] } },
{ "type": "Feature", "properties": { "内容": "医療法人　すばる診療所　通所リハビリセンター　なぎさ【通所リハビリテーション】長崎県諫早市多良見町元釜5番地15グリンビュー2階", "url": "https://www.kaigokensaku.mhlw.go.jp/42/index.php?action_kouhyou_detail_004_kani=true&JigyosyoCd=4210422921-00&ServiceCd=160&Type=search", "url2": "http://www.aiplease.com" }, "geometry": { "type": "Point", "coordinates": [ 129.932063822090214, 32.857713925363235 ] } },
{ "type": "Feature", "properties": { "内容": "医療法人　回春堂　犬尾内科医院【通所リハビリテーション】長崎県諫早市泉町14番２６号", "url": "https://www.kaigokensaku.mhlw.go.jp/42/index.php?action_kouhyou_detail_004_kani=true&JigyosyoCd=4270400700-00&ServiceCd=160&Type=search", "url2": null }, "geometry": { "type": "Point", "coordinates": [ 130.055678299999954, 32.8472848 ] } },
{ "type": "Feature", "properties": { "内容": "山崎医院【通所リハビリテーション】長崎県諌早市小長井町小川原浦656番地", "url": "https://www.kaigokensaku.mhlw.go.jp/42/index.php?action_kouhyou_detail_004_kani=true&JigyosyoCd=4271300313-00&ServiceCd=160&Type=search", "url2": "https://yamasaki-hospital.com" }, "geometry": { "type": "Point", "coordinates": [ 130.18810510000003, 32.9268638 ] } },
{ "type": "Feature", "properties": { "内容": "医療法人　奏楽会【通所リハビリテーション】長崎県諫早市高天町２６１２－１", "url": "https://www.kaigokensaku.mhlw.go.jp/42/index.php?action_kouhyou_detail_004_kani=true&JigyosyoCd=4270400254-00&ServiceCd=160&Type=search", "url2": null }, "geometry": { "type": "Point", "coordinates": [ 130.0957548, 32.8744723 ] } },
{ "type": "Feature", "properties": { "内容": "通所リハビリテーション　ふじわら【通所リハビリテーション】長崎県諫早市松里町３１ー３", "url": "https://www.kaigokensaku.mhlw.go.jp/42/index.php?action_kouhyou_detail_004_kani=true&JigyosyoCd=4270401450-00&ServiceCd=160&Type=search", "url2": null }, "geometry": { "type": "Point", "coordinates": [ 130.084055799999987, 32.798753 ] } },
{ "type": "Feature", "properties": { "内容": "たけさこ整形外科通所リハビリテーション【通所リハビリテーション】長崎県諫早市多良見町化屋1100-7番地", "url": "https://www.kaigokensaku.mhlw.go.jp/42/index.php?action_kouhyou_detail_004_kani=true&JigyosyoCd=4271100861-00&ServiceCd=160&Type=search", "url2": "htpps://takesako-ortho.com" }, "geometry": { "type": "Point", "coordinates": [ 129.986095200000022, 32.8282493 ] } },
{ "type": "Feature", "properties": { "内容": "諫早記念病院介護サービス「ひまわり」【通所リハビリテーション】長崎県諫早市天満町２番２１号", "url": "https://www.kaigokensaku.mhlw.go.jp/42/index.php?action_kouhyou_detail_004_kani=true&JigyosyoCd=4270400130-00&ServiceCd=160&Type=search", "url2": "http://kohzenkai.or.jp/" }, "geometry": { "type": "Point", "coordinates": [ 130.045381600000042, 32.8499316 ] } },
{ "type": "Feature", "properties": { "内容": "医療法人社団　尚整会　通所リハビリテーション「菅整形」【通所リハビリテーション】長崎県諫早市小野町332", "url": "https://www.kaigokensaku.mhlw.go.jp/42/index.php?action_kouhyou_detail_004_kani=true&JigyosyoCd=4270400171-00&ServiceCd=160&Type=search", "url2": "http://suga-seikei.jp/" }, "geometry": { "type": "Point", "coordinates": [ 130.0948717, 32.8359575 ] } },
{ "type": "Feature", "properties": { "内容": "唐比病院通所リハビリテーション事業所【通所リハビリテーション】長崎県諫早市森山町唐比西１１６５番地", "url": "https://www.kaigokensaku.mhlw.go.jp/42/index.php?action_kouhyou_detail_004_kani=true&JigyosyoCd=4271300248-00&ServiceCd=160&Type=search", "url2": "http://karako-hp.jp/" }, "geometry": { "type": "Point", "coordinates": [ 130.124787100000049, 32.7967672 ] } },
{ "type": "Feature", "properties": { "内容": "長崎呼吸器リハビリクリニック【通所リハビリテーション】長崎県諫早市貝津町1694番地", "url": "https://www.kaigokensaku.mhlw.go.jp/42/index.php?action_kouhyou_detail_004_kani=true&JigyosyoCd=4270400619-00&ServiceCd=160&Type=search", "url2": "https://www.nprc.jp/" }, "geometry": { "type": "Point", "coordinates": [ 130.012495199999989, 32.8354516 ] } },
{ "type": "Feature", "properties": { "内容": "医療法人　二輝会　佐藤病院【通所リハビリテーション】長崎県諌早市小長井町井崎９８", "url": "https://www.kaigokensaku.mhlw.go.jp/42/index.php?action_kouhyou_detail_004_kani=true&JigyosyoCd=4211320520-00&ServiceCd=160&Type=search", "url2": "www.sato-hosp.or.jp" }, "geometry": { "type": "Point", "coordinates": [ 130.197215599999936, 32.9314551 ] } },
{ "type": "Feature", "properties": { "内容": "医療法人　橋口整形外科医院【通所リハビリテーション】長崎県大村市竹松本町936", "url": "https://www.kaigokensaku.mhlw.go.jp/42/index.php?action_kouhyou_detail_004_kani=true&JigyosyoCd=4210521292-00&ServiceCd=160&Type=search", "url2": "http://hashiguchi-orthopaedic.jp" }, "geometry": { "type": "Point", "coordinates": [ 129.947157299999986, 32.938653 ] } },
{ "type": "Feature", "properties": { "内容": "通所リハビリテーション　ゆ～かり【通所リハビリテーション】長崎県大村市東三城33番地", "url": "https://www.kaigokensaku.mhlw.go.jp/42/index.php?action_kouhyou_detail_004_kani=true&JigyosyoCd=4210521466-00&ServiceCd=160&Type=search", "url2": "https://www.minamino-hosp.jp/" }, "geometry": { "type": "Point", "coordinates": [ 129.960496599999942, 32.9121308 ] } },
{ "type": "Feature", "properties": { "内容": "医療法人　樹愛会　通所リハビリテーション湧泉荘【通所リハビリテーション】長崎県大村市諏訪１丁目６７０番地1", "url": "https://www.kaigokensaku.mhlw.go.jp/42/index.php?action_kouhyou_detail_004_kani=true&JigyosyoCd=4270500855-00&ServiceCd=160&Type=search", "url2": "http://juai.or.jp/" }, "geometry": { "type": "Point", "coordinates": [ 129.962204400000019, 32.924302 ] } },
{ "type": "Feature", "properties": { "内容": "通所リハビリテーションセンター　あおぞら【通所リハビリテーション】長崎県大村市西三城17番地18", "url": "https://www.kaigokensaku.mhlw.go.jp/42/index.php?action_kouhyou_detail_004_kani=true&JigyosyoCd=4210521284-00&ServiceCd=160&Type=search", "url2": "http://www.yamashita-cl.jp" }, "geometry": { "type": "Point", "coordinates": [ 129.9606437, 32.915761 ] } },
{ "type": "Feature", "properties": { "内容": "医療法人　檜山会　介護老人保健施設うぐいすの丘　通所リハビリテーション【通所リハビリテーション】長崎県大村市東大村１丁目2526-13", "url": "https://www.kaigokensaku.mhlw.go.jp/42/index.php?action_kouhyou_detail_004_kani=true&JigyosyoCd=4250580018-00&ServiceCd=160&Type=search", "url2": "http://www.hizankai.or.jp/uguisu/" }, "geometry": { "type": "Point", "coordinates": [ 130.0080951, 32.9296356 ] } },
{ "type": "Feature", "properties": { "内容": "リハビリセンター大村【通所リハビリテーション】長崎県大村市田下町930-3", "url": "https://www.kaigokensaku.mhlw.go.jp/42/index.php?action_kouhyou_detail_004_kani=true&JigyosyoCd=4250580000-00&ServiceCd=160&Type=search", "url2": "http://www.midori-group.com" }, "geometry": { "type": "Point", "coordinates": [ 130.000550496295205, 32.952275359160957 ] } },
{ "type": "Feature", "properties": { "内容": "医療法人　愛真会　はら脳神経外科通所リハビリテーション【通所リハビリテーション】長崎県大村市富の原2丁目350-1", "url": "https://www.kaigokensaku.mhlw.go.jp/42/index.php?action_kouhyou_detail_004_kani=true&JigyosyoCd=4210522084-00&ServiceCd=160&Type=search", "url2": "http://www.omura-nougeka.com/" }, "geometry": { "type": "Point", "coordinates": [ 129.937256899999966, 32.9422537 ] } },
{ "type": "Feature", "properties": { "内容": "通所リハビリテーション秋櫻【通所リハビリテーション】長崎県大村市池田1丁目50-1", "url": "https://www.kaigokensaku.mhlw.go.jp/42/index.php?action_kouhyou_detail_004_kani=true&JigyosyoCd=4210522365-00&ServiceCd=160&Type=search", "url2": "http://www.midori-group.com/" }, "geometry": { "type": "Point", "coordinates": [ 129.962187283981137, 32.92987088988987 ] } },
{ "type": "Feature", "properties": { "内容": "平松整形外科デイケアセンター【通所リハビリテーション】長崎県大村市富の原2丁目218-4平松整形外科医院内", "url": "https://www.kaigokensaku.mhlw.go.jp/42/index.php?action_kouhyou_detail_004_kani=true&JigyosyoCd=4210521458-00&ServiceCd=160&Type=search", "url2": "http://hiramatsu-seikei.com" }, "geometry": { "type": "Point", "coordinates": [ 129.940430399999968, 32.9431219 ] } },
{ "type": "Feature", "properties": { "内容": "川田整形外科デイケア【通所リハビリテーション】長崎県大村市小路口町249-1川田整形外科", "url": "https://www.kaigokensaku.mhlw.go.jp/42/index.php?action_kouhyou_detail_004_kani=true&JigyosyoCd=4210522241-00&ServiceCd=160&Type=search", "url2": null }, "geometry": { "type": "Point", "coordinates": [ 129.9589733, 32.9376679 ] } },
{ "type": "Feature", "properties": { "内容": "医療法人　牧山医院　通所リハビリテーション　グリーンケア【通所リハビリテーション】長崎県大村市宮小路２丁目1408番地", "url": "https://www.kaigokensaku.mhlw.go.jp/42/index.php?action_kouhyou_detail_004_kani=true&JigyosyoCd=4270500426-00&ServiceCd=160&Type=search", "url2": null }, "geometry": { "type": "Point", "coordinates": [ 129.942321799999945, 32.9502325 ] } },
{ "type": "Feature", "properties": { "内容": "医療法人　明和会　通所リハビリテーション　つばさ【通所リハビリテーション】長崎県大村市東本町168番地", "url": "https://www.kaigokensaku.mhlw.go.jp/42/index.php?action_kouhyou_detail_004_kani=true&JigyosyoCd=4270500962-00&ServiceCd=160&Type=search", "url2": "http://www.izaki-med.net/" }, "geometry": { "type": "Point", "coordinates": [ 129.961054900000022, 32.9100838 ] } },
{ "type": "Feature", "properties": { "内容": "ともなが内科クリニック【通所リハビリテーション】杭出津２丁目５５５番地", "url": "https://www.kaigokensaku.mhlw.go.jp/42/index.php?action_kouhyou_detail_004_kani=true&JigyosyoCd=4210521151-00&ServiceCd=160&Type=search", "url2": "https://www.tomonaga-clinic.net/" }, "geometry": { "type": "Point", "coordinates": [ 129.9545601, 32.9146486 ] } },
{ "type": "Feature", "properties": { "内容": "介護老人保健施設ひらんど【通所リハビリテーション】長崎県平戸市浦の町７４５番地１", "url": "https://www.kaigokensaku.mhlw.go.jp/42/index.php?action_kouhyou_detail_004_kani=true&JigyosyoCd=4250780006-00&ServiceCd=160&Type=search", "url2": "http://kyk-kitagawahp.com/" }, "geometry": { "type": "Point", "coordinates": [ 129.55224069999997, 33.3721363 ] } },
{ "type": "Feature", "properties": { "内容": "国民健康保険平戸市民病院通所リハビリテーション【通所リハビリテーション】長崎県平戸市草積町1125-12", "url": "https://www.kaigokensaku.mhlw.go.jp/42/index.php?action_kouhyou_detail_004_kani=true&JigyosyoCd=4218123604-00&ServiceCd=160&Type=search", "url2": "「平戸市民病院」と入力し検索をお願いします。" }, "geometry": { "type": "Point", "coordinates": [ 129.465528899999981, 33.2854865 ] } },
{ "type": "Feature", "properties": { "内容": "医療法人医理会　かきぞえ通所リハビリテーションセンター【通所リハビリテーション】長崎県平戸市山中町696番地3", "url": "https://www.kaigokensaku.mhlw.go.jp/42/index.php?action_kouhyou_detail_004_kani=true&JigyosyoCd=4270700240-00&ServiceCd=160&Type=search", "url2": "http://www.kakizoehospital.or.jp/" }, "geometry": { "type": "Point", "coordinates": [ 129.507521, 33.3433888 ] } },
{ "type": "Feature", "properties": { "内容": "青洲会デイケアセンター【通所リハビリテーション】長崎県平戸市田平町山内免６１２－４青洲会病院", "url": "https://www.kaigokensaku.mhlw.go.jp/42/index.php?action_kouhyou_detail_004_kani=true&JigyosyoCd=4271500623-00&ServiceCd=160&Type=search", "url2": "http://www.seisyukai.jp" }, "geometry": { "type": "Point", "coordinates": [ 129.57558389999997, 33.3643818 ] } },
{ "type": "Feature", "properties": { "内容": "医療法人裕光会　介護療養型老人保健施設「のぞみ」【通所リハビリテーション】長崎県平戸市田平町山内免400番地", "url": "https://www.kaigokensaku.mhlw.go.jp/42/index.php?action_kouhyou_detail_004_kani=true&JigyosyoCd=4250780014-00&ServiceCd=160&Type=search", "url2": "http://tanigawa-hospital.jp/" }, "geometry": { "type": "Point", "coordinates": [ 129.582076650926155, 33.363438630461808 ] } },
{ "type": "Feature", "properties": { "内容": "医療法人社団昌徳会田中病院【通所リハビリテーション】長崎県松浦市御厨町里免８７１番地", "url": "https://www.kaigokensaku.mhlw.go.jp/42/index.php?action_kouhyou_detail_004_kani=true&JigyosyoCd=4210820561-00&ServiceCd=160&Type=search", "url2": "http://tanaka-hp.biz" }, "geometry": { "type": "Point", "coordinates": [ 129.668279, 33.3667887 ] } },
{ "type": "Feature", "properties": { "内容": "介護老人保健施設よかとこ【通所リハビリテーション】長崎県松浦市星鹿町牟田免４０１", "url": "https://www.kaigokensaku.mhlw.go.jp/42/index.php?action_kouhyou_detail_004_kani=true&JigyosyoCd=4250880004-00&ServiceCd=160&Type=search", "url2": "http://soushikai.webcrow.jp/yokatoko.html" }, "geometry": { "type": "Point", "coordinates": [ 129.66148469999996, 33.3768264 ] } },
{ "type": "Feature", "properties": { "内容": "医療法人長愛会菊地病院通所リハビリテーション【通所リハビリテーション】長崎県松浦市志佐町浦免１７６５－４", "url": "https://www.kaigokensaku.mhlw.go.jp/42/index.php?action_kouhyou_detail_004_kani=true&JigyosyoCd=4270800222-00&ServiceCd=160&Type=search", "url2": "http://www.kikuchi-hp.com" }, "geometry": { "type": "Point", "coordinates": [ 129.704750800000056, 33.3413899 ] } },
{ "type": "Feature", "properties": { "内容": "国民健康保険直営松浦市立福島診療所【通所リハビリテーション】長崎県松浦市福島町塩浜免２９４４番地２１", "url": "https://www.kaigokensaku.mhlw.go.jp/42/index.php?action_kouhyou_detail_004_kani=true&JigyosyoCd=4270800511-00&ServiceCd=160&Type=search", "url2": "https://www.city-matsuura.jp/top/kenko_fukushi/iryo_shinryo/iryokikan/2247.html" }, "geometry": { "type": "Point", "coordinates": [ 129.81996330000004, 33.3662271 ] } },
{ "type": "Feature", "properties": { "内容": "介護老人保健施設　つしま彩光園【通所リハビリテーション】長崎県対馬市厳原町東里338番地1", "url": "https://www.kaigokensaku.mhlw.go.jp/42/index.php?action_kouhyou_detail_004_kani=true&JigyosyoCd=4251880003-00&ServiceCd=160&Type=search", "url2": "https://asukafukushikai.com" }, "geometry": { "type": "Point", "coordinates": [ 129.2926817, 34.1983156 ] } },
{ "type": "Feature", "properties": { "内容": "長崎県上対馬病院【通所リハビリテーション】長崎県対馬市上対馬町比田勝630", "url": "https://www.kaigokensaku.mhlw.go.jp/42/index.php?action_kouhyou_detail_004_kani=true&JigyosyoCd=4218124495-00&ServiceCd=160&Type=search", "url2": "http://www.kamibyo.jp" }, "geometry": { "type": "Point", "coordinates": [ 129.458240899999964, 34.6561464 ] } },
{ "type": "Feature", "properties": { "内容": "長崎県対馬病院　通所リハビリテーション　まいっぽ【通所リハビリテーション】長崎県対馬市美津島町鶏知乙1168番地1", "url": "https://www.kaigokensaku.mhlw.go.jp/42/index.php?action_kouhyou_detail_004_kani=true&JigyosyoCd=4218124651-00&ServiceCd=160&Type=search", "url2": null }, "geometry": { "type": "Point", "coordinates": [ 129.319580282411351, 34.28522090946921 ] } },
{ "type": "Feature", "properties": { "内容": "介護老人保健施設結石山荘【通所リハビリテーション】長崎県対馬市上対馬町大浦字浜在所原66番地1", "url": "https://www.kaigokensaku.mhlw.go.jp/42/index.php?action_kouhyou_detail_004_kani=true&JigyosyoCd=4251980001-00&ServiceCd=160&Type=search", "url2": "http://www.sun.tcctv.ne.jp/keichoukai/" }, "geometry": { "type": "Point", "coordinates": [ 129.433950900000013, 34.6719865 ] } },
{ "type": "Feature", "properties": { "内容": "介護老人保健施設壱岐【通所リハビリテーション】長崎県壱岐市勝本町本宮南触２３６番地", "url": "https://www.kaigokensaku.mhlw.go.jp/42/index.php?action_kouhyou_detail_004_kani=true&JigyosyoCd=4251780013-00&ServiceCd=160&Type=search", "url2": null }, "geometry": { "type": "Point", "coordinates": [ 129.686536100000012, 33.8082883 ] } },
{ "type": "Feature", "properties": { "内容": "社会医療法人　玄州会　介護老人保健施設光風【通所リハビリテーション】長崎県壱岐市郷ノ浦町東触1006番地1", "url": "https://www.kaigokensaku.mhlw.go.jp/42/index.php?action_kouhyou_detail_004_kani=true&JigyosyoCd=4251780005-00&ServiceCd=160&Type=search", "url2": "www.gensyukai.or.jp" }, "geometry": { "type": "Point", "coordinates": [ 129.706594699999982, 33.7521834 ] } },
{ "type": "Feature", "properties": { "内容": "リハビリセンターふくえ【通所リハビリテーション】長崎県五島市吉田町2390", "url": "https://www.kaigokensaku.mhlw.go.jp/42/index.php?action_kouhyou_detail_004_kani=true&JigyosyoCd=4250680016-00&ServiceCd=160&Type=search", "url2": "http://www.rehabilicenter-fukue.jp" }, "geometry": { "type": "Point", "coordinates": [ 128.8176803, 32.6879492 ] } },
{ "type": "Feature", "properties": { "内容": "末広荘【通所リハビリテーション】長崎県五島市末広町7番地5", "url": "https://www.kaigokensaku.mhlw.go.jp/42/index.php?action_kouhyou_detail_004_kani=true&JigyosyoCd=4250680024-00&ServiceCd=160&Type=search", "url2": "http://www.suehirosou.com/" }, "geometry": { "type": "Point", "coordinates": [ 128.842862368122866, 32.695953979272844 ] } },
{ "type": "Feature", "properties": { "内容": "介護老人保健施設　五島福寿園【通所リハビリテーション】長崎県五島市吉久木町908-1", "url": "https://www.kaigokensaku.mhlw.go.jp/42/index.php?action_kouhyou_detail_004_kani=true&JigyosyoCd=4250680008-00&ServiceCd=160&Type=search", "url2": "http://gotokai.jp/" }, "geometry": { "type": "Point", "coordinates": [ 128.81875249999996, 32.6995599 ] } },
{ "type": "Feature", "properties": { "内容": "雪浦通所リハセンター「ごきげん倶楽部」【通所リハビリテーション】長崎県西海市大瀬戸町雪浦上郷254-17", "url": "https://www.kaigokensaku.mhlw.go.jp/42/index.php?action_kouhyou_detail_004_kani=true&JigyosyoCd=4211124179-00&ServiceCd=160&Type=search", "url2": "http://yukinoura-cl.com/" }, "geometry": { "type": "Point", "coordinates": [ 129.667458200000027, 32.9215187 ] } },
{ "type": "Feature", "properties": { "内容": "元亀の里【通所リハビリテーション】長崎県西海市西彼町鳥加郷2201番地2シニアヴィレッジせいひ", "url": "https://www.kaigokensaku.mhlw.go.jp/42/index.php?action_kouhyou_detail_004_kani=true&JigyosyoCd=4251180032-00&ServiceCd=160&Type=search", "url2": "https://www.seihikai.jp" }, "geometry": { "type": "Point", "coordinates": [ 129.748886639430793, 32.991013893848603 ] } },
{ "type": "Feature", "properties": { "内容": "さいかいクリニック通所リハビリテーション【通所リハビリテーション】大島町1876-59", "url": "https://www.kaigokensaku.mhlw.go.jp/42/index.php?action_kouhyou_detail_004_kani=true&JigyosyoCd=4211124070-00&ServiceCd=160&Type=search", "url2": "https://www.fukuikai.com" }, "geometry": { "type": "Point", "coordinates": [ 129.6195084, 33.0350427 ] } },
{ "type": "Feature", "properties": { "内容": "医療法人　田中クリニック通所リハビリテーション事業所【通所リハビリテーション】長崎県西海市西彼町喰場郷1324番地2", "url": "https://www.kaigokensaku.mhlw.go.jp/42/index.php?action_kouhyou_detail_004_kani=true&JigyosyoCd=4271102362-00&ServiceCd=160&Type=search", "url2": null }, "geometry": { "type": "Point", "coordinates": [ 129.7662153, 32.9883986 ] } },
{ "type": "Feature", "properties": { "内容": "長崎セント・ノーヴァ病院通所リハビリテーション事業所【通所リハビリテーション】長崎県西海市西彼町伊ノ浦郷１２７番地", "url": "https://www.kaigokensaku.mhlw.go.jp/42/index.php?action_kouhyou_detail_004_kani=true&JigyosyoCd=4271101067-00&ServiceCd=160&Type=search", "url2": "http://www.sentnova.jp" }, "geometry": { "type": "Point", "coordinates": [ 129.746362299999987, 33.0557969 ] } },
{ "type": "Feature", "properties": { "内容": "医療法人　栄寿会　真珠園療養所【通所リハビリテーション】長崎県西海市西彼町八木原郷3453番地1", "url": "https://www.kaigokensaku.mhlw.go.jp/42/index.php?action_kouhyou_detail_004_kani=true&JigyosyoCd=4271101075-00&ServiceCd=160&Type=search", "url2": "https://www.sinjyuen.com" }, "geometry": { "type": "Point", "coordinates": [ 129.732587, 33.014848 ] } },
{ "type": "Feature", "properties": { "内容": "医療法人　伴帥会　介護老人保健施設　ガイアの里【通所リハビリテーション】長崎県雲仙市愛野町乙2314-1", "url": "https://www.kaigokensaku.mhlw.go.jp/42/index.php?action_kouhyou_detail_004_kani=true&JigyosyoCd=4251480044-00&ServiceCd=160&Type=search", "url2": "https://ainomhp.jp" }, "geometry": { "type": "Point", "coordinates": [ 130.16032169999994, 32.8012697 ] } },
{ "type": "Feature", "properties": { "内容": "医療法人　龍仙会　木戸医院【通所リハビリテーション】長崎県雲仙市小浜町北本町27番地デイケアー木戸", "url": "https://www.kaigokensaku.mhlw.go.jp/42/index.php?action_kouhyou_detail_004_kani=true&JigyosyoCd=4211422920-00&ServiceCd=160&Type=search", "url2": null }, "geometry": { "type": "Point", "coordinates": [ 130.207703600000059, 32.7315647 ] } },
{ "type": "Feature", "properties": { "内容": "医療法人社団穂仁会よこた医院【通所リハビリテーション】長崎県雲仙市瑞穂町西郷辛1172", "url": "https://www.kaigokensaku.mhlw.go.jp/42/index.php?action_kouhyou_detail_004_kani=true&JigyosyoCd=4211422169-00&ServiceCd=160&Type=search", "url2": "http://www.yokota-iin.jp" }, "geometry": { "type": "Point", "coordinates": [ 130.2404252, 32.865157599999989 ] } },
{ "type": "Feature", "properties": { "内容": "永吉医院　通所リハビリテーション【通所リハビリテーション】長崎県雲仙市吾妻町本村名２３４番地", "url": "https://www.kaigokensaku.mhlw.go.jp/42/index.php?action_kouhyou_detail_004_kani=true&JigyosyoCd=4211421955-00&ServiceCd=160&Type=search", "url2": null }, "geometry": { "type": "Point", "coordinates": [ 130.201027100000033, 32.8501791 ] } },
{ "type": "Feature", "properties": { "内容": "真寿苑　通所リハビリテーション【通所リハビリテーション】長崎県雲仙市瑞穂町伊福甲６８１番地", "url": "https://www.kaigokensaku.mhlw.go.jp/42/index.php?action_kouhyou_detail_004_kani=true&JigyosyoCd=4251480002-00&ServiceCd=160&Type=search", "url2": "http://www.sinwakai.net" }, "geometry": { "type": "Point", "coordinates": [ 130.238436500000034, 32.861447 ] } },
{ "type": "Feature", "properties": { "内容": "デイケアセンターしんらい【通所リハビリテーション】長崎県雲仙市吾妻町牛口名３７８－２", "url": "https://www.kaigokensaku.mhlw.go.jp/42/index.php?action_kouhyou_detail_004_kani=true&JigyosyoCd=4272400427-00&ServiceCd=160&Type=search", "url2": null }, "geometry": { "type": "Point", "coordinates": [ 130.190299399999958, 32.8370304 ] } },
{ "type": "Feature", "properties": { "内容": "老健おばま　通所リハビリテーション事業所【通所リハビリテーション】長崎県雲仙市小浜町南本町59番地", "url": "https://www.kaigokensaku.mhlw.go.jp/42/index.php?action_kouhyou_detail_004_kani=true&JigyosyoCd=4272400500-00&ServiceCd=160&Type=search", "url2": "http://www.sonodakai.or.jp/" }, "geometry": { "type": "Point", "coordinates": [ 130.2046322, 32.7215234 ] } },
{ "type": "Feature", "properties": { "内容": "医療法人　栄和会　泉川病院【通所リハビリテーション】長崎県南島原市深江町丁２４０５", "url": "https://www.kaigokensaku.mhlw.go.jp/42/index.php?action_kouhyou_detail_004_kani=true&JigyosyoCd=4211421963-00&ServiceCd=160&Type=search", "url2": "http://www.izumikawa.or.jp/index.php/c_Main/showPg52" }, "geometry": { "type": "Point", "coordinates": [ 130.35086955952454, 32.718592696749639 ] } },
{ "type": "Feature", "properties": { "内容": "介護老人保健施設　フォンテ【通所リハビリテーション】長崎県南島原市深江町丁２４２１", "url": "https://www.kaigokensaku.mhlw.go.jp/42/index.php?action_kouhyou_detail_004_kani=true&JigyosyoCd=4251480010-00&ServiceCd=160&Type=search", "url2": "http://www.izumikawa.or.jp/index.php/c_Main/showPg52" }, "geometry": { "type": "Point", "coordinates": [ 130.350628599999936, 32.7181514 ] } },
{ "type": "Feature", "properties": { "内容": "通所リハビリテーション　夢織りの里【通所リハビリテーション】長崎県南島原市西有家町里坊41-1", "url": "https://www.kaigokensaku.mhlw.go.jp/42/index.php?action_kouhyou_detail_004_kani=true&JigyosyoCd=4251480028-00&ServiceCd=160&Type=search", "url2": "http://www.kunpukai.or.jp/" }, "geometry": { "type": "Point", "coordinates": [ 130.299072099999989, 32.6597741 ] } },
{ "type": "Feature", "properties": { "内容": "医療法人　弘池会　介護老人保健施設　ろうけんかづさ【通所リハビリテーション】長崎県南島原市加津佐町戊4450番地", "url": "https://www.kaigokensaku.mhlw.go.jp/42/index.php?action_kouhyou_detail_004_kani=true&JigyosyoCd=4251480036-00&ServiceCd=160&Type=search", "url2": "http://www.kouchikai.com/index.html" }, "geometry": { "type": "Point", "coordinates": [ 130.194034399999964, 32.6283445 ] } },
{ "type": "Feature", "properties": { "内容": "医療法人　弘池会　口之津病院　通所リハビリテーション【通所リハビリテーション】長崎県南島原市口之津町丁5615", "url": "https://www.kaigokensaku.mhlw.go.jp/42/index.php?action_kouhyou_detail_004_kani=true&JigyosyoCd=4211422227-00&ServiceCd=160&Type=search", "url2": "http://www.kouchikai.com" }, "geometry": { "type": "Point", "coordinates": [ 130.194229299999961, 32.6107433 ] } },
{ "type": "Feature", "properties": { "内容": "哲翁病院　通所リハビリテーション【通所リハビリテーション】長崎県南島原市口之津町甲1181番地", "url": "https://www.kaigokensaku.mhlw.go.jp/42/index.php?action_kouhyou_detail_004_kani=true&JigyosyoCd=4211420080-00&ServiceCd=160&Type=search", "url2": "https://www.tetsuou-hp.jp/" }, "geometry": { "type": "Point", "coordinates": [ 130.18834659999996, 32.6051215 ] } },
{ "type": "Feature", "properties": { "内容": "小嶺整形外科クリニック【通所リハビリテーション】長崎県南島原市有家町中須川196-1", "url": "https://www.kaigokensaku.mhlw.go.jp/42/index.php?action_kouhyou_detail_004_kani=true&JigyosyoCd=4211422961-00&ServiceCd=160&Type=search", "url2": "www.komine-seikei.com" }, "geometry": { "type": "Point", "coordinates": [ 130.304520200000042, 32.6631151 ] } },
{ "type": "Feature", "properties": { "内容": "デイケア　菜の花【通所リハビリテーション】長崎県南島原市南有馬町乙1565-1", "url": "https://www.kaigokensaku.mhlw.go.jp/42/index.php?action_kouhyou_detail_004_kani=true&JigyosyoCd=4271401582-00&ServiceCd=160&Type=search", "url2": "http://nanogroup.or.jp/" }, "geometry": { "type": "Point", "coordinates": [ 130.248718553407684, 32.632573782085835 ] } },
{ "type": "Feature", "properties": { "内容": "坂上整形外科デイケアさかうえ【通所リハビリテーション】長崎県南島原市有家町山川３７８番地１", "url": "https://www.kaigokensaku.mhlw.go.jp/42/index.php?action_kouhyou_detail_004_kani=true&JigyosyoCd=4271402291-00&ServiceCd=160&Type=search", "url2": "https://sakaue-seikeigeka.com/" }, "geometry": { "type": "Point", "coordinates": [ 130.313437300000032, 32.6637604 ] } },
{ "type": "Feature", "properties": { "内容": "医療法人　明島整形外科医院【通所リハビリテーション】長崎県南島原市布津町乙1859-2", "url": "https://www.kaigokensaku.mhlw.go.jp/42/index.php?action_kouhyou_detail_004_kani=true&JigyosyoCd=4211422128-00&ServiceCd=160&Type=search", "url2": "http://www5.ocn.ne.jp/~akeshima/" }, "geometry": { "type": "Point", "coordinates": [ 130.353381799999966, 32.6945227 ] } },
{ "type": "Feature", "properties": { "内容": "医療法人徳洲会　長崎北徳洲会介護センター【通所リハビリテーション】長崎県西彼杵郡長与町北陽台1丁目5番地１", "url": "https://www.kaigokensaku.mhlw.go.jp/42/index.php?action_kouhyou_detail_004_kani=true&JigyosyoCd=4211124310-00&ServiceCd=160&Type=search", "url2": "https://www.nk-toku.jp/" }, "geometry": { "type": "Point", "coordinates": [ 129.87229640000001, 32.8241142 ] } },
{ "type": "Feature", "properties": { "内容": "医療法人平成会女の都病院　通所リハビリテーション【通所リハビリテーション】長崎県西彼杵郡長与町高田郷849番地18", "url": "https://www.kaigokensaku.mhlw.go.jp/42/index.php?action_kouhyou_detail_004_kani=true&JigyosyoCd=4271101422-00&ServiceCd=160&Type=search", "url2": "http://menotobyoin.jp/" }, "geometry": { "type": "Point", "coordinates": [ 129.8794289, 32.8077184 ] } },
{ "type": "Feature", "properties": { "内容": "医療法人　常葉会　長与病院　通所リハビリテーション【通所リハビリテーション】長崎県西彼杵郡長与町吉無田郷647", "url": "https://www.kaigokensaku.mhlw.go.jp/42/index.php?action_kouhyou_detail_004_kani=true&JigyosyoCd=4271102594-00&ServiceCd=160&Type=search", "url2": "https://www.tokohakai.com/" }, "geometry": { "type": "Point", "coordinates": [ 129.871516142327891, 32.810716074437522 ] } },
{ "type": "Feature", "properties": { "内容": "川崎医院通所リハビリテーション【通所リハビリテーション】長崎県西彼杵郡長与町岡郷37番地１１二階", "url": "https://www.kaigokensaku.mhlw.go.jp/42/index.php?action_kouhyou_detail_004_kani=true&JigyosyoCd=4271101745-00&ServiceCd=160&Type=search", "url2": "https://www.kawasakiiin.com" }, "geometry": { "type": "Point", "coordinates": [ 129.872959, 32.8358935 ] } },
{ "type": "Feature", "properties": { "内容": "医療法人新緑会長崎けやき医院デイケアセンター【通所リハビリテーション】長崎県西彼杵郡長与町高田郷３６０７－１", "url": "https://www.kaigokensaku.mhlw.go.jp/42/index.php?action_kouhyou_detail_004_kani=true&JigyosyoCd=4271100606-00&ServiceCd=160&Type=search", "url2": "http://www.keyaki3000.com" }, "geometry": { "type": "Point", "coordinates": [ 129.865815500000053, 32.8184087 ] } },
{ "type": "Feature", "properties": { "内容": "介護予防通所リハビリテーションながよ【通所リハビリテーション】長崎県西彼杵郡長与町吉無田郷６４７", "url": "https://www.kaigokensaku.mhlw.go.jp/42/index.php?action_kouhyou_detail_004_kani=true&JigyosyoCd=4271102602-00&ServiceCd=160&Type=search", "url2": "http://tokohakai.com/senior" }, "geometry": { "type": "Point", "coordinates": [ 129.871537600000011, 32.8113067 ] } },
{ "type": "Feature", "properties": { "内容": "介護老人保健施設長与リハビリセンター【通所リハビリテーション】長崎県西彼杵郡長与町高田郷623-5", "url": "https://www.kaigokensaku.mhlw.go.jp/42/index.php?action_kouhyou_detail_004_kani=true&JigyosyoCd=4251180008-00&ServiceCd=160&Type=search", "url2": "http//kakuseikai.jp" }, "geometry": { "type": "Point", "coordinates": [ 129.867791, 32.800291 ] } },
{ "type": "Feature", "properties": { "内容": "中山整形外科医院【通所リハビリテーション】長崎県西彼杵郡時津町左底郷78-18", "url": "https://www.kaigokensaku.mhlw.go.jp/42/index.php?action_kouhyou_detail_004_kani=true&JigyosyoCd=4211122603-00&ServiceCd=160&Type=search", "url2": null }, "geometry": { "type": "Point", "coordinates": [ 129.8409805, 32.8330265 ] } },
{ "type": "Feature", "properties": { "内容": "トラバーユ長崎【通所リハビリテーション】長崎県西彼杵郡時津町浜田郷572", "url": "https://www.kaigokensaku.mhlw.go.jp/42/index.php?action_kouhyou_detail_004_kani=true&JigyosyoCd=4251180024-00&ServiceCd=160&Type=search", "url2": "http://www.keiseikai.biz" }, "geometry": { "type": "Point", "coordinates": [ 129.8594127, 32.8334822 ] } },
{ "type": "Feature", "properties": { "内容": "社会医療法人　春回会　長崎北病院【通所リハビリテーション】長崎県西彼杵郡時津町元村郷800番地", "url": "https://www.kaigokensaku.mhlw.go.jp/42/index.php?action_kouhyou_detail_004_kani=true&JigyosyoCd=4211123965-00&ServiceCd=160&Type=search", "url2": "http://www.shunkaikai.jp/kita/" }, "geometry": { "type": "Point", "coordinates": [ 129.848705399999972, 32.8204582 ] } },
{ "type": "Feature", "properties": { "内容": "安永脳神経外科通所リハビリ【通所リハビリテーション】長崎県西彼杵郡時津町浦郷264番地3", "url": "https://www.kaigokensaku.mhlw.go.jp/42/index.php?action_kouhyou_detail_004_kani=true&JigyosyoCd=4271102610-00&ServiceCd=160&Type=search", "url2": "http://www.yasunaga-neurosurgery.jp/" }, "geometry": { "type": "Point", "coordinates": [ 129.846908, 32.8286936 ] } },
{ "type": "Feature", "properties": { "内容": "近藤医院デイケアセンター【通所リハビリテーション】長崎県西彼杵郡時津町日並郷1325番地８", "url": "https://www.kaigokensaku.mhlw.go.jp/42/index.php?action_kouhyou_detail_004_kani=true&JigyosyoCd=4271101943-00&ServiceCd=160&Type=search", "url2": "kondo-clinic.org/" }, "geometry": { "type": "Point", "coordinates": [ 129.8267062, 32.8485141 ] } },
{ "type": "Feature", "properties": { "内容": "鍬先医院デイ・ケア【通所リハビリテーション】長崎県西彼杵郡時津町浜田郷201-3", "url": "https://www.kaigokensaku.mhlw.go.jp/42/index.php?action_kouhyou_detail_004_kani=true&JigyosyoCd=4271100796-00&ServiceCd=160&Type=search", "url2": "http://www.kuwasaki-clinic.com/" }, "geometry": { "type": "Point", "coordinates": [ 129.853931155294731, 32.832381358290881 ] } },
{ "type": "Feature", "properties": { "内容": "なづみリハビリテーションクリニック　デイケア室【通所リハビリテーション】長崎県西彼杵郡時津町左底郷38-1", "url": "https://www.kaigokensaku.mhlw.go.jp/42/index.php?action_kouhyou_detail_004_kani=true&JigyosyoCd=4271102453-00&ServiceCd=160&Type=search", "url2": "http://www.nosc.or.jp/nadumi/" }, "geometry": { "type": "Point", "coordinates": [ 129.839922200000046, 32.8333154 ] } },
{ "type": "Feature", "properties": { "内容": "デイケアセンター「コスモス」【通所リハビリテーション】長崎県西彼杵郡時津町浜田郷３８－２", "url": "https://www.kaigokensaku.mhlw.go.jp/42/index.php?action_kouhyou_detail_004_kani=true&JigyosyoCd=4271101612-00&ServiceCd=160&Type=search", "url2": "yurinohp.jp" }, "geometry": { "type": "Point", "coordinates": [ 129.850941, 32.8311378 ] } },
{ "type": "Feature", "properties": { "内容": "通所リハビリテーション事業所　さざなみ【通所リハビリテーション】長崎県東彼杵郡東彼杵町彼杵宿郷1085", "url": "https://www.kaigokensaku.mhlw.go.jp/42/index.php?action_kouhyou_detail_004_kani=true&JigyosyoCd=4251280006-00&ServiceCd=160&Type=search", "url2": "http://www.sazanami.or.jp/" }, "geometry": { "type": "Point", "coordinates": [ 129.927598699999976, 33.0299407 ] } },
{ "type": "Feature", "properties": { "内容": "波佐見病院デイケアセンター【通所リハビリテーション】長崎県東彼杵郡波佐見町稗木場郷792-1", "url": "https://www.kaigokensaku.mhlw.go.jp/42/index.php?action_kouhyou_detail_004_kani=true&JigyosyoCd=4271200307-00&ServiceCd=160&Type=search", "url2": "http://hasamihp.sakura.ne.jp" }, "geometry": { "type": "Point", "coordinates": [ 129.871423099999987, 33.1268852 ] } },
{ "type": "Feature", "properties": { "内容": "さざ・煌きの里通所リハビリテーション事業所【通所リハビリテーション】長崎県北松浦郡佐々町八口免８０５－２", "url": "https://www.kaigokensaku.mhlw.go.jp/42/index.php?action_kouhyou_detail_004_kani=true&JigyosyoCd=4251580017-00&ServiceCd=160&Type=search", "url2": "http://www.kiramekinosato.com/" }, "geometry": { "type": "Point", "coordinates": [ 129.683313399999946, 33.2556827 ] } },
{ "type": "Feature", "properties": { "内容": "通所リハビリテーション　つくしの里【通所リハビリテーション】長崎県南松浦郡新上五島町鯛ノ浦郷437-1", "url": "https://www.kaigokensaku.mhlw.go.jp/42/index.php?action_kouhyou_detail_004_kani=true&JigyosyoCd=4251680015-00&ServiceCd=160&Type=search", "url2": "http://syuhoukai.jp/" }, "geometry": { "type": "Point", "coordinates": [ 129.102003500000023, 32.9636835 ] } },
{ "type": "Feature", "properties": { "内容": "グリーンヒルかみごとう通所リハビリテーション事業所【通所リハビリテーション】長崎県南松浦郡新上五島町浦桑郷643番地1", "url": "https://www.kaigokensaku.mhlw.go.jp/42/index.php?action_kouhyou_detail_004_kani=true&JigyosyoCd=4271601363-00&ServiceCd=160&Type=search", "url2": "https://www.greenhill-kamigoto.com/" }, "geometry": { "type": "Point", "coordinates": [ 129.083537200000023, 32.9899778 ] } }
]
}
