{
"type": "FeatureCollection",
"name": "geo_42_特定福祉用具販売",
"crs": { "type": "name", "properties": { "name": "urn:ogc:def:crs:OGC:1.3:CRS84" } },
"features": [
{ "type": "Feature", "properties": { "内容": "ニチイケアセンター浦上【特定福祉用具販売】長崎県長崎市花丘町22-12小柳ビル102号", "url": "https://www.kaigokensaku.mhlw.go.jp/42/index.php?action_kouhyou_detail_004_kani=true&JigyosyoCd=4270109467-00&ServiceCd=410&Type=search", "url2": "https://www.nichiigakkan.co.jp/" }, "geometry": { "type": "Point", "coordinates": [ 129.866634409823604, 32.791383678512034 ] } },
{ "type": "Feature", "properties": { "内容": "ウェルズライフサービス【特定福祉用具販売】長崎県長崎市大手1丁目28番15号", "url": "https://www.kaigokensaku.mhlw.go.jp/42/index.php?action_kouhyou_detail_004_kani=true&JigyosyoCd=4270110135-00&ServiceCd=410&Type=search", "url2": "https://wellslife.jp/" }, "geometry": { "type": "Point", "coordinates": [ 129.8752705, 32.7892907 ] } },
{ "type": "Feature", "properties": { "内容": "ケアウェーブ【特定福祉用具販売】樺島町9番3号1階", "url": "https://www.kaigokensaku.mhlw.go.jp/42/index.php?action_kouhyou_detail_004_kani=true&JigyosyoCd=4270135751-00&ServiceCd=410&Type=search", "url2": "https://data-wave.co.jp" }, "geometry": { "type": "Point", "coordinates": [ 129.8741645, 32.7472264 ] } },
{ "type": "Feature", "properties": { "内容": "株式会社アンド　あるくサポート【特定福祉用具販売】長崎県長崎市本原町７番３号", "url": "https://www.kaigokensaku.mhlw.go.jp/42/index.php?action_kouhyou_detail_004_kani=true&JigyosyoCd=4270136106-00&ServiceCd=410&Type=search", "url2": null }, "geometry": { "type": "Point", "coordinates": [ 129.869160099999988, 32.7800307 ] } },
{ "type": "Feature", "properties": { "内容": "株式会社　長崎病協【特定福祉用具販売】長崎県長崎市平野町３番２０号", "url": "https://www.kaigokensaku.mhlw.go.jp/42/index.php?action_kouhyou_detail_004_kani=true&JigyosyoCd=4270100250-00&ServiceCd=410&Type=search", "url2": "https://www.byoukyou.com/" }, "geometry": { "type": "Point", "coordinates": [ 129.863295599999987, 32.7720637 ] } },
{ "type": "Feature", "properties": { "内容": "株式会社　カイダ・アイフルケア【特定福祉用具販売】長崎県長崎市大井手町32", "url": "https://www.kaigokensaku.mhlw.go.jp/42/index.php?action_kouhyou_detail_004_kani=true&JigyosyoCd=4270101084-00&ServiceCd=410&Type=search", "url2": "http://www.kaida-aifullcare.co.jp/" }, "geometry": { "type": "Point", "coordinates": [ 129.882736099999988, 32.7506552 ] } },
{ "type": "Feature", "properties": { "内容": "株式会社長崎かなえ【特定福祉用具販売】長崎県長崎市坂本1丁目6-10", "url": "https://www.kaigokensaku.mhlw.go.jp/42/index.php?action_kouhyou_detail_004_kani=true&JigyosyoCd=4270101191-00&ServiceCd=410&Type=search", "url2": "http://www.n-kanae.jp/" }, "geometry": { "type": "Point", "coordinates": [ 129.8669327, 32.768436 ] } },
{ "type": "Feature", "properties": { "内容": "株式会社ニッショウ【特定福祉用具販売】長崎県長崎市宝町7番3号", "url": "https://www.kaigokensaku.mhlw.go.jp/42/index.php?action_kouhyou_detail_004_kani=true&JigyosyoCd=4270101571-00&ServiceCd=410&Type=search", "url2": "http://nissho-inc.co.jp" }, "geometry": { "type": "Point", "coordinates": [ 129.866853799999944, 32.7595039 ] } },
{ "type": "Feature", "properties": { "内容": "株式会社　ヒューマン・ネットワーク【特定福祉用具販売】長崎県長崎市新大工町５番２０号", "url": "https://www.kaigokensaku.mhlw.go.jp/42/index.php?action_kouhyou_detail_004_kani=true&JigyosyoCd=4270101878-00&ServiceCd=410&Type=search", "url2": "https://www.hyuman-nw.com" }, "geometry": { "type": "Point", "coordinates": [ 129.887154783536545, 32.752878738485954 ] } },
{ "type": "Feature", "properties": { "内容": "福祉用具貸与・販売事業所サンハイツ【特定福祉用具販売】長崎県長崎市油木町65番地14", "url": "https://www.kaigokensaku.mhlw.go.jp/42/index.php?action_kouhyou_detail_004_kani=true&JigyosyoCd=4270106877-00&ServiceCd=410&Type=search", "url2": "http://www.sanhaitsu.jp/" }, "geometry": { "type": "Point", "coordinates": [ 129.844110300000011, 32.7803067 ] } },
{ "type": "Feature", "properties": { "内容": "介護のすけさん【特定福祉用具販売】長崎県長崎市長崎市花園町1番18号", "url": "https://www.kaigokensaku.mhlw.go.jp/42/index.php?action_kouhyou_detail_004_kani=true&JigyosyoCd=4270107776-00&ServiceCd=410&Type=search", "url2": null }, "geometry": { "type": "Point", "coordinates": [ 129.858608499999946, 32.7961218 ] } },
{ "type": "Feature", "properties": { "内容": "ライフ・ケア株式会社【特定福祉用具販売】長崎県長崎市葉山１丁目１４番２３号", "url": "https://www.kaigokensaku.mhlw.go.jp/42/index.php?action_kouhyou_detail_004_kani=true&JigyosyoCd=4270108519-00&ServiceCd=410&Type=search", "url2": null }, "geometry": { "type": "Point", "coordinates": [ 129.849244799999951, 32.8027543 ] } },
{ "type": "Feature", "properties": { "内容": "エイブルサポート【特定福祉用具販売】長崎県長崎市中里町１５６８番地７", "url": "https://www.kaigokensaku.mhlw.go.jp/42/index.php?action_kouhyou_detail_004_kani=true&JigyosyoCd=4270108824-00&ServiceCd=410&Type=search", "url2": null }, "geometry": { "type": "Point", "coordinates": [ 129.965491088406111, 32.808725111992665 ] } },
{ "type": "Feature", "properties": { "内容": "テイクオフ株式会社【特定福祉用具販売】長崎県長崎市東町2512-12F", "url": "https://www.kaigokensaku.mhlw.go.jp/42/index.php?action_kouhyou_detail_004_kani=true&JigyosyoCd=4270108840-00&ServiceCd=410&Type=search", "url2": "http://www.takeoff-info.com" }, "geometry": { "type": "Point", "coordinates": [ 129.940991899999972, 32.7745177 ] } },
{ "type": "Feature", "properties": { "内容": "パナソニックエイジフリーショップ長崎【特定福祉用具販売】長崎県長崎市葉山2丁目21-1", "url": "https://www.kaigokensaku.mhlw.go.jp/42/index.php?action_kouhyou_detail_004_kani=true&JigyosyoCd=4270109376-00&ServiceCd=410&Type=search", "url2": "http://daiyuu.biz" }, "geometry": { "type": "Point", "coordinates": [ 129.845581, 32.8051041 ] } },
{ "type": "Feature", "properties": { "内容": "株式会社　つがみ【特定福祉用具販売】長崎県長崎市女の都2丁目44番3号2E", "url": "https://www.kaigokensaku.mhlw.go.jp/42/index.php?action_kouhyou_detail_004_kani=true&JigyosyoCd=4270110069-00&ServiceCd=410&Type=search", "url2": null }, "geometry": { "type": "Point", "coordinates": [ 129.880272584028887, 32.804228838754554 ] } },
{ "type": "Feature", "properties": { "内容": "ベストケア長崎【特定福祉用具販売】長崎県長崎市田中町212-4", "url": "https://www.kaigokensaku.mhlw.go.jp/42/index.php?action_kouhyou_detail_004_kani=true&JigyosyoCd=4270110499-00&ServiceCd=410&Type=search", "url2": "evahlife.jp" }, "geometry": { "type": "Point", "coordinates": [ 129.948308499999939, 32.7617829 ] } },
{ "type": "Feature", "properties": { "内容": "ケイ・エム・サポート株式会社【特定福祉用具販売】長崎県長崎市銀屋町3番17号銀屋ビル4階", "url": "https://www.kaigokensaku.mhlw.go.jp/42/index.php?action_kouhyou_detail_004_kani=true&JigyosyoCd=4270110960-00&ServiceCd=410&Type=search", "url2": null }, "geometry": { "type": "Point", "coordinates": [ 129.880753, 32.7461805 ] } },
{ "type": "Feature", "properties": { "内容": "ファインライフ桃凜【特定福祉用具販売】長崎県長崎市鳴見町301-3-1", "url": "https://www.kaigokensaku.mhlw.go.jp/42/index.php?action_kouhyou_detail_004_kani=true&JigyosyoCd=4270111166-00&ServiceCd=410&Type=search", "url2": "https://aquaticdreams.jp/" }, "geometry": { "type": "Point", "coordinates": [ 129.810164956371096, 32.813942917514666 ] } },
{ "type": "Feature", "properties": { "内容": "太陽シルバーサービス株式会社　長崎営業所【特定福祉用具販売】長崎県長崎市界2丁目2番4号", "url": "https://www.kaigokensaku.mhlw.go.jp/42/index.php?action_kouhyou_detail_004_kani=true&JigyosyoCd=4270111638-00&ServiceCd=410&Type=search", "url2": "taiyoss.co.jp" }, "geometry": { "type": "Point", "coordinates": [ 129.9442282, 32.7564831 ] } },
{ "type": "Feature", "properties": { "内容": "長崎ダイヤモンドスタッフ株式会社　福祉用具・介護用品センター【特定福祉用具販売】長崎県長崎市淵町2番25号", "url": "https://www.kaigokensaku.mhlw.go.jp/42/index.php?action_kouhyou_detail_004_kani=true&JigyosyoCd=4270111661-00&ServiceCd=410&Type=search", "url2": "https://www.diamondstaff.co.jp/" }, "geometry": { "type": "Point", "coordinates": [ 129.859981299999987, 32.7600677 ] } },
{ "type": "Feature", "properties": { "内容": "株式会社ENTOWA　バイタル福祉用具【特定福祉用具販売】長崎県長崎市葉山１丁目35-22", "url": "https://www.kaigokensaku.mhlw.go.jp/42/index.php?action_kouhyou_detail_004_kani=true&JigyosyoCd=4270135678-00&ServiceCd=410&Type=search", "url2": "https://entowa.co.jp/" }, "geometry": { "type": "Point", "coordinates": [ 129.847789489971319, 32.806209634956126 ] } },
{ "type": "Feature", "properties": { "内容": "合同会社いちか【特定福祉用具販売】長崎県長崎市大手２丁目13‐38", "url": "https://www.kaigokensaku.mhlw.go.jp/42/index.php?action_kouhyou_detail_004_kani=true&JigyosyoCd=4270135710-00&ServiceCd=410&Type=search", "url2": null }, "geometry": { "type": "Point", "coordinates": [ 129.8787374, 32.789045 ] } },
{ "type": "Feature", "properties": { "内容": "株式会社ファミリア【特定福祉用具販売】長崎県長崎市大浦町4番19号", "url": "https://www.kaigokensaku.mhlw.go.jp/42/index.php?action_kouhyou_detail_004_kani=true&JigyosyoCd=4270135728-00&ServiceCd=410&Type=search", "url2": null }, "geometry": { "type": "Point", "coordinates": [ 129.8714616, 32.7372357 ] } },
{ "type": "Feature", "properties": { "内容": "株式会社フロンティア長崎営業所【特定福祉用具販売】長崎県長崎市田中町588番地1", "url": "https://www.kaigokensaku.mhlw.go.jp/42/index.php?action_kouhyou_detail_004_kani=true&JigyosyoCd=4270136072-00&ServiceCd=410&Type=search", "url2": "https://www.frontier-ph.com/" }, "geometry": { "type": "Point", "coordinates": [ 129.942249800000013, 32.7692481 ] } },
{ "type": "Feature", "properties": { "内容": "ケアハートガーデン株式会社【特定福祉用具販売】長崎県長崎市松が枝町5-12", "url": "https://www.kaigokensaku.mhlw.go.jp/42/index.php?action_kouhyou_detail_004_kani=true&JigyosyoCd=4270136452-00&ServiceCd=410&Type=search", "url2": "https://www.careheart-garden.com/services/rental.html" }, "geometry": { "type": "Point", "coordinates": [ 129.8686978, 32.7359018 ] } },
{ "type": "Feature", "properties": { "内容": "株式会社天晴ケア【特定福祉用具販売】長崎県佐世保市小佐々町黒石501", "url": "https://www.kaigokensaku.mhlw.go.jp/42/index.php?action_kouhyou_detail_004_kani=true&JigyosyoCd=4270203823-00&ServiceCd=410&Type=search", "url2": null }, "geometry": { "type": "Point", "coordinates": [ 129.6273812, 33.2191394 ] } },
{ "type": "Feature", "properties": { "内容": "ダスキンヘルスレント佐世保ステーション【特定福祉用具販売】長崎県佐世保市大和町８６５－１", "url": "https://www.kaigokensaku.mhlw.go.jp/42/index.php?action_kouhyou_detail_004_kani=true&JigyosyoCd=4270204359-00&ServiceCd=410&Type=search", "url2": "http://healthrent.duskin.jp/station/nagasaki.html" }, "geometry": { "type": "Point", "coordinates": [ 129.747831484655762, 33.16032060724968 ] } },
{ "type": "Feature", "properties": { "内容": "あいずケアレントパートナーズ佐世保【特定福祉用具販売】長崎県佐世保市山県町6-3プロスペール1F", "url": "https://www.kaigokensaku.mhlw.go.jp/42/index.php?action_kouhyou_detail_004_kani=true&JigyosyoCd=4270205679-00&ServiceCd=410&Type=search", "url2": null }, "geometry": { "type": "Point", "coordinates": [ 129.7209978, 33.1670169 ] } },
{ "type": "Feature", "properties": { "内容": "有限会社　トーコー【特定福祉用具販売】長崎県佐世保市高梨町１８番２９号", "url": "https://www.kaigokensaku.mhlw.go.jp/42/index.php?action_kouhyou_detail_004_kani=true&JigyosyoCd=4270200456-00&ServiceCd=410&Type=search", "url2": null }, "geometry": { "type": "Point", "coordinates": [ 129.730786500000022, 33.178499 ] } },
{ "type": "Feature", "properties": { "内容": "株式会社　西九州パリガン【特定福祉用具販売】長崎県佐世保市折橋町５４－２６", "url": "https://www.kaigokensaku.mhlw.go.jp/42/index.php?action_kouhyou_detail_004_kani=true&JigyosyoCd=4270200845-00&ServiceCd=410&Type=search", "url2": null }, "geometry": { "type": "Point", "coordinates": [ 129.722409299999981, 33.1841844 ] } },
{ "type": "Feature", "properties": { "内容": "有限会社アイフルケア【特定福祉用具販売】長崎県佐世保市稲荷町３１－８", "url": "https://www.kaigokensaku.mhlw.go.jp/42/index.php?action_kouhyou_detail_004_kani=true&JigyosyoCd=4270200852-00&ServiceCd=410&Type=search", "url2": "http://www.aifulcare.net/" }, "geometry": { "type": "Point", "coordinates": [ 129.736700199999973, 33.1614203 ] } },
{ "type": "Feature", "properties": { "内容": "有限会社ウッドブレス【特定福祉用具販売】佐世保市広田3丁目26番3号", "url": "https://www.kaigokensaku.mhlw.go.jp/42/index.php?action_kouhyou_detail_004_kani=true&JigyosyoCd=4270202213-00&ServiceCd=410&Type=search", "url2": "http://www.woodbreath.jp" }, "geometry": { "type": "Point", "coordinates": [ 129.804486587317172, 33.121832433063631 ] } },
{ "type": "Feature", "properties": { "内容": "指定福祉用具貸与事業所　暖介護【特定福祉用具販売】長崎県佐世保市折橋町2-8", "url": "https://www.kaigokensaku.mhlw.go.jp/42/index.php?action_kouhyou_detail_004_kani=true&JigyosyoCd=4270203112-00&ServiceCd=410&Type=search", "url2": null }, "geometry": { "type": "Point", "coordinates": [ 129.72051220000003, 33.186187 ] } },
{ "type": "Feature", "properties": { "内容": "株式会社　新和メディカル　佐世保営業所【特定福祉用具販売】長崎県佐世保市勝海町278番2", "url": "https://www.kaigokensaku.mhlw.go.jp/42/index.php?action_kouhyou_detail_004_kani=true&JigyosyoCd=4270203922-00&ServiceCd=410&Type=search", "url2": "http://shinwamedical.com/index.html" }, "geometry": { "type": "Point", "coordinates": [ 129.78711629999998, 33.1420262 ] } },
{ "type": "Feature", "properties": { "内容": "ベストケア佐世保【特定福祉用具販売】卸本町15番2号", "url": "https://www.kaigokensaku.mhlw.go.jp/42/index.php?action_kouhyou_detail_004_kani=true&JigyosyoCd=4270204722-00&ServiceCd=410&Type=search", "url2": "http://evahlife.jp/" }, "geometry": { "type": "Point", "coordinates": [ 129.768989599999941, 33.1518026 ] } },
{ "type": "Feature", "properties": { "内容": "㈱テクノ・スズタ　ヘルスケア事業部　佐世保営業所【特定福祉用具販売】長崎県佐世保市日野町755番地", "url": "https://www.kaigokensaku.mhlw.go.jp/42/index.php?action_kouhyou_detail_004_kani=true&JigyosyoCd=4270204821-00&ServiceCd=410&Type=search", "url2": "www.technosuzuta.co.jp" }, "geometry": { "type": "Point", "coordinates": [ 129.684510499999988, 33.1676012 ] } },
{ "type": "Feature", "properties": { "内容": "株式会社　クローバー佐世保営業所【特定福祉用具販売】大和町959", "url": "https://www.kaigokensaku.mhlw.go.jp/42/index.php?action_kouhyou_detail_004_kani=true&JigyosyoCd=4270205059-00&ServiceCd=410&Type=search", "url2": "http://www.ciover-ｗ.co.jp/company/" }, "geometry": { "type": "Point", "coordinates": [ 129.746833700000025, 33.1623424 ] } },
{ "type": "Feature", "properties": { "内容": "株式会社　エヴァ　エヴァ　佐世保【特定福祉用具販売】長崎県佐世保市木原町180-12", "url": "https://www.kaigokensaku.mhlw.go.jp/42/index.php?action_kouhyou_detail_004_kani=true&JigyosyoCd=4270205067-00&ServiceCd=410&Type=search", "url2": "https://evah-care.jp" }, "geometry": { "type": "Point", "coordinates": [ 129.848782, 33.1761306 ] } },
{ "type": "Feature", "properties": { "内容": "合資会社　野澤商店【特定福祉用具販売】長崎県島原市片町５５２番地１", "url": "https://www.kaigokensaku.mhlw.go.jp/42/index.php?action_kouhyou_detail_004_kani=true&JigyosyoCd=4270300736-00&ServiceCd=410&Type=search", "url2": null }, "geometry": { "type": "Point", "coordinates": [ 130.372258, 32.7889943 ] } },
{ "type": "Feature", "properties": { "内容": "株式会社　佐原【特定福祉用具販売】長崎県島原市北安徳町丁3077-1", "url": "https://www.kaigokensaku.mhlw.go.jp/42/index.php?action_kouhyou_detail_004_kani=true&JigyosyoCd=4270300801-00&ServiceCd=410&Type=search", "url2": "http://www.sahara-k.co.jp/" }, "geometry": { "type": "Point", "coordinates": [ 130.372333, 32.7522887 ] } },
{ "type": "Feature", "properties": { "内容": "ミタカトライブ株式会社島原営業所【特定福祉用具販売】長崎県島原市秩父が浦町丁3543-16", "url": "https://www.kaigokensaku.mhlw.go.jp/42/index.php?action_kouhyou_detail_004_kani=true&JigyosyoCd=4270301411-00&ServiceCd=410&Type=search", "url2": "https://t-mitaka.com/" }, "geometry": { "type": "Point", "coordinates": [ 130.369992700000012, 32.7601751 ] } },
{ "type": "Feature", "properties": { "内容": "有限会社広栄通信【特定福祉用具販売】白岩町21-11", "url": "https://www.kaigokensaku.mhlw.go.jp/42/index.php?action_kouhyou_detail_004_kani=true&JigyosyoCd=4270403019-00&ServiceCd=410&Type=search", "url2": null }, "geometry": { "type": "Point", "coordinates": [ 130.0193808, 32.8494507 ] } },
{ "type": "Feature", "properties": { "内容": "エスティ・ケアサ－ビス【特定福祉用具販売】長崎県諌早市下大渡野町3-1", "url": "https://www.kaigokensaku.mhlw.go.jp/42/index.php?action_kouhyou_detail_004_kani=true&JigyosyoCd=4270400551-00&ServiceCd=410&Type=search", "url2": null }, "geometry": { "type": "Point", "coordinates": [ 130.028518, 32.8710966 ] } },
{ "type": "Feature", "properties": { "内容": "株式会社　ニッショウ　諌早営業所【特定福祉用具販売】長崎県諫早市宗方町345-7", "url": "https://www.kaigokensaku.mhlw.go.jp/42/index.php?action_kouhyou_detail_004_kani=true&JigyosyoCd=4270401526-00&ServiceCd=410&Type=search", "url2": "http://nissho-inc.co.jp" }, "geometry": { "type": "Point", "coordinates": [ 130.084649323465328, 32.832782412434618 ] } },
{ "type": "Feature", "properties": { "内容": "株式会社グット・リンクグット・リンク諫早【特定福祉用具販売】長崎県諫早市栄田町14-13", "url": "https://www.kaigokensaku.mhlw.go.jp/42/index.php?action_kouhyou_detail_004_kani=true&JigyosyoCd=4270402722-00&ServiceCd=410&Type=search", "url2": "http://good-link.jp/" }, "geometry": { "type": "Point", "coordinates": [ 130.0292958, 32.8700717 ] } },
{ "type": "Feature", "properties": { "内容": "株式会社　新和メディカル　諫早営業所【特定福祉用具販売】長崎県諫早市小川町792-3", "url": "https://www.kaigokensaku.mhlw.go.jp/42/index.php?action_kouhyou_detail_004_kani=true&JigyosyoCd=4270403035-00&ServiceCd=410&Type=search", "url2": "shinwamedical.com" }, "geometry": { "type": "Point", "coordinates": [ 130.0600675, 32.826445 ] } },
{ "type": "Feature", "properties": { "内容": "ホープ【特定福祉用具販売】長崎県諫早市真崎町1386番地1", "url": "https://www.kaigokensaku.mhlw.go.jp/42/index.php?action_kouhyou_detail_004_kani=true&JigyosyoCd=4270403308-00&ServiceCd=410&Type=search", "url2": null }, "geometry": { "type": "Point", "coordinates": [ 130.017802599999982, 32.8486951 ] } },
{ "type": "Feature", "properties": { "内容": "ラフ・メイカー【特定福祉用具販売】長崎県諫早市土師野尾町1692番地", "url": "https://www.kaigokensaku.mhlw.go.jp/42/index.php?action_kouhyou_detail_004_kani=true&JigyosyoCd=4270403688-00&ServiceCd=410&Type=search", "url2": null }, "geometry": { "type": "Point", "coordinates": [ 130.030281, 32.8082128 ] } },
{ "type": "Feature", "properties": { "内容": "合同会社　優芯【特定福祉用具販売】長崎県諫早市天満町４９番１３号", "url": "https://www.kaigokensaku.mhlw.go.jp/42/index.php?action_kouhyou_detail_004_kani=true&JigyosyoCd=4270403878-00&ServiceCd=410&Type=search", "url2": null }, "geometry": { "type": "Point", "coordinates": [ 130.046393599999988, 32.8557671 ] } },
{ "type": "Feature", "properties": { "内容": "松尾医療器株式会社【特定福祉用具販売】長崎県大村市上諏訪町900-1", "url": "https://www.kaigokensaku.mhlw.go.jp/42/index.php?action_kouhyou_detail_004_kani=true&JigyosyoCd=4270500103-00&ServiceCd=410&Type=search", "url2": "http://www.careliving-matsuo.jp/" }, "geometry": { "type": "Point", "coordinates": [ 129.964768, 32.9236854 ] } },
{ "type": "Feature", "properties": { "内容": "太陽シルバーサービス株式会社　大村営業所【特定福祉用具販売】長崎県大村市溝陸町643-1", "url": "https://www.kaigokensaku.mhlw.go.jp/42/index.php?action_kouhyou_detail_004_kani=true&JigyosyoCd=4270501200-00&ServiceCd=410&Type=search", "url2": "http://www.taiyoss.co.jp/" }, "geometry": { "type": "Point", "coordinates": [ 130.006595299999958, 32.8503004 ] } },
{ "type": "Feature", "properties": { "内容": "株式会社　新生ケア【特定福祉用具販売】長崎県大村市平町1204-3平町C棟", "url": "https://www.kaigokensaku.mhlw.go.jp/42/index.php?action_kouhyou_detail_004_kani=true&JigyosyoCd=4270501630-00&ServiceCd=410&Type=search", "url2": null }, "geometry": { "type": "Point", "coordinates": [ 130.006398799999943, 32.9028432 ] } },
{ "type": "Feature", "properties": { "内容": "株式会社　エヴァ・ライフ　ベストケア大村営業所【特定福祉用具販売】西大村本町689-4", "url": "https://www.kaigokensaku.mhlw.go.jp/42/index.php?action_kouhyou_detail_004_kani=true&JigyosyoCd=4270501887-00&ServiceCd=410&Type=search", "url2": "http://evahlife.jp/" }, "geometry": { "type": "Point", "coordinates": [ 129.952674399999978, 32.9302068 ] } },
{ "type": "Feature", "properties": { "内容": "株式会社新和メディカル大村営業所【特定福祉用具販売】長崎県大村市東三城町7-19-1Ｆ", "url": "https://www.kaigokensaku.mhlw.go.jp/42/index.php?action_kouhyou_detail_004_kani=true&JigyosyoCd=4270502034-00&ServiceCd=410&Type=search", "url2": "http://www.shinwamedical.com/" }, "geometry": { "type": "Point", "coordinates": [ 129.961039300000039, 32.9113031 ] } },
{ "type": "Feature", "properties": { "内容": "ゆうげんかいしゃ　やまもとしょうじ【特定福祉用具販売】長崎県厳原町国分1347番地", "url": "https://www.kaigokensaku.mhlw.go.jp/42/index.php?action_kouhyou_detail_004_kani=true&JigyosyoCd=4271800221-00&ServiceCd=410&Type=search", "url2": null }, "geometry": { "type": "Point", "coordinates": [ 129.2894134, 34.2021912 ] } },
{ "type": "Feature", "properties": { "内容": "株式会社畑島【特定福祉用具販売】長崎県対馬市厳原町大手橋1215番地", "url": "https://www.kaigokensaku.mhlw.go.jp/42/index.php?action_kouhyou_detail_004_kani=true&JigyosyoCd=4271800288-00&ServiceCd=410&Type=search", "url2": "http://www.hatashima.co.jp/" }, "geometry": { "type": "Point", "coordinates": [ 129.2910589, 34.2010092 ] } },
{ "type": "Feature", "properties": { "内容": "アクトライフケア【特定福祉用具販売】長崎県対馬市上対馬町比田勝６３３番地　６３４番地", "url": "https://www.kaigokensaku.mhlw.go.jp/42/index.php?action_kouhyou_detail_004_kani=true&JigyosyoCd=4271900229-00&ServiceCd=410&Type=search", "url2": null }, "geometry": { "type": "Point", "coordinates": [ 129.459021500000063, 34.6551076 ] } },
{ "type": "Feature", "properties": { "内容": "壱岐市社協福祉用具貸与事業所【特定福祉用具販売】長崎県壱岐市芦辺町箱崎中山触２５４８番地", "url": "https://www.kaigokensaku.mhlw.go.jp/42/index.php?action_kouhyou_detail_004_kani=true&JigyosyoCd=4272100126-00&ServiceCd=410&Type=search", "url2": "https://ikicity-csw.jp/" }, "geometry": { "type": "Point", "coordinates": [ 129.747211600000014, 33.8096575 ] } },
{ "type": "Feature", "properties": { "内容": "太陽シルバーサービス株式会社　壱岐営業所【特定福祉用具販売】長崎県壱岐市郷ノ浦町田中触1078", "url": "https://www.kaigokensaku.mhlw.go.jp/42/index.php?action_kouhyou_detail_004_kani=true&JigyosyoCd=4272100324-00&ServiceCd=410&Type=search", "url2": "http://www.taiyoss.co.jp/" }, "geometry": { "type": "Point", "coordinates": [ 129.69659230000002, 33.76049890000003 ] } },
{ "type": "Feature", "properties": { "内容": "株式会社クローバー五島営業所【特定福祉用具販売】長崎県五島市三尾野2-7-12", "url": "https://www.kaigokensaku.mhlw.go.jp/42/index.php?action_kouhyou_detail_004_kani=true&JigyosyoCd=4272200231-00&ServiceCd=410&Type=search", "url2": "http://www.clover-w.co.jp/" }, "geometry": { "type": "Point", "coordinates": [ 128.839287600000034, 32.6908882 ] } },
{ "type": "Feature", "properties": { "内容": "株式会社アステム　五島出張所【特定福祉用具販売】長崎県五島市三尾野3丁目6-7アクティヴビル1階", "url": "https://www.kaigokensaku.mhlw.go.jp/42/index.php?action_kouhyou_detail_004_kani=true&JigyosyoCd=4272200876-00&ServiceCd=410&Type=search", "url2": "http://www.astemf.jp/" }, "geometry": { "type": "Point", "coordinates": [ 128.8364989, 32.6909743 ] } },
{ "type": "Feature", "properties": { "内容": "株式会社　イシマル五島【特定福祉用具販売】上大津町1131-1", "url": "https://www.kaigokensaku.mhlw.go.jp/42/index.php?action_kouhyou_detail_004_kani=true&JigyosyoCd=4272200942-00&ServiceCd=410&Type=search", "url2": "https://www.ishimarugoto.co.jp" }, "geometry": { "type": "Point", "coordinates": [ 128.8451952, 32.6821634 ] } },
{ "type": "Feature", "properties": { "内容": "ライフプラスさいかい【特定福祉用具販売】長崎県西海市大瀬戸町瀬戸西濱郷1140番地1", "url": "https://www.kaigokensaku.mhlw.go.jp/42/index.php?action_kouhyou_detail_004_kani=true&JigyosyoCd=4272300387-00&ServiceCd=410&Type=search", "url2": "lifeplu.saikai@gmail.com" }, "geometry": { "type": "Point", "coordinates": [ 129.6561206, 32.9415923 ] } },
{ "type": "Feature", "properties": { "内容": "株式会社江越【特定福祉用具販売】長崎県南島原市有家町久保41-10", "url": "https://www.kaigokensaku.mhlw.go.jp/42/index.php?action_kouhyou_detail_004_kani=true&JigyosyoCd=4272500564-00&ServiceCd=410&Type=search", "url2": null }, "geometry": { "type": "Point", "coordinates": [ 130.3029196, 32.6670195 ] } },
{ "type": "Feature", "properties": { "内容": "有限会社ミカサヤ【特定福祉用具販売】長崎県南島原市口之津町丙2083番地1", "url": "https://www.kaigokensaku.mhlw.go.jp/42/index.php?action_kouhyou_detail_004_kani=true&JigyosyoCd=4271401525-00&ServiceCd=410&Type=search", "url2": null }, "geometry": { "type": "Point", "coordinates": [ 130.187293599999947, 32.6120319 ] } },
{ "type": "Feature", "properties": { "内容": "株式会社新和メディカル長崎営業所【特定福祉用具販売】長崎県西彼杵郡長与町岡郷551-5", "url": "https://www.kaigokensaku.mhlw.go.jp/42/index.php?action_kouhyou_detail_004_kani=true&JigyosyoCd=4271103394-00&ServiceCd=410&Type=search", "url2": "http://www.shinwamedical.com/" }, "geometry": { "type": "Point", "coordinates": [ 129.870222238623057, 32.843618974934536 ] } },
{ "type": "Feature", "properties": { "内容": "有限会社　翠苑【特定福祉用具販売】長崎県1422番地2", "url": "https://www.kaigokensaku.mhlw.go.jp/42/index.php?action_kouhyou_detail_004_kani=true&JigyosyoCd=4271102735-00&ServiceCd=410&Type=search", "url2": "http://www.midorino-oka.com/" }, "geometry": { "type": "Point", "coordinates": [ 129.6930912, 33.2488525 ] } },
{ "type": "Feature", "properties": { "内容": "ベストケア時津【特定福祉用具販売】長崎県西彼杵郡時津町久留里郷419-2", "url": "https://www.kaigokensaku.mhlw.go.jp/42/index.php?action_kouhyou_detail_004_kani=true&JigyosyoCd=4271103246-00&ServiceCd=410&Type=search", "url2": "http://evahlife.jp/" }, "geometry": { "type": "Point", "coordinates": [ 129.8375416, 32.8382678 ] } },
{ "type": "Feature", "properties": { "内容": "（株）マツダデコン　福祉用具貸与販売事業所　そえる【特定福祉用具販売】長崎県北松浦郡佐々町羽須和免５５７", "url": "https://www.kaigokensaku.mhlw.go.jp/42/index.php?action_kouhyou_detail_004_kani=true&JigyosyoCd=4271501522-00&ServiceCd=410&Type=search", "url2": null }, "geometry": { "type": "Point", "coordinates": [ 129.652395601852447, 33.23608673233835 ] } },
{ "type": "Feature", "properties": { "内容": "株式会社　上五島アンプク【特定福祉用具販売】南松浦郡新上五島町浦桑郷1284番地", "url": "https://www.kaigokensaku.mhlw.go.jp/42/index.php?action_kouhyou_detail_004_kani=true&JigyosyoCd=4271600274-00&ServiceCd=410&Type=search", "url2": null }, "geometry": { "type": "Point", "coordinates": [ 129.087212099999988, 32.9858005 ] } },
{ "type": "Feature", "properties": { "内容": "福祉用具貸与事業所　すまいるはぁと【特定福祉用具販売】長崎県南松浦郡新上五島町奈摩郷379番地5", "url": "https://www.kaigokensaku.mhlw.go.jp/42/index.php?action_kouhyou_detail_004_kani=true&JigyosyoCd=4271601496-00&ServiceCd=410&Type=search", "url2": "https：//.sinkamigoto.net/" }, "geometry": { "type": "Point", "coordinates": [ 129.067029330688484, 33.017799865576592 ] } }
]
}
