{
"type": "FeatureCollection",
"name": "geo_42_専修学校",
"crs": { "type": "name", "properties": { "name": "urn:ogc:def:crs:EPSG::6668" } },
"features": [
{ "type": "Feature", "properties": { "P29_001": "42202", "P29_002": "H142210000016", "P29_003": "16016", "P29_004": "佐世保市立看護専門学校", "P29_005": "長崎県佐世保市平瀬町3-1", "P29_006": "3", "P29_007": "0", "P29_008": "00", "P29_009": null }, "geometry": { "type": "Point", "coordinates": [ 129.717870070539476, 33.167785728113103 ] } },
{ "type": "Feature", "properties": { "P29_001": "42201", "P29_002": "H142310000014", "P29_003": "16016", "P29_004": "和田文化服装専門学校", "P29_005": "長崎県長崎市賑町5-21", "P29_006": "4", "P29_007": "0", "P29_008": "00", "P29_009": null }, "geometry": { "type": "Point", "coordinates": [ 129.87664675960832, 32.746947477224026 ] } },
{ "type": "Feature", "properties": { "P29_001": "42204", "P29_002": "H142310000032", "P29_003": "16016", "P29_004": "ミユキ学園諫早服装専門学校", "P29_005": "長崎県諫早市泉町24-15", "P29_006": "4", "P29_007": "0", "P29_008": "00", "P29_009": null }, "geometry": { "type": "Point", "coordinates": [ 130.056770553805251, 32.848577907133595 ] } },
{ "type": "Feature", "properties": { "P29_001": "42202", "P29_002": "H142310000041", "P29_003": "16016", "P29_004": "玉英和裁専門学校", "P29_005": "長崎県長崎市坂本町5-23", "P29_006": "4", "P29_007": "0", "P29_008": "00", "P29_009": null }, "geometry": { "type": "Point", "coordinates": [ 129.723624996816852, 33.208940995558372 ] } },
{ "type": "Feature", "properties": { "P29_001": "42202", "P29_002": "H142310000050", "P29_003": "16016", "P29_004": "ソシアル淳心ファションビジネス専門学校", "P29_005": "長崎県佐世保市田原町7-9", "P29_006": "4", "P29_007": "0", "P29_008": "00", "P29_009": null }, "geometry": { "type": "Point", "coordinates": [ 129.723654758933236, 33.208909964841027 ] } },
{ "type": "Feature", "properties": { "P29_001": "42204", "P29_002": "H142310000069", "P29_003": "16016", "P29_004": "森家政専門学校", "P29_005": "長崎県諫早市旭町3-25", "P29_006": "4", "P29_007": "0", "P29_008": "00", "P29_009": null }, "geometry": { "type": "Point", "coordinates": [ 130.057529995209393, 32.844639996768414 ] } },
{ "type": "Feature", "properties": { "P29_001": "42202", "P29_002": "H142310000078", "P29_003": "16016", "P29_004": "九州文化学園調理師専門学校", "P29_005": "長崎県佐世保市藤原町7-32", "P29_006": "4", "P29_007": "0", "P29_008": "00", "P29_009": null }, "geometry": { "type": "Point", "coordinates": [ 129.738648453723954, 33.159768978218878 ] } },
{ "type": "Feature", "properties": { "P29_001": "42201", "P29_002": "H142310000087", "P29_003": "16016", "P29_004": "長崎市医師会看護専門学校", "P29_005": "長崎県長崎市栄町2-22", "P29_006": "4", "P29_007": "0", "P29_008": "00", "P29_009": null }, "geometry": { "type": "Point", "coordinates": [ 129.877827911375874, 32.748019799904299 ] } },
{ "type": "Feature", "properties": { "P29_001": "42201", "P29_002": "H142310000096", "P29_003": "16016", "P29_004": "九州医学技術専門学校", "P29_005": "長崎県長崎市葉山1-28-32", "P29_006": "4", "P29_007": "0", "P29_008": "00", "P29_009": null }, "geometry": { "type": "Point", "coordinates": [ 129.84837503370602, 32.804603332952482 ] } },
{ "type": "Feature", "properties": { "P29_001": "42202", "P29_002": "H142310000103", "P29_003": "16016", "P29_004": "佐世保市医師会看護専門学校", "P29_005": "長崎県佐世保市祇園町257", "P29_006": "4", "P29_007": "0", "P29_008": "00", "P29_009": null }, "geometry": { "type": "Point", "coordinates": [ 129.722095434229971, 33.175088542158868 ] } },
{ "type": "Feature", "properties": { "P29_001": "42203", "P29_002": "H142310000112", "P29_003": "16016", "P29_004": "島原市医師会看護学校", "P29_005": "長崎県島原市萩原1-1230", "P29_006": "4", "P29_007": "0", "P29_008": "00", "P29_009": null }, "geometry": { "type": "Point", "coordinates": [ 130.366476404334691, 32.785646688499476 ] } },
{ "type": "Feature", "properties": { "P29_001": "42202", "P29_002": "H142310000121", "P29_003": "16016", "P29_004": "九州文化学園歯科衛生士学院", "P29_005": "長崎県佐世保市藤原町7-32", "P29_006": "4", "P29_007": "0", "P29_008": "00", "P29_009": null }, "geometry": { "type": "Point", "coordinates": [ 129.738656202979399, 33.159700167548451 ] } },
{ "type": "Feature", "properties": { "P29_001": "42205", "P29_002": "H142310000130", "P29_003": "16016", "P29_004": "長崎リハビリテーション学院", "P29_005": "長崎県大村市赤佐古町42", "P29_006": "4", "P29_007": "0", "P29_008": "00", "P29_009": null }, "geometry": { "type": "Point", "coordinates": [ 129.968864011632974, 32.909840048932175 ] } },
{ "type": "Feature", "properties": { "P29_001": "42201", "P29_002": "H142310000149", "P29_003": "16016", "P29_004": "長崎情報処理専門学校", "P29_005": "長崎県長崎市上戸町4-10-8", "P29_006": "4", "P29_007": "0", "P29_008": "00", "P29_009": null }, "geometry": { "type": "Point", "coordinates": [ 129.872213446864436, 32.715922860455947 ] } },
{ "type": "Feature", "properties": { "P29_001": "42201", "P29_002": "H142310000158", "P29_003": "16016", "P29_004": "長崎歯科衛生士専門学校", "P29_005": "長崎県長崎市茂里町3-19", "P29_006": "4", "P29_007": "0", "P29_008": "00", "P29_009": null }, "geometry": { "type": "Point", "coordinates": [ 129.862806843882623, 32.765706753622375 ] } },
{ "type": "Feature", "properties": { "P29_001": "42204", "P29_002": "H142310000167", "P29_003": "16016", "P29_004": "国際情報科学専門学校", "P29_005": "長崎県諫早市栄田町30-12", "P29_006": "4", "P29_007": "0", "P29_008": "00", "P29_009": null }, "geometry": { "type": "Point", "coordinates": [ 130.037700932321485, 32.855411735291788 ] } },
{ "type": "Feature", "properties": { "P29_001": "42204", "P29_002": "H142310000176", "P29_003": "16016", "P29_004": "専門学校長崎就職支援カレッジ", "P29_005": "長崎県諫早市栄田町30-12", "P29_006": "4", "P29_007": "0", "P29_008": "00", "P29_009": null }, "geometry": { "type": "Point", "coordinates": [ 130.037708698164778, 32.85535092273642 ] } },
{ "type": "Feature", "properties": { "P29_001": "42201", "P29_002": "H142310000185", "P29_003": "16016", "P29_004": "長崎医療こども専門学校", "P29_005": "長崎県長崎市大黒町2-3", "P29_006": "4", "P29_007": "0", "P29_008": "00", "P29_009": null }, "geometry": { "type": "Point", "coordinates": [ 129.871440556254669, 32.75349973858529 ] } },
{ "type": "Feature", "properties": { "P29_001": "42202", "P29_002": "H142310000194", "P29_003": "16016", "P29_004": "専門学校させぼ公務員オブビジネス", "P29_005": "長崎県佐世保市松浦町5-24", "P29_006": "4", "P29_007": "0", "P29_008": "00", "P29_009": null }, "geometry": { "type": "Point", "coordinates": [ 129.716933535552613, 33.174657318712725 ] } },
{ "type": "Feature", "properties": { "P29_001": "42202", "P29_002": "H142310000201", "P29_003": "16016", "P29_004": "長崎ＮＩＣコンピュータ学院専門学校", "P29_005": "長崎県佐世保市名切町313-7", "P29_006": "4", "P29_007": "0", "P29_008": "00", "P29_009": null }, "geometry": { "type": "Point", "coordinates": [ 129.72771974937109, 33.181317171884736 ] } },
{ "type": "Feature", "properties": { "P29_001": "42201", "P29_002": "H142310000210", "P29_003": "16016", "P29_004": "九州調理師専門学校", "P29_005": "長崎県長崎市弁天町5-5", "P29_006": "4", "P29_007": "0", "P29_008": "00", "P29_009": null }, "geometry": { "type": "Point", "coordinates": [ 129.86446005846193, 32.753150552113858 ] } },
{ "type": "Feature", "properties": { "P29_001": "42201", "P29_002": "H142310000229", "P29_003": "16016", "P29_004": "長崎医療技術専門学校", "P29_005": "長崎県長崎市愛宕1-36-59", "P29_006": "4", "P29_007": "0", "P29_008": "00", "P29_009": null }, "geometry": { "type": "Point", "coordinates": [ 129.889291622772674, 32.739834340587741 ] } },
{ "type": "Feature", "properties": { "P29_001": "42201", "P29_002": "H142310000238", "P29_003": "16016", "P29_004": "長崎公務員専門学校", "P29_005": "長崎県長崎市五島町1-17", "P29_006": "4", "P29_007": "0", "P29_008": "00", "P29_009": null }, "geometry": { "type": "Point", "coordinates": [ 129.87249168820739, 32.749655338907957 ] } },
{ "type": "Feature", "properties": { "P29_001": "42204", "P29_002": "H142310000247", "P29_003": "16016", "P29_004": "長崎県央看護学校", "P29_005": "長崎県諫早市永昌町23-23", "P29_006": "4", "P29_007": "0", "P29_008": "00", "P29_009": null }, "geometry": { "type": "Point", "coordinates": [ 130.035538471821468, 32.850091657114284 ] } },
{ "type": "Feature", "properties": { "P29_001": "42201", "P29_002": "H142310000256", "P29_003": "16016", "P29_004": "北九州予備校長崎校", "P29_005": "長崎県長崎市川口町4-5", "P29_006": "4", "P29_007": "0", "P29_008": "00", "P29_009": null }, "geometry": { "type": "Point", "coordinates": [ 129.863761714570131, 32.76615021992658 ] } },
{ "type": "Feature", "properties": { "P29_001": "42201", "P29_002": "H142310000265", "P29_003": "16016", "P29_004": "長崎県美容専門学校", "P29_005": "長崎県長崎市桜馬場1-9-10", "P29_006": "4", "P29_007": "0", "P29_008": "00", "P29_009": null }, "geometry": { "type": "Point", "coordinates": [ 129.889040511336646, 32.752988893470743 ] } },
{ "type": "Feature", "properties": { "P29_001": "42201", "P29_002": "H142310000283", "P29_003": "16016", "P29_004": "エコール・ド・パティスリー長崎", "P29_005": "長崎県長崎市弁天町5-5", "P29_006": "4", "P29_007": "0", "P29_008": "00", "P29_009": null }, "geometry": { "type": "Point", "coordinates": [ 129.864339254640612, 32.753092776503685 ] } },
{ "type": "Feature", "properties": { "P29_001": "42201", "P29_002": "H142310000292", "P29_003": "16016", "P29_004": "こころ医療福祉専門学校", "P29_005": "長崎県長崎市上銭座町11-8", "P29_006": "4", "P29_007": "0", "P29_008": "00", "P29_009": null }, "geometry": { "type": "Point", "coordinates": [ 129.869784594261006, 32.763898005476371 ] } },
{ "type": "Feature", "properties": { "P29_001": "42201", "P29_002": "H142310000309", "P29_003": "16016", "P29_004": "九州ＳＯＧＩ専門学校", "P29_005": "長崎県長崎市光町10-18", "P29_006": "4", "P29_007": "0", "P29_008": "00", "P29_009": null }, "geometry": { "type": "Point", "coordinates": [ 129.863176139221139, 32.754984998479536 ] } },
{ "type": "Feature", "properties": { "P29_001": "42201", "P29_002": "H142310000318", "P29_003": "16016", "P29_004": "メトロＩＴビジネスカレッジ", "P29_005": "長崎県長崎市出島町5-3", "P29_006": "4", "P29_007": "0", "P29_008": "00", "P29_009": null }, "geometry": { "type": "Point", "coordinates": [ 129.872300199266562, 32.743104785332797 ] } },
{ "type": "Feature", "properties": { "P29_001": "42202", "P29_002": "H142310000327", "P29_003": "16016", "P29_004": "佐世保美容専門学校", "P29_005": "長崎県佐世保市折橋町10-39", "P29_006": "4", "P29_007": "0", "P29_008": "00", "P29_009": null }, "geometry": { "type": "Point", "coordinates": [ 129.723400608221539, 33.186576544003501 ] } },
{ "type": "Feature", "properties": { "P29_001": "42202", "P29_002": "H142310000336", "P29_003": "16016", "P29_004": "こころ医療福祉専門学校佐世保校", "P29_005": "長崎県佐世保市浜田町1-22", "P29_006": "4", "P29_007": "0", "P29_008": "00", "P29_009": null }, "geometry": { "type": "Point", "coordinates": [ 129.717393655656224, 33.176560452610779 ] } },
{ "type": "Feature", "properties": { "P29_001": "42202", "P29_002": "H142310000345", "P29_003": "16016", "P29_004": "専門学校公務員ゼミナール佐世保校", "P29_005": "長崎県佐世保市三浦町1-13", "P29_006": "4", "P29_007": "0", "P29_008": "00", "P29_009": null }, "geometry": { "type": "Point", "coordinates": [ 129.725376967018178, 33.165554555684501 ] } },
{ "type": "Feature", "properties": { "P29_001": "42210", "P29_002": "H142310000354", "P29_003": "16016", "P29_004": "こころ医療福祉専門学校壱岐校", "P29_005": "長崎県壱岐市勝本町布気触818-68", "P29_006": "4", "P29_007": "0", "P29_008": "00", "P29_009": null }, "geometry": { "type": "Point", "coordinates": [ 129.690286272337119, 33.803925054726925 ] } }
]
}
