{
"type": "FeatureCollection",
"name": "geo_42_介護老人保健施設",
"crs": { "type": "name", "properties": { "name": "urn:ogc:def:crs:OGC:1.3:CRS84" } },
"features": [
{ "type": "Feature", "properties": { "内容": "介護老人保健施設　コスモスガーデン桜の里【介護老人保健施設】長崎県長崎市さくらの里2丁目27番28号", "url": "https://www.kaigokensaku.mhlw.go.jp/42/index.php?action_kouhyou_detail_004_kani=true&JigyosyoCd=4250180108-00&ServiceCd=520&Type=search", "url2": "http://www.cosmos-garden.com/" }, "geometry": { "type": "Point", "coordinates": [ 129.764247100000034, 32.8356698 ] } },
{ "type": "Feature", "properties": { "内容": "医療法人　泉田外科　介護老人保健施設　メープル【介護老人保健施設】長崎県長崎市宿町３６番地", "url": "https://www.kaigokensaku.mhlw.go.jp/42/index.php?action_kouhyou_detail_004_kani=true&JigyosyoCd=4250180124-00&ServiceCd=520&Type=search", "url2": null }, "geometry": { "type": "Point", "coordinates": [ 129.9419034, 32.7582831 ] } },
{ "type": "Feature", "properties": { "内容": "サテライト型小規模介護老人保健施設　サンブライト愛宕II【介護老人保健施設】長崎県長崎市愛宕４丁目１１番１号", "url": "https://www.kaigokensaku.mhlw.go.jp/42/index.php?action_kouhyou_detail_004_kani=true&JigyosyoCd=4250180116-00&ServiceCd=520&Type=search", "url2": "http://sunbright-atago.jp" }, "geometry": { "type": "Point", "coordinates": [ 129.892030299999988, 32.734143 ] } },
{ "type": "Feature", "properties": { "内容": "介護老人保健施設　にしきの里【介護老人保健施設】長崎県長崎市錦2丁目1番1号", "url": "https://www.kaigokensaku.mhlw.go.jp/42/index.php?action_kouhyou_detail_004_kani=true&JigyosyoCd=4250180066-00&ServiceCd=520&Type=search", "url2": "https://www.youi-med-psychiatry.com/nishiki/" }, "geometry": { "type": "Point", "coordinates": [ 129.855620199999947, 32.7884088 ] } },
{ "type": "Feature", "properties": { "内容": "介護老人保健施設　三原の園【介護老人保健施設】長崎県長崎市三原1丁目8番35号", "url": "https://www.kaigokensaku.mhlw.go.jp/42/index.php?action_kouhyou_detail_004_kani=true&JigyosyoCd=4250180017-00&ServiceCd=520&Type=search", "url2": "http://www.miharadai.or.jp/" }, "geometry": { "type": "Point", "coordinates": [ 129.876052399999935, 32.7816269 ] } },
{ "type": "Feature", "properties": { "内容": "医療法人清潮会　介護老人保健施設　みどりの里【介護老人保健施設】長崎県長崎市布巻町１６５番地１", "url": "https://www.kaigokensaku.mhlw.go.jp/42/index.php?action_kouhyou_detail_004_kani=true&JigyosyoCd=4251180040-00&ServiceCd=520&Type=search", "url2": "https://midorinosato.ne.jp" }, "geometry": { "type": "Point", "coordinates": [ 129.832316900000023, 32.6542122 ] } },
{ "type": "Feature", "properties": { "内容": "サンブライト愛宕【介護老人保健施設】長崎県長崎市愛宕４丁目１４番２号", "url": "https://www.kaigokensaku.mhlw.go.jp/42/index.php?action_kouhyou_detail_004_kani=true&JigyosyoCd=4250180058-00&ServiceCd=520&Type=search", "url2": "http://sunbright-atago.jp/" }, "geometry": { "type": "Point", "coordinates": [ 129.892327499999965, 32.7333625 ] } },
{ "type": "Feature", "properties": { "内容": "老人保健施設　ダイヤランド崎望館【介護老人保健施設】長崎県長崎市ダイヤランド3丁目31番3号", "url": "https://www.kaigokensaku.mhlw.go.jp/42/index.php?action_kouhyou_detail_004_kani=true&JigyosyoCd=4250180082-00&ServiceCd=520&Type=search", "url2": "http://kiboukan.ecgo.jp/" }, "geometry": { "type": "Point", "coordinates": [ 129.855500200000051, 32.7028893 ] } },
{ "type": "Feature", "properties": { "内容": "医療法人　和仁会　介護老人保健施設　中の里【介護老人保健施設】長崎県長崎市古賀町８１５－２", "url": "https://www.kaigokensaku.mhlw.go.jp/42/index.php?action_kouhyou_detail_004_kani=true&JigyosyoCd=4250180033-00&ServiceCd=520&Type=search", "url2": null }, "geometry": { "type": "Point", "coordinates": [ 129.961737099999937, 32.7979605 ] } },
{ "type": "Feature", "properties": { "内容": "介護老人保健施設　ハーモニーガーデン【介護老人保健施設】長崎県長崎市網場町４９２番地１３", "url": "https://www.kaigokensaku.mhlw.go.jp/42/index.php?action_kouhyou_detail_004_kani=true&JigyosyoCd=4250180025-00&ServiceCd=520&Type=search", "url2": "http://www.yugikai.or.jp/harmony.html" }, "geometry": { "type": "Point", "coordinates": [ 129.946336500000029, 32.7572722 ] } },
{ "type": "Feature", "properties": { "内容": "介護老人保健施設　シンフォニー稲佐の森【介護老人保健施設】長崎県長崎市大谷町418番地1", "url": "https://www.kaigokensaku.mhlw.go.jp/42/index.php?action_kouhyou_detail_004_kani=true&JigyosyoCd=4250180009-00&ServiceCd=520&Type=search", "url2": "http://www.symphony@nagasaki-kouseifukushidan.or.jp" }, "geometry": { "type": "Point", "coordinates": [ 129.850955, 32.7483184 ] } },
{ "type": "Feature", "properties": { "内容": "介護老人保健施設　シンフォニー稲佐の森Ⅱ【介護老人保健施設】長崎県長崎市大谷町４１８番地１", "url": "https://www.kaigokensaku.mhlw.go.jp/42/index.php?action_kouhyou_detail_004_kani=true&JigyosyoCd=4250180090-00&ServiceCd=520&Type=search", "url2": "http://www.nagasaki-kouseifukushidan.or.jp" }, "geometry": { "type": "Point", "coordinates": [ 129.850890860049475, 32.748555500147646 ] } },
{ "type": "Feature", "properties": { "内容": "エスポアールそとめ【介護老人保健施設】長崎県長崎市上黒崎町2201番地3", "url": "https://www.kaigokensaku.mhlw.go.jp/42/index.php?action_kouhyou_detail_004_kani=true&JigyosyoCd=4251180016-00&ServiceCd=520&Type=search", "url2": "http://hiurakai.jp/" }, "geometry": { "type": "Point", "coordinates": [ 129.723545414155524, 32.854271814561869 ] } },
{ "type": "Feature", "properties": { "内容": "介護老人保健施設　東長崎ナーシングホーム【介護老人保健施設】長崎県長崎市東町1893-5介護老人保健施設　東長崎ナーシングホーム", "url": "https://www.kaigokensaku.mhlw.go.jp/42/index.php?action_kouhyou_detail_004_kani=true&JigyosyoCd=4250180074-00&ServiceCd=520&Type=search", "url2": "http://fusoukai.jp/" }, "geometry": { "type": "Point", "coordinates": [ 129.956263, 32.779165 ] } },
{ "type": "Feature", "properties": { "内容": "社会福祉法人　平成会　介護老人保健施設・ナーシングケア横尾【介護老人保健施設】長崎県長崎市横尾3丁目26番2号", "url": "https://www.kaigokensaku.mhlw.go.jp/42/index.php?action_kouhyou_detail_004_kani=true&JigyosyoCd=4250180041-00&ServiceCd=520&Type=search", "url2": "http://www.heisei-kai.or.jp/" }, "geometry": { "type": "Point", "coordinates": [ 129.839453300000059, 32.8168669 ] } },
{ "type": "Feature", "properties": { "内容": "介護老人保健施設マハロ倶楽部【介護老人保健施設】長崎県佐世保市城山町３－２１", "url": "https://www.kaigokensaku.mhlw.go.jp/42/index.php?action_kouhyou_detail_004_kani=true&JigyosyoCd=4250280098-00&ServiceCd=520&Type=search", "url2": "www.aiwakai.com" }, "geometry": { "type": "Point", "coordinates": [ 129.717309800000066, 33.1836983 ] } },
{ "type": "Feature", "properties": { "内容": "医療法人松栄会　介護老人保健施設　松寿園【介護老人保健施設】長崎県佐世保市小佐世保町2番1号", "url": "https://www.kaigokensaku.mhlw.go.jp/42/index.php?action_kouhyou_detail_004_kani=true&JigyosyoCd=4250280023-00&ServiceCd=520&Type=search", "url2": null }, "geometry": { "type": "Point", "coordinates": [ 129.731192, 33.1738106 ] } },
{ "type": "Feature", "properties": { "内容": "介護老人保健施設すいざん荘【介護老人保健施設】長崎県佐世保市赤崎町74-2", "url": "https://www.kaigokensaku.mhlw.go.jp/42/index.php?action_kouhyou_detail_004_kani=true&JigyosyoCd=4250280031-00&ServiceCd=520&Type=search", "url2": "https://www.suizankai.com" }, "geometry": { "type": "Point", "coordinates": [ 129.693865499999987, 33.164439 ] } },
{ "type": "Feature", "properties": { "内容": "介護老人保健施設　つつじの郷【介護老人保健施設】長崎県佐世保市鹿町町下歌ケ浦109-1", "url": "https://www.kaigokensaku.mhlw.go.jp/42/index.php?action_kouhyou_detail_004_kani=true&JigyosyoCd=4251580025-00&ServiceCd=520&Type=search", "url2": "https://sf.seisyukai.jp/hokenshisetsu/" }, "geometry": { "type": "Point", "coordinates": [ 129.592044514016692, 33.275164189215197 ] } },
{ "type": "Feature", "properties": { "内容": "介護老人保健施設　リハビリサポートひうみ【介護老人保健施設】長崎県佐世保市ひうみ町1879番31", "url": "https://www.kaigokensaku.mhlw.go.jp/42/index.php?action_kouhyou_detail_004_kani=true&JigyosyoCd=4250280114-00&ServiceCd=520&Type=search", "url2": "https://hakujyujikai.or.jp/hiumi/" }, "geometry": { "type": "Point", "coordinates": [ 129.7633231, 33.1540805 ] } },
{ "type": "Feature", "properties": { "内容": "介護老人保健施設　サン【介護老人保健施設】長崎県佐世保市大和町30番地", "url": "https://www.kaigokensaku.mhlw.go.jp/42/index.php?action_kouhyou_detail_004_kani=true&JigyosyoCd=4250280049-00&ServiceCd=520&Type=search", "url2": "http://www.hakujyujikai-san.jp" }, "geometry": { "type": "Point", "coordinates": [ 129.747002299999963, 33.1563016 ] } },
{ "type": "Feature", "properties": { "内容": "介護老人保健施設サン　ユニット【介護老人保健施設】長崎県佐世保市大和町30番地", "url": "https://www.kaigokensaku.mhlw.go.jp/42/index.php?action_kouhyou_detail_004_kani=true&JigyosyoCd=4250280080-00&ServiceCd=520&Type=search", "url2": "https://hakujyujikai-san.jp" }, "geometry": { "type": "Point", "coordinates": [ 129.74738560000003, 33.1569821 ] } },
{ "type": "Feature", "properties": { "内容": "介護老人保健施設　長寿苑【介護老人保健施設】長崎県佐世保市日宇町2835番地", "url": "https://www.kaigokensaku.mhlw.go.jp/42/index.php?action_kouhyou_detail_004_kani=true&JigyosyoCd=4250280007-00&ServiceCd=520&Type=search", "url2": "http://www.hakujyujikai.or.jp/tjn/" }, "geometry": { "type": "Point", "coordinates": [ 129.7668258, 33.1554688 ] } },
{ "type": "Feature", "properties": { "内容": "介護老人保健施設ひまわり【介護老人保健施設】長崎県佐世保市指方町５０４０番地３", "url": "https://www.kaigokensaku.mhlw.go.jp/42/index.php?action_kouhyou_detail_004_kani=true&JigyosyoCd=4250280064-00&ServiceCd=520&Type=search", "url2": "http://www.hoyukai.info/himawari/" }, "geometry": { "type": "Point", "coordinates": [ 129.784181, 33.091139 ] } },
{ "type": "Feature", "properties": { "内容": "老人保健施設コスモス【介護老人保健施設】佐世保市上柚木町２５１５番地", "url": "https://www.kaigokensaku.mhlw.go.jp/42/index.php?action_kouhyou_detail_004_kani=true&JigyosyoCd=4250280015-00&ServiceCd=520&Type=search", "url2": "http://www.cos-mos.jp" }, "geometry": { "type": "Point", "coordinates": [ 129.770096400000057, 33.2108472 ] } },
{ "type": "Feature", "properties": { "内容": "介護老人保健施設　サクラ【介護老人保健施設】長崎県佐世保市八幡町１番地の２", "url": "https://www.kaigokensaku.mhlw.go.jp/42/index.php?action_kouhyou_detail_004_kani=true&JigyosyoCd=4250280056-00&ServiceCd=520&Type=search", "url2": "http://roukensakura.floppy.jp/" }, "geometry": { "type": "Point", "coordinates": [ 129.722212, 33.1832511 ] } },
{ "type": "Feature", "properties": { "内容": "ろうけん長庚堂【介護老人保健施設】長崎県島原市中堀町61番地アプリコット", "url": "https://www.kaigokensaku.mhlw.go.jp/42/index.php?action_kouhyou_detail_004_kani=true&JigyosyoCd=4250380013-00&ServiceCd=520&Type=search", "url2": "http://www.saikakai.jp/" }, "geometry": { "type": "Point", "coordinates": [ 130.369833500000027, 32.7826948 ] } },
{ "type": "Feature", "properties": { "内容": "介護老人保健施設　フォスター島原【介護老人保健施設】長崎県島原市中野町丙２７番地１", "url": "https://www.kaigokensaku.mhlw.go.jp/42/index.php?action_kouhyou_detail_004_kani=true&JigyosyoCd=4250380005-00&ServiceCd=520&Type=search", "url2": null }, "geometry": { "type": "Point", "coordinates": [ 130.3497307, 32.8277656 ] } },
{ "type": "Feature", "properties": { "内容": "医療法人社団　淳生会　介護老人保健施設　恵風園【介護老人保健施設】長崎県諫早市多良見町化屋９９５番", "url": "https://www.kaigokensaku.mhlw.go.jp/42/index.php?action_kouhyou_detail_004_kani=true&JigyosyoCd=4251180057-00&ServiceCd=520&Type=search", "url2": "https://jyunseikai.jp/" }, "geometry": { "type": "Point", "coordinates": [ 129.983048199999985, 32.8282548 ] } },
{ "type": "Feature", "properties": { "内容": "介護老人保健施設　ケアホーム・クローバー【介護老人保健施設】長崎県諫早市長田町２５４７", "url": "https://www.kaigokensaku.mhlw.go.jp/42/index.php?action_kouhyou_detail_004_kani=true&JigyosyoCd=4250480011-00&ServiceCd=520&Type=search", "url2": "http://danno-clover.com/" }, "geometry": { "type": "Point", "coordinates": [ 130.080573299999969, 32.8627315 ] } },
{ "type": "Feature", "properties": { "内容": "医療法人　祥仁会　介護老人保健施設　ろうけん西諫早【介護老人保健施設】長崎県諫早市貝津町3015番地", "url": "https://www.kaigokensaku.mhlw.go.jp/42/index.php?action_kouhyou_detail_004_kani=true&JigyosyoCd=4250480003-00&ServiceCd=520&Type=search", "url2": "http://www.syoujinkai.com/rouken/" }, "geometry": { "type": "Point", "coordinates": [ 130.02029889517371, 32.837036495276209 ] } },
{ "type": "Feature", "properties": { "内容": "介護老人保健施設　恵仁荘【介護老人保健施設】長崎県諫早市有喜町648", "url": "https://www.kaigokensaku.mhlw.go.jp/42/index.php?action_kouhyou_detail_004_kani=true&JigyosyoCd=4250480045-00&ServiceCd=520&Type=search", "url2": "http://uki-fukushimura.jp/keijinso/" }, "geometry": { "type": "Point", "coordinates": [ 130.077007099999946, 32.7910256 ] } },
{ "type": "Feature", "properties": { "内容": "医療法人　檜山会　介護老人保健施設うぐいすの丘【介護老人保健施設】長崎県大村市東大村１丁目2526-13", "url": "https://www.kaigokensaku.mhlw.go.jp/42/index.php?action_kouhyou_detail_004_kani=true&JigyosyoCd=4250580018-00&ServiceCd=520&Type=search", "url2": "http://www.hizankai.or.jp/uguisu/" }, "geometry": { "type": "Point", "coordinates": [ 130.0080951, 32.9296356 ] } },
{ "type": "Feature", "properties": { "内容": "リハビリセンター大村【介護老人保健施設】長崎県大村市田下町930-3", "url": "https://www.kaigokensaku.mhlw.go.jp/42/index.php?action_kouhyou_detail_004_kani=true&JigyosyoCd=4250580000-00&ServiceCd=520&Type=search", "url2": "http://www.midori-group.com" }, "geometry": { "type": "Point", "coordinates": [ 130.000502216532936, 32.952275359160957 ] } },
{ "type": "Feature", "properties": { "内容": "介護老人保健施設ひらんど【介護老人保健施設】長崎県平戸市浦の町745番地1", "url": "https://www.kaigokensaku.mhlw.go.jp/42/index.php?action_kouhyou_detail_004_kani=true&JigyosyoCd=4250780006-00&ServiceCd=520&Type=search", "url2": "http://kyk-kitagawahp.com/" }, "geometry": { "type": "Point", "coordinates": [ 129.55224069999997, 33.3721363 ] } },
{ "type": "Feature", "properties": { "内容": "医療法人裕光会　介護療養型老人保健施設「のぞみ」【介護老人保健施設】長崎県平戸市田平町山内免400番地", "url": "https://www.kaigokensaku.mhlw.go.jp/42/index.php?action_kouhyou_detail_004_kani=true&JigyosyoCd=4250780014-00&ServiceCd=520&Type=search", "url2": "http://tanigawa-hospital.jp" }, "geometry": { "type": "Point", "coordinates": [ 129.582039099999946, 33.3635596 ] } },
{ "type": "Feature", "properties": { "内容": "介護老人保健施設　ひらどせと【介護老人保健施設】長崎県平戸市田平町山内免613-18", "url": "https://www.kaigokensaku.mhlw.go.jp/42/index.php?action_kouhyou_detail_004_kani=true&JigyosyoCd=4251580009-00&ServiceCd=520&Type=search", "url2": "https://hs.seisyukai.jp/" }, "geometry": { "type": "Point", "coordinates": [ 129.574972800000069, 33.3647512 ] } },
{ "type": "Feature", "properties": { "内容": "介護老人保健施設　よかとこ【介護老人保健施設】長崎県松浦市星鹿町牟田免４０１", "url": "https://www.kaigokensaku.mhlw.go.jp/42/index.php?action_kouhyou_detail_004_kani=true&JigyosyoCd=4250880004-00&ServiceCd=520&Type=search", "url2": "http://sousihkai.webcrow.jp/yokatoko.html" }, "geometry": { "type": "Point", "coordinates": [ 129.66148469999996, 33.3768264 ] } },
{ "type": "Feature", "properties": { "内容": "介護老人保健施設　つしま彩光園【介護老人保健施設】長崎県対馬市厳原町東里338番地1", "url": "https://www.kaigokensaku.mhlw.go.jp/42/index.php?action_kouhyou_detail_004_kani=true&JigyosyoCd=4251880003-00&ServiceCd=520&Type=search", "url2": "https://asukafukushikai.com" }, "geometry": { "type": "Point", "coordinates": [ 129.2926817, 34.1983156 ] } },
{ "type": "Feature", "properties": { "内容": "介護老人保健施設結石山荘【介護老人保健施設】長崎県対馬市上対馬町大浦字浜在所原66番地1", "url": "https://www.kaigokensaku.mhlw.go.jp/42/index.php?action_kouhyou_detail_004_kani=true&JigyosyoCd=4251980001-00&ServiceCd=520&Type=search", "url2": "http://www.sun.tcctv.ne.jp/keichoukai/" }, "geometry": { "type": "Point", "coordinates": [ 129.433950900000013, 34.6719865 ] } },
{ "type": "Feature", "properties": { "内容": "介護老人保健施設壱岐【介護老人保健施設】長崎県壱岐市勝本町本宮南触236番地", "url": "https://www.kaigokensaku.mhlw.go.jp/42/index.php?action_kouhyou_detail_004_kani=true&JigyosyoCd=4251780013-00&ServiceCd=520&Type=search", "url2": null }, "geometry": { "type": "Point", "coordinates": [ 129.686536100000012, 33.8082883 ] } },
{ "type": "Feature", "properties": { "内容": "社会医療法人　玄州会　介護老人保健施設光風【介護老人保健施設】長崎県壱岐市郷ノ浦町東触1006番地1", "url": "https://www.kaigokensaku.mhlw.go.jp/42/index.php?action_kouhyou_detail_004_kani=true&JigyosyoCd=4251780005-00&ServiceCd=520&Type=search", "url2": "ｗｗｗ/gensyukai.or.jp" }, "geometry": { "type": "Point", "coordinates": [ 129.706594699999982, 33.7521834 ] } },
{ "type": "Feature", "properties": { "内容": "リハビリセンターふくえ【介護老人保健施設】長崎県五島市吉田町2390", "url": "https://www.kaigokensaku.mhlw.go.jp/42/index.php?action_kouhyou_detail_004_kani=true&JigyosyoCd=4250680016-00&ServiceCd=520&Type=search", "url2": "http://www.rehabilicenter-fukue.jp" }, "geometry": { "type": "Point", "coordinates": [ 128.8176803, 32.6879492 ] } },
{ "type": "Feature", "properties": { "内容": "末広荘【介護老人保健施設】長崎県五島市末広町7番地5", "url": "https://www.kaigokensaku.mhlw.go.jp/42/index.php?action_kouhyou_detail_004_kani=true&JigyosyoCd=4250680024-00&ServiceCd=520&Type=search", "url2": "https://www.suehirosou.com/" }, "geometry": { "type": "Point", "coordinates": [ 128.842822134987642, 32.695916735297999 ] } },
{ "type": "Feature", "properties": { "内容": "介護老人保健施設　五島福寿園【介護老人保健施設】長崎県五島市吉久木町908-1", "url": "https://www.kaigokensaku.mhlw.go.jp/42/index.php?action_kouhyou_detail_004_kani=true&JigyosyoCd=4250680008-00&ServiceCd=520&Type=search", "url2": "http://gotokai.jp/" }, "geometry": { "type": "Point", "coordinates": [ 128.81875249999996, 32.6995599 ] } },
{ "type": "Feature", "properties": { "内容": "元亀の里【介護老人保健施設】長崎県西海市西彼町鳥加郷2201番地2", "url": "https://www.kaigokensaku.mhlw.go.jp/42/index.php?action_kouhyou_detail_004_kani=true&JigyosyoCd=4251180032-00&ServiceCd=520&Type=search", "url2": "https://www.seihikai.jp/" }, "geometry": { "type": "Point", "coordinates": [ 129.748855631402648, 32.991148291491825 ] } },
{ "type": "Feature", "properties": { "内容": "介護療養型老人保健施設　さいかい【介護老人保健施設】長崎県西海市大島町1876番地59", "url": "https://www.kaigokensaku.mhlw.go.jp/42/index.php?action_kouhyou_detail_004_kani=true&JigyosyoCd=4252380011-00&ServiceCd=520&Type=search", "url2": "http://www.fukuikai.com/" }, "geometry": { "type": "Point", "coordinates": [ 129.619484890351828, 33.035055490627649 ] } },
{ "type": "Feature", "properties": { "内容": "医療法人　伴帥会　介護老人保健施設　ガイアの里【介護老人保健施設】長崎県雲仙市愛野町乙2314-1", "url": "https://www.kaigokensaku.mhlw.go.jp/42/index.php?action_kouhyou_detail_004_kani=true&JigyosyoCd=4251480044-00&ServiceCd=520&Type=search", "url2": "https://ainomhp.jp/group/gaia" }, "geometry": { "type": "Point", "coordinates": [ 130.16032169999994, 32.8012697 ] } },
{ "type": "Feature", "properties": { "内容": "公立介護老人保健施設老健おばま【介護老人保健施設】長崎県雲仙市小浜町南本町５９番地", "url": "https://www.kaigokensaku.mhlw.go.jp/42/index.php?action_kouhyou_detail_004_kani=true&JigyosyoCd=4251480051-00&ServiceCd=520&Type=search", "url2": "http://rouken-obama.com/" }, "geometry": { "type": "Point", "coordinates": [ 130.2046322, 32.7215234 ] } },
{ "type": "Feature", "properties": { "内容": "介護老人保健施設　真寿苑【介護老人保健施設】長崎県雲仙市瑞穂町伊福甲６８１番地", "url": "https://www.kaigokensaku.mhlw.go.jp/42/index.php?action_kouhyou_detail_004_kani=true&JigyosyoCd=4251480002-00&ServiceCd=520&Type=search", "url2": "http://www.sinwakai.net" }, "geometry": { "type": "Point", "coordinates": [ 130.238436500000034, 32.861447 ] } },
{ "type": "Feature", "properties": { "内容": "介護老人保健施設　夢織りの里【介護老人保健施設】長崎県南島原市西有家町里坊41番地1", "url": "https://www.kaigokensaku.mhlw.go.jp/42/index.php?action_kouhyou_detail_004_kani=true&JigyosyoCd=4251480028-00&ServiceCd=520&Type=search", "url2": "http://www.kunpukai.or.jp/" }, "geometry": { "type": "Point", "coordinates": [ 130.299072099999989, 32.6597741 ] } },
{ "type": "Feature", "properties": { "内容": "医療法人　弘池会　介護老人保健施設ろうけんかづさ【介護老人保健施設】長崎県南島原市加津佐町戊4450番地", "url": "https://www.kaigokensaku.mhlw.go.jp/42/index.php?action_kouhyou_detail_004_kani=true&JigyosyoCd=4251480036-00&ServiceCd=520&Type=search", "url2": "http://www.kouchikai.com/index.html" }, "geometry": { "type": "Point", "coordinates": [ 130.194034399999964, 32.6283445 ] } },
{ "type": "Feature", "properties": { "内容": "介護老人保健施設　フォンテ【介護老人保健施設】長崎県南島原市深江町丁２４２１", "url": "https://www.kaigokensaku.mhlw.go.jp/42/index.php?action_kouhyou_detail_004_kani=true&JigyosyoCd=4251480010-00&ServiceCd=520&Type=search", "url2": "http://www.izumikawa.or.jp/index.php/c_Main/showPg51" }, "geometry": { "type": "Point", "coordinates": [ 130.350628599999936, 32.7181514 ] } },
{ "type": "Feature", "properties": { "内容": "介護老人保健施設　長与リハビリセンター【介護老人保健施設】長崎県西彼杵郡長与町高田郷６２３－５", "url": "https://www.kaigokensaku.mhlw.go.jp/42/index.php?action_kouhyou_detail_004_kani=true&JigyosyoCd=4251180008-00&ServiceCd=520&Type=search", "url2": "http//kakuseikai.jp" }, "geometry": { "type": "Point", "coordinates": [ 129.867791, 32.800291 ] } },
{ "type": "Feature", "properties": { "内容": "介護老人保健施設　トラバーユ長崎【介護老人保健施設】長崎県西彼杵郡時津町浜田郷572", "url": "https://www.kaigokensaku.mhlw.go.jp/42/index.php?action_kouhyou_detail_004_kani=true&JigyosyoCd=4251180024-00&ServiceCd=520&Type=search", "url2": "http://www.keiseikai.biz/" }, "geometry": { "type": "Point", "coordinates": [ 129.8594127, 32.8334822 ] } },
{ "type": "Feature", "properties": { "内容": "モン・サン　トラバーユ長崎【介護老人保健施設】長崎県西彼杵郡時津町浜田郷726", "url": "https://www.kaigokensaku.mhlw.go.jp/42/index.php?action_kouhyou_detail_004_kani=true&JigyosyoCd=4251180065-00&ServiceCd=520&Type=search", "url2": null }, "geometry": { "type": "Point", "coordinates": [ 129.857812800000033, 32.8305879 ] } },
{ "type": "Feature", "properties": { "内容": "介護療養型老人保健施設なづみ【介護老人保健施設】長崎県西彼杵郡時津町左底郷38-1", "url": "https://www.kaigokensaku.mhlw.go.jp/42/index.php?action_kouhyou_detail_004_kani=true&JigyosyoCd=4251180073-00&ServiceCd=520&Type=search", "url2": "http://www.nosc.or.jp/nadumi/" }, "geometry": { "type": "Point", "coordinates": [ 129.839922200000046, 32.8333154 ] } },
{ "type": "Feature", "properties": { "内容": "介護老人保健施設　さざ・煌きの里【介護老人保健施設】長崎県北松浦郡佐々町八口免８０５－２", "url": "https://www.kaigokensaku.mhlw.go.jp/42/index.php?action_kouhyou_detail_004_kani=true&JigyosyoCd=4251580017-00&ServiceCd=520&Type=search", "url2": "http://www.kiramekinosato.com/" }, "geometry": { "type": "Point", "coordinates": [ 129.683313399999946, 33.2556827 ] } },
{ "type": "Feature", "properties": { "内容": "介護老人保健施設　つくしの里【介護老人保健施設】長崎県南松浦郡新上五島町鯛ノ浦郷437-1", "url": "https://www.kaigokensaku.mhlw.go.jp/42/index.php?action_kouhyou_detail_004_kani=true&JigyosyoCd=4251680015-00&ServiceCd=520&Type=search", "url2": "http://syuhoukai.jp/" }, "geometry": { "type": "Point", "coordinates": [ 129.102003500000023, 32.9636835 ] } },
{ "type": "Feature", "properties": { "内容": "グリーンヒルかみごとう【介護老人保健施設】長崎県南松浦郡新上五島町浦桑郷643番地1", "url": "https://www.kaigokensaku.mhlw.go.jp/42/index.php?action_kouhyou_detail_004_kani=true&JigyosyoCd=4251680007-00&ServiceCd=520&Type=search", "url2": "https://www.greenhill-kamigoto.com/" }, "geometry": { "type": "Point", "coordinates": [ 129.083537200000023, 32.9899778 ] } }
]
}
