{
"type": "FeatureCollection",
"name": "geo_42_介護医療院",
"crs": { "type": "name", "properties": { "name": "urn:ogc:def:crs:OGC:1.3:CRS84" } },
"features": [
{ "type": "Feature", "properties": { "内容": "介護医療院　　学び舎【介護医療院】長崎県長崎市富士見町18－24長崎みどり病院　2階", "url": "https://www.kaigokensaku.mhlw.go.jp/42/index.php?action_kouhyou_detail_004_kani=true&JigyosyoCd=42B0100020-00&ServiceCd=550&Type=search", "url2": null }, "geometry": { "type": "Point", "coordinates": [ 129.854672, 32.7731467 ] } },
{ "type": "Feature", "properties": { "内容": "介護医療院カリタス【介護医療院】長崎県長崎市新牧野町132番地1", "url": "https://www.kaigokensaku.mhlw.go.jp/42/index.php?action_kouhyou_detail_004_kani=true&JigyosyoCd=42B0100038-00&ServiceCd=550&Type=search", "url2": null }, "geometry": { "type": "Point", "coordinates": [ 129.7050572, 32.8526146 ] } },
{ "type": "Feature", "properties": { "内容": "医療法人梶田医院介護医療院みのりの里【介護医療院】佐世保市南風崎町133-2介護医療院みのりの里", "url": "https://www.kaigokensaku.mhlw.go.jp/42/index.php?action_kouhyou_detail_004_kani=true&JigyosyoCd=42B0200044-00&ServiceCd=550&Type=search", "url2": null }, "geometry": { "type": "Point", "coordinates": [ 129.8057772, 33.0867938 ] } },
{ "type": "Feature", "properties": { "内容": "医療法人誠愛会　佐世保記念病院　介護医療院【介護医療院】長崎県佐世保市鹿子前町１０４番地", "url": "https://www.kaigokensaku.mhlw.go.jp/42/index.php?action_kouhyou_detail_004_kani=true&JigyosyoCd=42B0200028-00&ServiceCd=550&Type=search", "url2": "http://seiaikai-group.or.jp" }, "geometry": { "type": "Point", "coordinates": [ 129.683204, 33.1567259 ] } },
{ "type": "Feature", "properties": { "内容": "最勝寺内科医院　介護医療院【介護医療院】長崎県佐世保市光町1-18", "url": "https://www.kaigokensaku.mhlw.go.jp/42/index.php?action_kouhyou_detail_004_kani=true&JigyosyoCd=42B0200036-00&ServiceCd=550&Type=search", "url2": "saishoji_iin_clin@yahoo.co.jp" }, "geometry": { "type": "Point", "coordinates": [ 129.6517017, 33.2070288 ] } },
{ "type": "Feature", "properties": { "内容": "特定医療法人雄博会　千住介護医療院【介護医療院】長崎県佐世保市宮地町5番5号", "url": "https://www.kaigokensaku.mhlw.go.jp/42/index.php?action_kouhyou_detail_004_kani=true&JigyosyoCd=42B0200010-00&ServiceCd=550&Type=search", "url2": "http://www.1010hosp.or.jp/" }, "geometry": { "type": "Point", "coordinates": [ 129.722273, 33.1743616 ] } },
{ "type": "Feature", "properties": { "内容": "介護医療院　リハサポート【介護医療院】長崎県島原市湖南町6893-2", "url": "https://www.kaigokensaku.mhlw.go.jp/42/index.php?action_kouhyou_detail_004_kani=true&JigyosyoCd=42B0300018-00&ServiceCd=550&Type=search", "url2": "toyokai-medi.jp/" }, "geometry": { "type": "Point", "coordinates": [ 130.3683116, 32.7782645 ] } },
{ "type": "Feature", "properties": { "内容": "医療法人祐里会　あねがわ介護医療院【介護医療院】長崎県諫早市小野島町2378-2", "url": "https://www.kaigokensaku.mhlw.go.jp/42/index.php?action_kouhyou_detail_004_kani=true&JigyosyoCd=42B0400032-00&ServiceCd=550&Type=search", "url2": "https://anegawa‐hp.jp/" }, "geometry": { "type": "Point", "coordinates": [ 130.088434, 32.8510374 ] } },
{ "type": "Feature", "properties": { "内容": "介護医療院　恵愛荘【介護医療院】長崎県諫早市有喜町５９３番地１", "url": "https://www.kaigokensaku.mhlw.go.jp/42/index.php?action_kouhyou_detail_004_kani=true&JigyosyoCd=42B0400016-00&ServiceCd=550&Type=search", "url2": "http://uki-fukushimura.jp/keiaisou/" }, "geometry": { "type": "Point", "coordinates": [ 130.077774500000032, 32.7917008 ] } },
{ "type": "Feature", "properties": { "内容": "介護医療院　からこ【介護医療院】長崎県諫早市森山町唐比西1165番地介護医療院　からこ", "url": "https://www.kaigokensaku.mhlw.go.jp/42/index.php?action_kouhyou_detail_004_kani=true&JigyosyoCd=42B0400024-00&ServiceCd=550&Type=search", "url2": "http://karako-hp.jp/" }, "geometry": { "type": "Point", "coordinates": [ 130.124302022615012, 32.797081014211209 ] } },
{ "type": "Feature", "properties": { "内容": "国民健康保険　平戸市民病院　介護医療院【介護医療院】長崎県平戸市草積町1125番地12", "url": "https://www.kaigokensaku.mhlw.go.jp/42/index.php?action_kouhyou_detail_004_kani=true&JigyosyoCd=42B0700019-00&ServiceCd=550&Type=search", "url2": "https://hirado-municipal-hospital.com/" }, "geometry": { "type": "Point", "coordinates": [ 129.4654286, 33.2843607 ] } },
{ "type": "Feature", "properties": { "内容": "医療法人長愛会　菊地病院介護医療院【介護医療院】長崎県松浦市志佐町浦免１７６５－４４階", "url": "https://www.kaigokensaku.mhlw.go.jp/42/index.php?action_kouhyou_detail_004_kani=true&JigyosyoCd=42B0800017-00&ServiceCd=550&Type=search", "url2": "http://www.kikuchi-hp.com" }, "geometry": { "type": "Point", "coordinates": [ 129.704871592065388, 33.341343218506381 ] } },
{ "type": "Feature", "properties": { "内容": "医療法人　弘池会　介護医療院くちのつ【介護医療院】長崎県南島原市口之津町丁5615", "url": "https://www.kaigokensaku.mhlw.go.jp/42/index.php?action_kouhyou_detail_004_kani=true&JigyosyoCd=42B2500011-00&ServiceCd=550&Type=search", "url2": "http://ｗｗｗ.kouchikai.com" }, "geometry": { "type": "Point", "coordinates": [ 130.1941656, 32.6107701 ] } }
]
}
