{
"type": "FeatureCollection",
"name": "geo_42_中学校",
"crs": { "type": "name", "properties": { "name": "urn:ogc:def:crs:EPSG::6668" } },
"features": [
{ "type": "Feature", "properties": { "P29_001": "42201", "P29_002": "C142110000019", "P29_003": "16002", "P29_004": "長崎大学教育学部附属中学校", "P29_005": "長崎県長崎市文教町4-23", "P29_006": "1", "P29_007": "1", "P29_008": "00", "P29_009": null }, "geometry": { "type": "Point", "coordinates": [ 129.869349051448097, 32.788302828009506 ] } },
{ "type": "Feature", "properties": { "P29_001": "42201", "P29_002": "C142210000017", "P29_003": "16002", "P29_004": "長崎市立日見中学校", "P29_005": "長崎県長崎市界2-15-1", "P29_006": "3", "P29_007": "1", "P29_008": "00", "P29_009": null }, "geometry": { "type": "Point", "coordinates": [ 129.942250134202851, 32.755684635411512 ] } },
{ "type": "Feature", "properties": { "P29_001": "42201", "P29_002": "C142210000026", "P29_003": "16002", "P29_004": "長崎市立桜馬場中学校", "P29_005": "長崎県長崎市桜馬場2-2-1", "P29_006": "3", "P29_007": "1", "P29_008": "00", "P29_009": null }, "geometry": { "type": "Point", "coordinates": [ 129.890622291925752, 32.75415373838193 ] } },
{ "type": "Feature", "properties": { "P29_001": "42201", "P29_002": "C142210000035", "P29_003": "16002", "P29_004": "長崎市立片淵中学校", "P29_005": "長崎県長崎市片淵3-22-22", "P29_006": "3", "P29_007": "1", "P29_008": "00", "P29_009": null }, "geometry": { "type": "Point", "coordinates": [ 129.892275754246924, 32.758628154125219 ] } },
{ "type": "Feature", "properties": { "P29_001": "42201", "P29_002": "C142210000044", "P29_003": "16002", "P29_004": "長崎市立長崎中学校", "P29_005": "長崎県長崎市立山1-9-1", "P29_006": "3", "P29_007": "1", "P29_008": "00", "P29_009": null }, "geometry": { "type": "Point", "coordinates": [ 129.880843331868249, 32.756935850521586 ] } },
{ "type": "Feature", "properties": { "P29_001": "42201", "P29_002": "C142210000053", "P29_003": "16002", "P29_004": "長崎市立小島中学校", "P29_005": "長崎県長崎市上小島4-18-1", "P29_006": "3", "P29_007": "1", "P29_008": "00", "P29_009": null }, "geometry": { "type": "Point", "coordinates": [ 129.88299996324659, 32.733858237941696 ] } },
{ "type": "Feature", "properties": { "P29_001": "42201", "P29_002": "C142210000062", "P29_003": "16002", "P29_004": "長崎市立大浦中学校", "P29_005": "長崎県長崎市高丘2-6-1", "P29_006": "3", "P29_007": "1", "P29_008": "00", "P29_009": null }, "geometry": { "type": "Point", "coordinates": [ 129.88134230917629, 32.733240076444631 ] } },
{ "type": "Feature", "properties": { "P29_001": "42201", "P29_002": "C142210000071", "P29_003": "16002", "P29_004": "長崎市立梅香崎中学校", "P29_005": "長崎県長崎市大浦町5-26", "P29_006": "3", "P29_007": "1", "P29_008": "00", "P29_009": null }, "geometry": { "type": "Point", "coordinates": [ 129.872658810257889, 32.738103250785954 ] } },
{ "type": "Feature", "properties": { "P29_001": "42201", "P29_002": "C142210000080", "P29_003": "16002", "P29_004": "長崎市立戸町中学校", "P29_005": "長崎県長崎市新戸町2-1-36", "P29_006": "3", "P29_007": "1", "P29_008": "00", "P29_009": null }, "geometry": { "type": "Point", "coordinates": [ 129.866670328819112, 32.714212388031655 ] } },
{ "type": "Feature", "properties": { "P29_001": "42201", "P29_002": "C142210000099", "P29_003": "16002", "P29_004": "長崎市立土井首中学校", "P29_005": "長崎県長崎市江川町1", "P29_006": "3", "P29_007": "1", "P29_008": "00", "P29_009": null }, "geometry": { "type": "Point", "coordinates": [ 129.842313172968289, 32.680411354275861 ] } },
{ "type": "Feature", "properties": { "P29_001": "42201", "P29_002": "C142210000106", "P29_003": "16002", "P29_004": "長崎市立深堀中学校", "P29_005": "長崎県長崎市深堀町1-604", "P29_006": "3", "P29_007": "1", "P29_008": "00", "P29_009": null }, "geometry": { "type": "Point", "coordinates": [ 129.826748424816827, 32.680086193208211 ] } },
{ "type": "Feature", "properties": { "P29_001": "42201", "P29_002": "C142210000115", "P29_003": "16002", "P29_004": "長崎市立福田中学校", "P29_005": "長崎県長崎市福田本町1430-1", "P29_006": "3", "P29_007": "1", "P29_008": "00", "P29_009": null }, "geometry": { "type": "Point", "coordinates": [ 129.816347348365696, 32.74206443410084 ] } },
{ "type": "Feature", "properties": { "P29_001": "42201", "P29_002": "C142210000124", "P29_003": "16002", "P29_004": "長崎市立西泊中学校", "P29_005": "長崎県長崎市西泊町13-1", "P29_006": "3", "P29_007": "1", "P29_008": "00", "P29_009": null }, "geometry": { "type": "Point", "coordinates": [ 129.84414248246776, 32.732845793764774 ] } },
{ "type": "Feature", "properties": { "P29_001": "42201", "P29_002": "C142210000133", "P29_003": "16002", "P29_004": "長崎市立丸尾中学校", "P29_005": "長崎県長崎市大鳥町16-1", "P29_006": "3", "P29_007": "1", "P29_008": "00", "P29_009": null }, "geometry": { "type": "Point", "coordinates": [ 129.857984899370337, 32.749745468760906 ] } },
{ "type": "Feature", "properties": { "P29_001": "42201", "P29_002": "C142210000142", "P29_003": "16002", "P29_004": "長崎市立淵中学校", "P29_005": "長崎県長崎市梁川町21-5", "P29_006": "3", "P29_007": "1", "P29_008": "00", "P29_009": null }, "geometry": { "type": "Point", "coordinates": [ 129.858619129773359, 32.763880032058786 ] } },
{ "type": "Feature", "properties": { "P29_001": "42201", "P29_002": "C142210000151", "P29_003": "16002", "P29_004": "長崎市立緑が丘中学校", "P29_005": "長崎県長崎市緑が丘町10-1", "P29_006": "3", "P29_007": "1", "P29_008": "00", "P29_009": null }, "geometry": { "type": "Point", "coordinates": [ 129.855655217187746, 32.782372013058236 ] } },
{ "type": "Feature", "properties": { "P29_001": "42201", "P29_002": "C142210000160", "P29_003": "16002", "P29_004": "長崎市立岩屋中学校", "P29_005": "長崎県長崎市岩屋町37-1", "P29_006": "3", "P29_007": "1", "P29_008": "00", "P29_009": null }, "geometry": { "type": "Point", "coordinates": [ 129.84923600393239, 32.802385000421076 ] } },
{ "type": "Feature", "properties": { "P29_001": "42201", "P29_002": "C142210000179", "P29_003": "16002", "P29_004": "長崎市立西浦上中学校", "P29_005": "長崎県長崎市文教町4-10", "P29_006": "3", "P29_007": "1", "P29_008": "00", "P29_009": null }, "geometry": { "type": "Point", "coordinates": [ 129.867048336771575, 32.789378893223471 ] } },
{ "type": "Feature", "properties": { "P29_001": "42201", "P29_002": "C142210000188", "P29_003": "16002", "P29_004": "長崎市立山里中学校", "P29_005": "長崎県長崎市高尾町4-20", "P29_006": "3", "P29_007": "1", "P29_008": "00", "P29_009": null }, "geometry": { "type": "Point", "coordinates": [ 129.870893519525083, 32.778534575949891 ] } },
{ "type": "Feature", "properties": { "P29_001": "42201", "P29_002": "C142210000204", "P29_003": "16002", "P29_004": "長崎市立茂木中学校", "P29_005": "長崎県長崎市北浦町2018-24", "P29_006": "3", "P29_007": "1", "P29_008": "00", "P29_009": null }, "geometry": { "type": "Point", "coordinates": [ 129.912776384727692, 32.713631288646951 ] } },
{ "type": "Feature", "properties": { "P29_001": "42201", "P29_002": "C142210000213", "P29_003": "16002", "P29_004": "長崎市立日吉中学校", "P29_005": "長崎県長崎市飯香浦3478", "P29_006": "3", "P29_007": "1", "P29_008": "00", "P29_009": null }, "geometry": { "type": "Point", "coordinates": [ 129.9335058874114, 32.728491883723684 ] } },
{ "type": "Feature", "properties": { "P29_001": "42201", "P29_002": "C142210000231", "P29_003": "16002", "P29_004": "長崎市立東長崎中学校", "P29_005": "長崎県長崎市矢上町8-6", "P29_006": "3", "P29_007": "1", "P29_008": "00", "P29_009": null }, "geometry": { "type": "Point", "coordinates": [ 129.952397803729667, 32.7729232153483 ] } },
{ "type": "Feature", "properties": { "P29_001": "42201", "P29_002": "C142210000240", "P29_003": "16002", "P29_004": "長崎市立滑石中学校", "P29_005": "長崎県長崎市大園町2-1", "P29_006": "3", "P29_007": "1", "P29_008": "00", "P29_009": null }, "geometry": { "type": "Point", "coordinates": [ 129.839531515096667, 32.80545871649187 ] } },
{ "type": "Feature", "properties": { "P29_001": "42202", "P29_002": "C142210000259", "P29_003": "16002", "P29_004": "佐世保市立宮中学校", "P29_005": "長崎県佐世保市城間町338-1", "P29_006": "3", "P29_007": "1", "P29_008": "00", "P29_009": null }, "geometry": { "type": "Point", "coordinates": [ 129.81562829642553, 33.087798072043121 ] } },
{ "type": "Feature", "properties": { "P29_001": "42202", "P29_002": "C142210000268", "P29_003": "16002", "P29_004": "佐世保市立三川内中学校", "P29_005": "長崎県佐世保市新行江町957", "P29_006": "3", "P29_007": "1", "P29_008": "00", "P29_009": null }, "geometry": { "type": "Point", "coordinates": [ 129.833199719681801, 33.155460444093677 ] } },
{ "type": "Feature", "properties": { "P29_001": "42202", "P29_002": "C142210000277", "P29_003": "16002", "P29_004": "佐世保市立早岐中学校", "P29_005": "長崎県佐世保市陣の内町100", "P29_006": "3", "P29_007": "1", "P29_008": "00", "P29_009": null }, "geometry": { "type": "Point", "coordinates": [ 129.7971432170838, 33.143968713158564 ] } },
{ "type": "Feature", "properties": { "P29_001": "42202", "P29_002": "C142210000286", "P29_003": "16002", "P29_004": "佐世保市立東明中学校", "P29_005": "長崎県佐世保市江上町814", "P29_006": "3", "P29_007": "1", "P29_008": "00", "P29_009": null }, "geometry": { "type": "Point", "coordinates": [ 129.768953891548648, 33.108995535084745 ] } },
{ "type": "Feature", "properties": { "P29_001": "42202", "P29_002": "C142210000295", "P29_003": "16002", "P29_004": "佐世保市立日宇中学校", "P29_005": "長崎県佐世保市日宇町2181", "P29_006": "3", "P29_007": "1", "P29_008": "00", "P29_009": null }, "geometry": { "type": "Point", "coordinates": [ 129.763122997354458, 33.164626001719171 ] } },
{ "type": "Feature", "properties": { "P29_001": "42202", "P29_002": "C142210000302", "P29_003": "16002", "P29_004": "佐世保市立福石中学校", "P29_005": "長崎県佐世保市干尽町2-10", "P29_006": "3", "P29_007": "1", "P29_008": "00", "P29_009": null }, "geometry": { "type": "Point", "coordinates": [ 129.732654958657236, 33.153553792561866 ] } },
{ "type": "Feature", "properties": { "P29_001": "42202", "P29_002": "C142210000311", "P29_003": "16002", "P29_004": "佐世保市立山澄中学校", "P29_005": "長崎県佐世保市須田尾町232", "P29_006": "3", "P29_007": "1", "P29_008": "00", "P29_009": null }, "geometry": { "type": "Point", "coordinates": [ 129.735883845775874, 33.167158210685649 ] } },
{ "type": "Feature", "properties": { "P29_001": "42202", "P29_002": "C142210000320", "P29_003": "16002", "P29_004": "佐世保市立清水中学校", "P29_005": "長崎県佐世保市万徳町9-7", "P29_006": "3", "P29_007": "1", "P29_008": "00", "P29_009": null }, "geometry": { "type": "Point", "coordinates": [ 129.715973284762612, 33.184630358483531 ] } },
{ "type": "Feature", "properties": { "P29_001": "42202", "P29_002": "C142210000339", "P29_003": "16002", "P29_004": "佐世保市立光海中学校", "P29_005": "長崎県佐世保市金比良町1-15", "P29_006": "3", "P29_007": "1", "P29_008": "00", "P29_009": null }, "geometry": { "type": "Point", "coordinates": [ 129.708543999737913, 33.168901996903507 ] } },
{ "type": "Feature", "properties": { "P29_001": "42202", "P29_002": "C142210000348", "P29_003": "16002", "P29_004": "佐世保市立愛宕中学校", "P29_005": "長崎県佐世保市赤崎町483-2", "P29_006": "3", "P29_007": "1", "P29_008": "00", "P29_009": null }, "geometry": { "type": "Point", "coordinates": [ 129.697279078446684, 33.156715581084605 ] } },
{ "type": "Feature", "properties": { "P29_001": "42202", "P29_002": "C142210000357", "P29_003": "16002", "P29_004": "佐世保市立相浦中学校", "P29_005": "長崎県佐世保市川下町277", "P29_006": "3", "P29_007": "1", "P29_008": "00", "P29_009": null }, "geometry": { "type": "Point", "coordinates": [ 129.668411758838062, 33.189746399215259 ] } },
{ "type": "Feature", "properties": { "P29_001": "42202", "P29_002": "C142210000366", "P29_003": "16002", "P29_004": "佐世保市立中里中学校", "P29_005": "長崎県佐世保市中里町905", "P29_006": "3", "P29_007": "1", "P29_008": "00", "P29_009": null }, "geometry": { "type": "Point", "coordinates": [ 129.689920996701261, 33.204272760398354 ] } },
{ "type": "Feature", "properties": { "P29_001": "42202", "P29_002": "C142210000375", "P29_003": "16002", "P29_004": "佐世保市立大野中学校", "P29_005": "長崎県佐世保市松瀬町838", "P29_006": "3", "P29_007": "1", "P29_008": "00", "P29_009": null }, "geometry": { "type": "Point", "coordinates": [ 129.727100278567406, 33.21069857320694 ] } },
{ "type": "Feature", "properties": { "P29_001": "42202", "P29_002": "C142210000384", "P29_003": "16002", "P29_004": "佐世保市立柚木中学校", "P29_005": "長崎県佐世保市柚木町2063", "P29_006": "3", "P29_007": "1", "P29_008": "00", "P29_009": null }, "geometry": { "type": "Point", "coordinates": [ 129.766014585256642, 33.2116866659793 ] } },
{ "type": "Feature", "properties": { "P29_001": "42203", "P29_002": "C142210000393", "P29_003": "16002", "P29_004": "島原市立第一中学校", "P29_005": "長崎県島原市城内1-1222", "P29_006": "3", "P29_007": "1", "P29_008": "00", "P29_009": null }, "geometry": { "type": "Point", "coordinates": [ 130.36339833263753, 32.793395239704218 ] } },
{ "type": "Feature", "properties": { "P29_001": "42203", "P29_002": "C142210000400", "P29_003": "16002", "P29_004": "島原市立第二中学校", "P29_005": "長崎県島原市新山3-8916", "P29_006": "3", "P29_007": "1", "P29_008": "00", "P29_009": null }, "geometry": { "type": "Point", "coordinates": [ 130.363789348865396, 32.772297781203683 ] } },
{ "type": "Feature", "properties": { "P29_001": "42203", "P29_002": "C142210000419", "P29_003": "16002", "P29_004": "島原市立第三中学校", "P29_005": "長崎県島原市梅園町丁2898", "P29_006": "3", "P29_007": "1", "P29_008": "00", "P29_009": null }, "geometry": { "type": "Point", "coordinates": [ 130.364618145056113, 32.753775760322469 ] } },
{ "type": "Feature", "properties": { "P29_001": "42203", "P29_002": "C142210000428", "P29_003": "16002", "P29_004": "島原市立三会中学校", "P29_005": "長崎県島原市下宮町甲2511-2", "P29_006": "3", "P29_007": "1", "P29_008": "00", "P29_009": null }, "geometry": { "type": "Point", "coordinates": [ 130.344707499889836, 32.813717957719575 ] } },
{ "type": "Feature", "properties": { "P29_001": "42204", "P29_002": "C142210000437", "P29_003": "16002", "P29_004": "諫早市立諫早中学校", "P29_005": "長崎県諫早市西郷町930-1", "P29_006": "3", "P29_007": "1", "P29_008": "00", "P29_009": null }, "geometry": { "type": "Point", "coordinates": [ 130.059199825527514, 32.834798817165378 ] } },
{ "type": "Feature", "properties": { "P29_001": "42204", "P29_002": "C142210000446", "P29_003": "16002", "P29_004": "諫早市立北諫早中学校", "P29_005": "長崎県諫早市城見町35-1", "P29_006": "3", "P29_007": "1", "P29_008": "00", "P29_009": null }, "geometry": { "type": "Point", "coordinates": [ 130.047861205732659, 32.85374945774857 ] } },
{ "type": "Feature", "properties": { "P29_001": "42204", "P29_002": "C142210000455", "P29_003": "16002", "P29_004": "諫早市立小野中学校", "P29_005": "長崎県諫早市小野町1320-1", "P29_006": "3", "P29_007": "1", "P29_008": "00", "P29_009": null }, "geometry": { "type": "Point", "coordinates": [ 130.095126989675862, 32.834879622603438 ] } },
{ "type": "Feature", "properties": { "P29_001": "42204", "P29_002": "C142210000464", "P29_003": "16002", "P29_004": "諫早市立有喜中学校", "P29_005": "長崎県諫早市有喜町700", "P29_006": "3", "P29_007": "1", "P29_008": "00", "P29_009": null }, "geometry": { "type": "Point", "coordinates": [ 130.075868883467592, 32.791841101567108 ] } },
{ "type": "Feature", "properties": { "P29_001": "42204", "P29_002": "C142210000473", "P29_003": "16002", "P29_004": "諫早市立西諫早中学校", "P29_005": "長崎県諫早市馬渡町4", "P29_006": "3", "P29_007": "1", "P29_008": "00", "P29_009": null }, "geometry": { "type": "Point", "coordinates": [ 130.026210169375929, 32.843328003961972 ] } },
{ "type": "Feature", "properties": { "P29_001": "42204", "P29_002": "C142210000482", "P29_003": "16002", "P29_004": "諫早市立長田中学校", "P29_005": "長崎県諫早市長田町2694-1", "P29_006": "3", "P29_007": "1", "P29_008": "00", "P29_009": null }, "geometry": { "type": "Point", "coordinates": [ 130.076920745687829, 32.86530154734848 ] } },
{ "type": "Feature", "properties": { "P29_001": "42205", "P29_002": "C142210000491", "P29_003": "16002", "P29_004": "大村市立玖島中学校", "P29_005": "長崎県大村市久原1-265", "P29_006": "3", "P29_007": "1", "P29_008": "00", "P29_009": null }, "geometry": { "type": "Point", "coordinates": [ 129.963118771812731, 32.892627340289486 ] } },
{ "type": "Feature", "properties": { "P29_001": "42205", "P29_002": "C142210000507", "P29_003": "16002", "P29_004": "大村市立西大村中学校", "P29_005": "長崎県大村市松並1-116-3", "P29_006": "3", "P29_007": "1", "P29_008": "00", "P29_009": null }, "geometry": { "type": "Point", "coordinates": [ 129.952117564721618, 32.920858582760594 ] } },
{ "type": "Feature", "properties": { "P29_001": "42205", "P29_002": "C142210000516", "P29_003": "16002", "P29_004": "大村市立萱瀬中学校", "P29_005": "長崎県大村市田下町510", "P29_006": "3", "P29_007": "1", "P29_008": "00", "P29_009": null }, "geometry": { "type": "Point", "coordinates": [ 129.997418981007883, 32.950137620676166 ] } },
{ "type": "Feature", "properties": { "P29_001": "42205", "P29_002": "C142210000525", "P29_003": "16002", "P29_004": "大村市立郡中学校", "P29_005": "長崎県大村市沖田町69", "P29_006": "3", "P29_007": "1", "P29_008": "00", "P29_009": null }, "geometry": { "type": "Point", "coordinates": [ 129.942114933418111, 32.958224534703291 ] } },
{ "type": "Feature", "properties": { "P29_001": "42211", "P29_002": "C142210000534", "P29_003": "16002", "P29_004": "五島市立福江中学校", "P29_005": "長崎県五島市松山町75-4", "P29_006": "3", "P29_007": "1", "P29_008": "00", "P29_009": null }, "geometry": { "type": "Point", "coordinates": [ 128.840173117613489, 32.700972041486864 ] } },
{ "type": "Feature", "properties": { "P29_001": "42211", "P29_002": "C142210000543", "P29_003": "16002", "P29_004": "五島市立奥浦中学校", "P29_005": "長崎県五島市奥浦町1415-1", "P29_006": "3", "P29_007": "1", "P29_008": "00", "P29_009": null }, "geometry": { "type": "Point", "coordinates": [ 128.826113721234861, 32.738766469912719 ] } },
{ "type": "Feature", "properties": { "P29_001": "42211", "P29_002": "C142210000552", "P29_003": "16002", "P29_004": "五島市立崎山中学校", "P29_005": "長崎県五島市下崎山町396-3", "P29_006": "3", "P29_007": "1", "P29_008": "00", "P29_009": null }, "geometry": { "type": "Point", "coordinates": [ 128.880080540727278, 32.660132081604054 ] } },
{ "type": "Feature", "properties": { "P29_001": "42211", "P29_002": "C142210000561", "P29_003": "16002", "P29_004": "五島市立翁頭中学校", "P29_005": "長崎県五島市堤町1765", "P29_006": "3", "P29_007": "1", "P29_008": "00", "P29_009": null }, "geometry": { "type": "Point", "coordinates": [ 128.816861843590033, 32.672044533549887 ] } },
{ "type": "Feature", "properties": { "P29_001": "42211", "P29_002": "C142210000570", "P29_003": "16002", "P29_004": "五島市立福江中学校椛島分校", "P29_005": "長崎県五島市伊福貴町931-2", "P29_006": "3", "P29_007": "1", "P29_008": "00", "P29_009": null }, "geometry": { "type": "Point", "coordinates": [ 128.989581253756228, 32.757297110768747 ] } },
{ "type": "Feature", "properties": { "P29_001": "42211", "P29_002": "C142210000589", "P29_003": "16002", "P29_004": "五島市立久賀中学校", "P29_005": "長崎県五島市久賀町245-8", "P29_006": "3", "P29_007": "1", "P29_008": "00", "P29_009": null }, "geometry": { "type": "Point", "coordinates": [ 128.869451485299209, 32.791854310528677 ] } },
{ "type": "Feature", "properties": { "P29_001": "42207", "P29_002": "C142210000598", "P29_003": "16002", "P29_004": "平戸市立平戸中学校", "P29_005": "長崎県平戸市鏡川町42", "P29_006": "3", "P29_007": "1", "P29_008": "00", "P29_009": null }, "geometry": { "type": "Point", "coordinates": [ 129.550313545921995, 33.373157025827211 ] } },
{ "type": "Feature", "properties": { "P29_001": "42207", "P29_002": "C142210000605", "P29_003": "16002", "P29_004": "平戸市立度島中学校", "P29_005": "長崎県平戸市度島町1082", "P29_006": "3", "P29_007": "1", "P29_008": "00", "P29_009": null }, "geometry": { "type": "Point", "coordinates": [ 129.523682264686357, 33.438390401396681 ] } },
{ "type": "Feature", "properties": { "P29_001": "42207", "P29_002": "C142210000614", "P29_003": "16002", "P29_004": "平戸市立中野中学校", "P29_005": "長崎県平戸市中野大久保町1096", "P29_006": "3", "P29_007": "1", "P29_008": "00", "P29_009": null }, "geometry": { "type": "Point", "coordinates": [ 129.510766237758531, 33.338545153001107 ] } },
{ "type": "Feature", "properties": { "P29_001": "42207", "P29_002": "C142210000623", "P29_003": "16002", "P29_004": "平戸市立中部中学校", "P29_005": "長崎県平戸市紐差町363", "P29_006": "3", "P29_007": "1", "P29_008": "00", "P29_009": null }, "geometry": { "type": "Point", "coordinates": [ 129.472430305597641, 33.285097656156942 ] } },
{ "type": "Feature", "properties": { "P29_001": "42207", "P29_002": "C142210000632", "P29_003": "16002", "P29_004": "平戸市立南部中学校", "P29_005": "長崎県平戸市津吉町241", "P29_006": "3", "P29_007": "1", "P29_008": "00", "P29_009": null }, "geometry": { "type": "Point", "coordinates": [ 129.428635693687625, 33.22182771604475 ] } },
{ "type": "Feature", "properties": { "P29_001": "42208", "P29_002": "C142210000650", "P29_003": "16002", "P29_004": "松浦市立御厨中学校", "P29_005": "長崎県松浦市御厨町里免577", "P29_006": "3", "P29_007": "1", "P29_008": "00", "P29_009": null }, "geometry": { "type": "Point", "coordinates": [ 129.666092605644224, 33.362998971834351 ] } },
{ "type": "Feature", "properties": { "P29_001": "42208", "P29_002": "C142210000669", "P29_003": "16002", "P29_004": "松浦市立青島中学校", "P29_005": "長崎県松浦市星鹿町青島免701", "P29_006": "3", "P29_007": "1", "P29_008": "00", "P29_009": null }, "geometry": { "type": "Point", "coordinates": [ 129.686169743956725, 33.413377288915527 ] } },
{ "type": "Feature", "properties": { "P29_001": "42208", "P29_002": "C142210000678", "P29_003": "16002", "P29_004": "松浦市立志佐中学校", "P29_005": "長崎県松浦市志佐町浦免808", "P29_006": "3", "P29_007": "1", "P29_008": "00", "P29_009": null }, "geometry": { "type": "Point", "coordinates": [ 129.711331583374943, 33.339898820732351 ] } },
{ "type": "Feature", "properties": { "P29_001": "42208", "P29_002": "C142210000687", "P29_003": "16002", "P29_004": "松浦市立調川中学校", "P29_005": "長崎県松浦市調川町下免1009", "P29_006": "3", "P29_007": "1", "P29_008": "00", "P29_009": null }, "geometry": { "type": "Point", "coordinates": [ 129.732751667858849, 33.352780212373744 ] } },
{ "type": "Feature", "properties": { "P29_001": "42208", "P29_002": "C142210000696", "P29_003": "16002", "P29_004": "松浦市立今福中学校", "P29_005": "長崎県松浦市今福町浦免431-5", "P29_006": "3", "P29_007": "1", "P29_008": "00", "P29_009": null }, "geometry": { "type": "Point", "coordinates": [ 129.76621677103995, 33.353037981833978 ] } },
{ "type": "Feature", "properties": { "P29_001": "42201", "P29_002": "C142210000703", "P29_003": "16002", "P29_004": "長崎市立香焼中学校", "P29_005": "長崎県長崎市香焼町563-10", "P29_006": "3", "P29_007": "1", "P29_008": "00", "P29_009": null }, "geometry": { "type": "Point", "coordinates": [ 129.812796560752957, 32.688210144182314 ] } },
{ "type": "Feature", "properties": { "P29_001": "42201", "P29_002": "C142210000712", "P29_003": "16002", "P29_004": "長崎市立伊王島中学校", "P29_005": "長崎県長崎市伊王島町1-甲3273", "P29_006": "3", "P29_007": "1", "P29_008": "00", "P29_009": null }, "geometry": { "type": "Point", "coordinates": [ 129.777277337750348, 32.705472334746958 ] } },
{ "type": "Feature", "properties": { "P29_001": "42201", "P29_002": "C142210000721", "P29_003": "16002", "P29_004": "長崎市立高島中学校", "P29_005": "長崎県長崎市高島町1947-2", "P29_006": "3", "P29_007": "1", "P29_008": "00", "P29_009": null }, "geometry": { "type": "Point", "coordinates": [ 129.752295170461821, 32.662095305882239 ] } },
{ "type": "Feature", "properties": { "P29_001": "42201", "P29_002": "C142210000730", "P29_003": "16002", "P29_004": "長崎市立野母崎中学校", "P29_005": "長崎県長崎市野母町1", "P29_006": "3", "P29_007": "1", "P29_008": "00", "P29_009": null }, "geometry": { "type": "Point", "coordinates": [ 129.759657401699911, 32.583240203879086 ] } },
{ "type": "Feature", "properties": { "P29_001": "42201", "P29_002": "C142210000749", "P29_003": "16002", "P29_004": "長崎市立三和中学校", "P29_005": "長崎県長崎市為石町2600", "P29_006": "3", "P29_007": "1", "P29_008": "00", "P29_009": null }, "geometry": { "type": "Point", "coordinates": [ 129.834349714932927, 32.644373356329083 ] } },
{ "type": "Feature", "properties": { "P29_001": "42204", "P29_002": "C142210000758", "P29_003": "16002", "P29_004": "諫早市立喜々津中学校", "P29_005": "長崎県諫早市多良見町中里30", "P29_006": "3", "P29_007": "1", "P29_008": "00", "P29_009": null }, "geometry": { "type": "Point", "coordinates": [ 129.974688018831358, 32.826351103832373 ] } },
{ "type": "Feature", "properties": { "P29_001": "42204", "P29_002": "C142210000767", "P29_003": "16002", "P29_004": "諫早市立琴海中学校", "P29_005": "長崎県諫早市多良見町舟津1870", "P29_006": "3", "P29_007": "1", "P29_008": "00", "P29_009": null }, "geometry": { "type": "Point", "coordinates": [ 129.931042672777295, 32.855521949942059 ] } },
{ "type": "Feature", "properties": { "P29_001": "42307", "P29_002": "C142210000776", "P29_003": "16002", "P29_004": "長与町立長与中学校", "P29_005": "長崎県西彼杵郡長与町丸田郷194", "P29_006": "3", "P29_007": "1", "P29_008": "00", "P29_009": null }, "geometry": { "type": "Point", "coordinates": [ 129.880430238194776, 32.826372683423052 ] } },
{ "type": "Feature", "properties": { "P29_001": "42308", "P29_002": "C142210000785", "P29_003": "16002", "P29_004": "時津町立時津中学校", "P29_005": "長崎県西彼杵郡時津町浜田郷530-1", "P29_006": "3", "P29_007": "1", "P29_008": "00", "P29_009": null }, "geometry": { "type": "Point", "coordinates": [ 129.854506918869419, 32.835277952884837 ] } },
{ "type": "Feature", "properties": { "P29_001": "42201", "P29_002": "C142210000794", "P29_003": "16002", "P29_004": "長崎市立琴海中学校", "P29_005": "長崎県長崎市琴海戸根町1058-2", "P29_006": "3", "P29_007": "1", "P29_008": "00", "P29_009": null }, "geometry": { "type": "Point", "coordinates": [ 129.782110000969823, 32.899025003613239 ] } },
{ "type": "Feature", "properties": { "P29_001": "42212", "P29_002": "C142210000801", "P29_003": "16002", "P29_004": "西海市立西彼中学校", "P29_005": "長崎県西海市西彼町喰場郷1165-1", "P29_006": "3", "P29_007": "1", "P29_008": "00", "P29_009": null }, "geometry": { "type": "Point", "coordinates": [ 129.762108592857999, 32.993568765733649 ] } },
{ "type": "Feature", "properties": { "P29_001": "42212", "P29_002": "C142210000810", "P29_003": "16002", "P29_004": "西海市立江島中学校", "P29_005": "長崎県西海市崎戸町江島203-1", "P29_006": "3", "P29_007": "1", "P29_008": "00", "P29_009": null }, "geometry": { "type": "Point", "coordinates": [ 129.348736710302262, 33.003560161227483 ] } },
{ "type": "Feature", "properties": { "P29_001": "42212", "P29_002": "C142210000829", "P29_003": "16002", "P29_004": "西海市立平島中学校", "P29_005": "長崎県西海市崎戸町平島734", "P29_006": "3", "P29_007": "1", "P29_008": "00", "P29_009": null }, "geometry": { "type": "Point", "coordinates": [ 129.239672367558143, 32.999970422050104 ] } },
{ "type": "Feature", "properties": { "P29_001": "42212", "P29_002": "C142210000838", "P29_003": "16002", "P29_004": "西海市立大瀬戸中学校", "P29_005": "長崎県西海市大瀬戸町瀬戸樫浦郷1590", "P29_006": "3", "P29_007": "1", "P29_008": "00", "P29_009": null }, "geometry": { "type": "Point", "coordinates": [ 129.652860349430085, 32.940280655979954 ] } },
{ "type": "Feature", "properties": { "P29_001": "42201", "P29_002": "C142210000847", "P29_003": "16002", "P29_004": "長崎市立池島中学校", "P29_005": "長崎県長崎市池島町1522", "P29_006": "3", "P29_007": "1", "P29_008": "00", "P29_009": null }, "geometry": { "type": "Point", "coordinates": [ 129.595664286376604, 32.883662932266844 ] } },
{ "type": "Feature", "properties": { "P29_001": "42201", "P29_002": "C142210000856", "P29_003": "16002", "P29_004": "長崎市立三重中学校", "P29_005": "長崎県長崎市三京町811-5", "P29_006": "3", "P29_007": "1", "P29_008": "00", "P29_009": null }, "geometry": { "type": "Point", "coordinates": [ 129.756375532771671, 32.823659302837889 ] } },
{ "type": "Feature", "properties": { "P29_001": "42322", "P29_002": "C142210000865", "P29_003": "16002", "P29_004": "川棚町立川棚中学校", "P29_005": "長崎県東彼杵郡川棚町中組郷1370-3", "P29_006": "3", "P29_007": "1", "P29_008": "00", "P29_009": null }, "geometry": { "type": "Point", "coordinates": [ 129.861466678052693, 33.074527330744857 ] } },
{ "type": "Feature", "properties": { "P29_001": "42323", "P29_002": "C142210000874", "P29_003": "16002", "P29_004": "波佐見町立波佐見中学校", "P29_005": "長崎県東彼杵郡波佐見町折敷瀬郷1999", "P29_006": "3", "P29_007": "1", "P29_008": "00", "P29_009": null }, "geometry": { "type": "Point", "coordinates": [ 129.896625980910045, 33.140755687471497 ] } },
{ "type": "Feature", "properties": { "P29_001": "42204", "P29_002": "C142210000883", "P29_003": "16002", "P29_004": "諫早市立森山中学校", "P29_005": "長崎県諫早市森山町下井牟田455-2", "P29_006": "3", "P29_007": "1", "P29_008": "00", "P29_009": null }, "geometry": { "type": "Point", "coordinates": [ 130.115449580460904, 32.823925047260296 ] } },
{ "type": "Feature", "properties": { "P29_001": "42204", "P29_002": "C142210000892", "P29_003": "16002", "P29_004": "諫早市立飯盛中学校", "P29_005": "長崎県諫早市飯盛町平古場60", "P29_006": "3", "P29_007": "1", "P29_008": "00", "P29_009": null }, "geometry": { "type": "Point", "coordinates": [ 130.017530365180448, 32.782290207496956 ] } },
{ "type": "Feature", "properties": { "P29_001": "42204", "P29_002": "C142210000909", "P29_003": "16002", "P29_004": "諫早市立高来中学校", "P29_005": "長崎県諫早市高来町小峰274", "P29_006": "3", "P29_007": "1", "P29_008": "00", "P29_009": null }, "geometry": { "type": "Point", "coordinates": [ 130.126822626101841, 32.904223703551928 ] } },
{ "type": "Feature", "properties": { "P29_001": "42204", "P29_002": "C142210000918", "P29_003": "16002", "P29_004": "諫早市立小長井中学校", "P29_005": "長崎県諫早市小長井町小川原浦865", "P29_006": "3", "P29_007": "1", "P29_008": "00", "P29_009": null }, "geometry": { "type": "Point", "coordinates": [ 130.183582958925001, 32.923584440470478 ] } },
{ "type": "Feature", "properties": { "P29_001": "42203", "P29_002": "C142210000927", "P29_003": "16002", "P29_004": "島原市立有明中学校", "P29_005": "長崎県島原市有明町大三東戊1535-2", "P29_006": "3", "P29_007": "1", "P29_008": "00", "P29_009": null }, "geometry": { "type": "Point", "coordinates": [ 130.331673599736689, 32.848452011445339 ] } },
{ "type": "Feature", "properties": { "P29_001": "42213", "P29_002": "C142210000936", "P29_003": "16002", "P29_004": "雲仙市立国見中学校", "P29_005": "長崎県雲仙市国見町土黒乙370", "P29_006": "3", "P29_007": "1", "P29_008": "00", "P29_009": null }, "geometry": { "type": "Point", "coordinates": [ 130.288239790504974, 32.866593307717594 ] } },
{ "type": "Feature", "properties": { "P29_001": "42213", "P29_002": "C142210000945", "P29_003": "16002", "P29_004": "雲仙市立瑞穂中学校", "P29_005": "長崎県雲仙市瑞穂町西郷辛1135-1", "P29_006": "3", "P29_007": "1", "P29_008": "00", "P29_009": null }, "geometry": { "type": "Point", "coordinates": [ 130.23905255158806, 32.864507516216648 ] } },
{ "type": "Feature", "properties": { "P29_001": "42213", "P29_002": "C142210000954", "P29_003": "16002", "P29_004": "雲仙市立吾妻中学校", "P29_005": "長崎県雲仙市吾妻町大木場名190-1", "P29_006": "3", "P29_007": "1", "P29_008": "00", "P29_009": null }, "geometry": { "type": "Point", "coordinates": [ 130.193606822098275, 32.837170634033022 ] } },
{ "type": "Feature", "properties": { "P29_001": "42213", "P29_002": "C142210000963", "P29_003": "16002", "P29_004": "雲仙市立愛野中学校", "P29_005": "長崎県雲仙市愛野町乙1674", "P29_006": "3", "P29_007": "1", "P29_008": "00", "P29_009": null }, "geometry": { "type": "Point", "coordinates": [ 130.152714058583825, 32.812509114037226 ] } },
{ "type": "Feature", "properties": { "P29_001": "42213", "P29_002": "C142210000972", "P29_003": "16002", "P29_004": "雲仙市立千々石中学校", "P29_005": "長崎県雲仙市千々石町己305", "P29_006": "3", "P29_007": "1", "P29_008": "00", "P29_009": null }, "geometry": { "type": "Point", "coordinates": [ 130.205342603252831, 32.787309497988552 ] } },
{ "type": "Feature", "properties": { "P29_001": "42213", "P29_002": "C142210000981", "P29_003": "16002", "P29_004": "雲仙市立小浜中学校", "P29_005": "長崎県雲仙市小浜町南本町290", "P29_006": "3", "P29_007": "1", "P29_008": "00", "P29_009": null }, "geometry": { "type": "Point", "coordinates": [ 130.210083033624414, 32.724780030974564 ] } },
{ "type": "Feature", "properties": { "P29_001": "42213", "P29_002": "C142210000990", "P29_003": "16002", "P29_004": "雲仙市立南串中学校", "P29_005": "長崎県雲仙市南串山町丙9705", "P29_006": "3", "P29_007": "1", "P29_008": "00", "P29_009": null }, "geometry": { "type": "Point", "coordinates": [ 130.149027247175411, 32.680545706532044 ] } },
{ "type": "Feature", "properties": { "P29_001": "42214", "P29_002": "C142210001007", "P29_003": "16002", "P29_004": "南島原市立加津佐中学校", "P29_005": "長崎県南島原市加津佐町己3370", "P29_006": "3", "P29_007": "1", "P29_008": "00", "P29_009": null }, "geometry": { "type": "Point", "coordinates": [ 130.16573603410211, 32.633212217483539 ] } },
{ "type": "Feature", "properties": { "P29_001": "42214", "P29_002": "C142210001016", "P29_003": "16002", "P29_004": "南島原市立口之津中学校", "P29_005": "長崎県南島原市口之津町丙3476", "P29_006": "3", "P29_007": "1", "P29_008": "00", "P29_009": null }, "geometry": { "type": "Point", "coordinates": [ 130.185131446570921, 32.616541595299331 ] } },
{ "type": "Feature", "properties": { "P29_001": "42214", "P29_002": "C142210001025", "P29_003": "16002", "P29_004": "南島原市立南有馬中学校", "P29_005": "長崎県南島原市南有馬町乙856-5", "P29_006": "3", "P29_007": "1", "P29_008": "00", "P29_009": null }, "geometry": { "type": "Point", "coordinates": [ 130.249198997584642, 32.627583999950119 ] } },
{ "type": "Feature", "properties": { "P29_001": "42214", "P29_002": "C142210001034", "P29_003": "16002", "P29_004": "南島原市立北有馬中学校", "P29_005": "長崎県南島原市北有馬町丁246-3", "P29_006": "3", "P29_007": "1", "P29_008": "00", "P29_009": null }, "geometry": { "type": "Point", "coordinates": [ 130.238927475100439, 32.655476438415633 ] } },
{ "type": "Feature", "properties": { "P29_001": "42214", "P29_002": "C142210001043", "P29_003": "16002", "P29_004": "南島原市立西有家中学校", "P29_005": "長崎県南島原市西有家町須川91", "P29_006": "3", "P29_007": "1", "P29_008": "00", "P29_009": null }, "geometry": { "type": "Point", "coordinates": [ 130.298218546451039, 32.655302306256402 ] } },
{ "type": "Feature", "properties": { "P29_001": "42214", "P29_002": "C142210001052", "P29_003": "16002", "P29_004": "南島原市立有家中学校", "P29_005": "長崎県南島原市有家町山川344", "P29_006": "3", "P29_007": "1", "P29_008": "00", "P29_009": null }, "geometry": { "type": "Point", "coordinates": [ 130.313575619314292, 32.662253877250699 ] } },
{ "type": "Feature", "properties": { "P29_001": "42214", "P29_002": "C142210001061", "P29_003": "16002", "P29_004": "南島原市立布津中学校", "P29_005": "長崎県南島原市布津町乙1653", "P29_006": "3", "P29_007": "1", "P29_008": "00", "P29_009": null }, "geometry": { "type": "Point", "coordinates": [ 130.355569489041812, 32.691841063213339 ] } },
{ "type": "Feature", "properties": { "P29_001": "42214", "P29_002": "C142210001070", "P29_003": "16002", "P29_004": "南島原市立深江中学校", "P29_005": "長崎県南島原市深江町丁3179", "P29_006": "3", "P29_007": "1", "P29_008": "00", "P29_009": null }, "geometry": { "type": "Point", "coordinates": [ 130.354484771735116, 32.723799321261005 ] } },
{ "type": "Feature", "properties": { "P29_001": "42207", "P29_002": "C142210001089", "P29_003": "16002", "P29_004": "平戸市立大島中学校", "P29_005": "長崎県平戸市大島村前平2037-1", "P29_006": "3", "P29_007": "1", "P29_008": "00", "P29_009": null }, "geometry": { "type": "Point", "coordinates": [ 129.549122664350364, 33.481911940969518 ] } },
{ "type": "Feature", "properties": { "P29_001": "42207", "P29_002": "C142210001098", "P29_003": "16002", "P29_004": "平戸市立生月中学校", "P29_005": "長崎県平戸市生月町山田免2451-1", "P29_006": "3", "P29_007": "1", "P29_008": "00", "P29_009": null }, "geometry": { "type": "Point", "coordinates": [ 129.420438439189866, 33.376234939805173 ] } },
{ "type": "Feature", "properties": { "P29_001": "42383", "P29_002": "C142210001105", "P29_003": "16002", "P29_004": "小値賀町立小値賀中学校", "P29_005": "長崎県北松浦郡小値賀町中村郷字免の下71-2", "P29_006": "3", "P29_007": "1", "P29_008": "00", "P29_009": null }, "geometry": { "type": "Point", "coordinates": [ 129.060012786291026, 33.199901844083023 ] } },
{ "type": "Feature", "properties": { "P29_001": "42202", "P29_002": "C142210001114", "P29_003": "16002", "P29_004": "佐世保市立宇久中学校", "P29_005": "長崎県佐世保市宇久町平2303", "P29_006": "3", "P29_007": "1", "P29_008": "00", "P29_009": null }, "geometry": { "type": "Point", "coordinates": [ 129.130890958117419, 33.267470455722467 ] } },
{ "type": "Feature", "properties": { "P29_001": "42207", "P29_002": "C142210001123", "P29_003": "16002", "P29_004": "平戸市立田平中学校", "P29_005": "長崎県平戸市田平町荻田免20", "P29_006": "3", "P29_007": "1", "P29_008": "00", "P29_009": null }, "geometry": { "type": "Point", "coordinates": [ 129.593687446235919, 33.346457172996708 ] } },
{ "type": "Feature", "properties": { "P29_001": "42208", "P29_002": "C142210001132", "P29_003": "16002", "P29_004": "松浦市立福島中学校", "P29_005": "長崎県松浦市塩浜免2953-1", "P29_006": "3", "P29_007": "1", "P29_008": "00", "P29_009": null }, "geometry": { "type": "Point", "coordinates": [ 129.822331247508856, 33.366134727165196 ] } },
{ "type": "Feature", "properties": { "P29_001": "42208", "P29_002": "C142210001141", "P29_003": "16002", "P29_004": "松浦市立鷹島中学校", "P29_005": "長崎県松浦市鷹島町中通免1974", "P29_006": "3", "P29_007": "1", "P29_008": "00", "P29_009": null }, "geometry": { "type": "Point", "coordinates": [ 129.758002545344397, 33.43582963456646 ] } },
{ "type": "Feature", "properties": { "P29_001": "42202", "P29_002": "C142210001150", "P29_003": "16002", "P29_004": "佐世保市立江迎中学校", "P29_005": "長崎県佐世保市江迎町乱橋584", "P29_006": "3", "P29_007": "1", "P29_008": "00", "P29_009": null }, "geometry": { "type": "Point", "coordinates": [ 129.63688842947991, 33.296669497424375 ] } },
{ "type": "Feature", "properties": { "P29_001": "42202", "P29_002": "C142210001169", "P29_003": "16002", "P29_004": "佐世保市立鹿町中学校", "P29_005": "長崎県佐世保市鹿町町下歌ヶ浦1-16", "P29_006": "3", "P29_007": "1", "P29_008": "00", "P29_009": null }, "geometry": { "type": "Point", "coordinates": [ 129.590322150224637, 33.278538196119662 ] } },
{ "type": "Feature", "properties": { "P29_001": "42202", "P29_002": "C142210001178", "P29_003": "16002", "P29_004": "佐世保市立小佐々中学校", "P29_005": "長崎県佐世保市小佐々町西川内132", "P29_006": "3", "P29_007": "1", "P29_008": "00", "P29_009": null }, "geometry": { "type": "Point", "coordinates": [ 129.599477141014518, 33.213948905170902 ] } },
{ "type": "Feature", "properties": { "P29_001": "42391", "P29_002": "C142210001187", "P29_003": "16002", "P29_004": "佐々町立佐々中学校", "P29_005": "長崎県北松浦郡佐々町本田原免111", "P29_006": "3", "P29_007": "1", "P29_008": "00", "P29_009": null }, "geometry": { "type": "Point", "coordinates": [ 129.652468335457371, 33.240062717396334 ] } },
{ "type": "Feature", "properties": { "P29_001": "42202", "P29_002": "C142210001196", "P29_003": "16002", "P29_004": "佐世保市立吉井中学校", "P29_005": "長崎県佐世保市吉井町前岳3-2", "P29_006": "3", "P29_007": "1", "P29_008": "00", "P29_009": null }, "geometry": { "type": "Point", "coordinates": [ 129.692028619101109, 33.269435488777461 ] } },
{ "type": "Feature", "properties": { "P29_001": "42202", "P29_002": "C142210001203", "P29_003": "16002", "P29_004": "佐世保市立世知原中学校", "P29_005": "長崎県佐世保市世知原町栗迎132-1", "P29_006": "3", "P29_007": "1", "P29_008": "00", "P29_009": null }, "geometry": { "type": "Point", "coordinates": [ 129.753629176347971, 33.254756362458401 ] } },
{ "type": "Feature", "properties": { "P29_001": "42211", "P29_002": "C142210001212", "P29_003": "16002", "P29_004": "五島市立富江中学校", "P29_005": "長崎県五島市富江町狩立464", "P29_006": "3", "P29_007": "1", "P29_008": "00", "P29_009": null }, "geometry": { "type": "Point", "coordinates": [ 128.762840146180281, 32.613874102655856 ] } },
{ "type": "Feature", "properties": { "P29_001": "42211", "P29_002": "C142210001221", "P29_003": "16002", "P29_004": "五島市立三井楽中学校", "P29_005": "長崎県五島市三井楽町濱ノ畔1502-1", "P29_006": "3", "P29_007": "1", "P29_008": "00", "P29_009": null }, "geometry": { "type": "Point", "coordinates": [ 128.687979983702945, 32.743837557414857 ] } },
{ "type": "Feature", "properties": { "P29_001": "42211", "P29_002": "C142210001230", "P29_003": "16002", "P29_004": "五島市立嵯峨島中学校", "P29_005": "長崎県五島市三井楽町嵯峨島129-1", "P29_006": "3", "P29_007": "1", "P29_008": "00", "P29_009": null }, "geometry": { "type": "Point", "coordinates": [ 128.598511231714184, 32.726463249696323 ] } },
{ "type": "Feature", "properties": { "P29_001": "42211", "P29_002": "C142210001249", "P29_003": "16002", "P29_004": "五島市立岐宿中学校", "P29_005": "長崎県五島市岐宿町楠原544-1", "P29_006": "3", "P29_007": "1", "P29_008": "00", "P29_009": null }, "geometry": { "type": "Point", "coordinates": [ 128.744599619084624, 32.730294103615606 ] } },
{ "type": "Feature", "properties": { "P29_001": "42211", "P29_002": "C142210001258", "P29_003": "16002", "P29_004": "五島市立奈留中学校", "P29_005": "長崎県五島市奈留町浦1225-1", "P29_006": "3", "P29_007": "1", "P29_008": "00", "P29_009": null }, "geometry": { "type": "Point", "coordinates": [ 128.93130369954784, 32.830972015267207 ] } },
{ "type": "Feature", "properties": { "P29_001": "42411", "P29_002": "C142210001267", "P29_003": "16002", "P29_004": "新上五島町立若松中学校", "P29_005": "長崎県南松浦郡新上五島町若松郷462-13", "P29_006": "3", "P29_007": "1", "P29_008": "00", "P29_009": null }, "geometry": { "type": "Point", "coordinates": [ 129.027409393215152, 32.886558426188508 ] } },
{ "type": "Feature", "properties": { "P29_001": "42411", "P29_002": "C142210001276", "P29_003": "16002", "P29_004": "新上五島町立魚目中学校", "P29_005": "長崎県南松浦郡新上五島町丸尾郷417", "P29_006": "3", "P29_007": "1", "P29_008": "00", "P29_009": null }, "geometry": { "type": "Point", "coordinates": [ 129.088870758764358, 33.003571844175376 ] } },
{ "type": "Feature", "properties": { "P29_001": "42411", "P29_002": "C142210001285", "P29_003": "16002", "P29_004": "新上五島町立有川中学校", "P29_005": "長崎県南松浦郡新上五島町有川郷809", "P29_006": "3", "P29_007": "1", "P29_008": "00", "P29_009": null }, "geometry": { "type": "Point", "coordinates": [ 129.118242104765415, 32.98335857883248 ] } },
{ "type": "Feature", "properties": { "P29_001": "42411", "P29_002": "C142210001294", "P29_003": "16002", "P29_004": "新上五島町立奈良尾中学校", "P29_005": "長崎県南松浦郡新上五島町奈良尾郷909-14", "P29_006": "3", "P29_007": "1", "P29_008": "00", "P29_009": null }, "geometry": { "type": "Point", "coordinates": [ 129.065644011419749, 32.864797153083003 ] } },
{ "type": "Feature", "properties": { "P29_001": "42210", "P29_002": "C142210001301", "P29_003": "16002", "P29_004": "壱岐市立石田中学校", "P29_005": "長崎県壱岐市石田町石田西触1547", "P29_006": "3", "P29_007": "1", "P29_008": "00", "P29_009": null }, "geometry": { "type": "Point", "coordinates": [ 129.756074543127824, 33.746099000610535 ] } },
{ "type": "Feature", "properties": { "P29_001": "42209", "P29_002": "C142210001310", "P29_003": "16002", "P29_004": "対馬市立厳原中学校", "P29_005": "長崎県対馬市厳原町桟原27", "P29_006": "3", "P29_007": "1", "P29_008": "00", "P29_009": null }, "geometry": { "type": "Point", "coordinates": [ 129.285752312161804, 34.218433171747144 ] } },
{ "type": "Feature", "properties": { "P29_001": "42209", "P29_002": "C142210001329", "P29_003": "16002", "P29_004": "対馬市立久田中学校", "P29_005": "長崎県対馬市厳原町久田381-1", "P29_006": "3", "P29_007": "1", "P29_008": "00", "P29_009": null }, "geometry": { "type": "Point", "coordinates": [ 129.279449886255634, 34.182441014949696 ] } },
{ "type": "Feature", "properties": { "P29_001": "42209", "P29_002": "C142210001338", "P29_003": "16002", "P29_004": "対馬市立豆酘中学校", "P29_005": "長崎県対馬市厳原町豆酘510", "P29_006": "3", "P29_007": "1", "P29_008": "00", "P29_009": null }, "geometry": { "type": "Point", "coordinates": [ 129.189330730791426, 34.119465282082651 ] } },
{ "type": "Feature", "properties": { "P29_001": "42209", "P29_002": "C142210001347", "P29_003": "16002", "P29_004": "対馬市立大船越中学校", "P29_005": "長崎県対馬市美津島町大船越607", "P29_006": "3", "P29_007": "1", "P29_008": "00", "P29_009": null }, "geometry": { "type": "Point", "coordinates": [ 129.359904703604144, 34.274783794075468 ] } },
{ "type": "Feature", "properties": { "P29_001": "42209", "P29_002": "C142210001356", "P29_003": "16002", "P29_004": "対馬市立鶏知中学校", "P29_005": "長崎県対馬市美津島町鶏知甲550-7", "P29_006": "3", "P29_007": "1", "P29_008": "00", "P29_009": null }, "geometry": { "type": "Point", "coordinates": [ 129.310550123931733, 34.268330178812896 ] } },
{ "type": "Feature", "properties": { "P29_001": "42209", "P29_002": "C142210001365", "P29_003": "16002", "P29_004": "対馬市立豊玉中学校", "P29_005": "長崎県対馬市豊玉町仁位500", "P29_006": "3", "P29_007": "1", "P29_008": "00", "P29_009": null }, "geometry": { "type": "Point", "coordinates": [ 129.321197754761812, 34.39564945418843 ] } },
{ "type": "Feature", "properties": { "P29_001": "42209", "P29_002": "C142210001374", "P29_003": "16002", "P29_004": "対馬市立西部中学校", "P29_005": "長崎県対馬市峰町三根328-15", "P29_006": "3", "P29_007": "1", "P29_008": "00", "P29_009": null }, "geometry": { "type": "Point", "coordinates": [ 129.31483524241699, 34.463441282591781 ] } },
{ "type": "Feature", "properties": { "P29_001": "42209", "P29_002": "C142210001383", "P29_003": "16002", "P29_004": "対馬市立東部中学校", "P29_005": "長崎県対馬市峰町佐賀111", "P29_006": "3", "P29_007": "1", "P29_008": "00", "P29_009": null }, "geometry": { "type": "Point", "coordinates": [ 129.377031345958301, 34.460475611688466 ] } },
{ "type": "Feature", "properties": { "P29_001": "42209", "P29_002": "C142210001392", "P29_003": "16002", "P29_004": "対馬市立佐須奈中学校", "P29_005": "長崎県対馬市上県町佐須奈乙321", "P29_006": "3", "P29_007": "1", "P29_008": "00", "P29_009": null }, "geometry": { "type": "Point", "coordinates": [ 129.400995674132957, 34.639147220201785 ] } },
{ "type": "Feature", "properties": { "P29_001": "42209", "P29_002": "C142210001409", "P29_003": "16002", "P29_004": "対馬市立仁田中学校", "P29_005": "長崎県対馬市上県町樫滝702", "P29_006": "3", "P29_007": "1", "P29_008": "00", "P29_009": null }, "geometry": { "type": "Point", "coordinates": [ 129.347901548009276, 34.529944481067623 ] } },
{ "type": "Feature", "properties": { "P29_001": "42209", "P29_002": "C142210001418", "P29_003": "16002", "P29_004": "対馬市立比田勝中学校", "P29_005": "長崎県対馬市上対馬町比田勝351", "P29_006": "3", "P29_007": "1", "P29_008": "00", "P29_009": null }, "geometry": { "type": "Point", "coordinates": [ 129.456608178385977, 34.652092210775955 ] } },
{ "type": "Feature", "properties": { "P29_001": "42201", "P29_002": "C142210001427", "P29_003": "16002", "P29_004": "長崎市立横尾中学校", "P29_005": "長崎県長崎市横尾5-3-1", "P29_006": "3", "P29_007": "1", "P29_008": "00", "P29_009": null }, "geometry": { "type": "Point", "coordinates": [ 129.827292992141366, 32.815721661030643 ] } },
{ "type": "Feature", "properties": { "P29_001": "42307", "P29_002": "C142210001436", "P29_003": "16002", "P29_004": "長与町立長与第二中学校", "P29_005": "長崎県西彼杵郡長与町吉無田郷322", "P29_006": "3", "P29_007": "1", "P29_008": "00", "P29_009": null }, "geometry": { "type": "Point", "coordinates": [ 129.878201952149368, 32.815450846309574 ] } },
{ "type": "Feature", "properties": { "P29_001": "42201", "P29_002": "C142210001445", "P29_003": "16002", "P29_004": "長崎市立小江原中学校", "P29_005": "長崎県長崎市柿泊町2316", "P29_006": "3", "P29_007": "1", "P29_008": "00", "P29_009": null }, "geometry": { "type": "Point", "coordinates": [ 129.819168365124739, 32.778083513767214 ] } },
{ "type": "Feature", "properties": { "P29_001": "42202", "P29_002": "C142210001454", "P29_003": "16002", "P29_004": "佐世保市立崎辺中学校", "P29_005": "長崎県佐世保市天神町1706", "P29_006": "3", "P29_007": "1", "P29_008": "00", "P29_009": null }, "geometry": { "type": "Point", "coordinates": [ 129.732482280833779, 33.140035371384769 ] } },
{ "type": "Feature", "properties": { "P29_001": "42204", "P29_002": "C142210001463", "P29_003": "16002", "P29_004": "諫早市立明峰中学校", "P29_005": "長崎県諫早市栄田町500", "P29_006": "3", "P29_007": "1", "P29_008": "00", "P29_009": null }, "geometry": { "type": "Point", "coordinates": [ 130.029229960564578, 32.864273627597541 ] } },
{ "type": "Feature", "properties": { "P29_001": "42411", "P29_002": "C142210001472", "P29_003": "16002", "P29_004": "新上五島町立上五島中学校", "P29_005": "長崎県南松浦郡新上五島町青方郷538-2", "P29_006": "3", "P29_007": "1", "P29_008": "00", "P29_009": null }, "geometry": { "type": "Point", "coordinates": [ 129.066233704159032, 32.992728763808422 ] } },
{ "type": "Feature", "properties": { "P29_001": "42205", "P29_002": "C142210001481", "P29_003": "16002", "P29_004": "大村市立大村中学校", "P29_005": "長崎県大村市赤佐古町78", "P29_006": "3", "P29_007": "1", "P29_008": "00", "P29_009": null }, "geometry": { "type": "Point", "coordinates": [ 129.971200479270948, 32.907808833861218 ] } },
{ "type": "Feature", "properties": { "P29_001": "42201", "P29_002": "C142210001490", "P29_003": "16002", "P29_004": "長崎市立橘中学校", "P29_005": "長崎県長崎市かき道4-1-1", "P29_006": "3", "P29_007": "1", "P29_008": "00", "P29_009": null }, "geometry": { "type": "Point", "coordinates": [ 129.962907143404152, 32.769876587067024 ] } },
{ "type": "Feature", "properties": { "P29_001": "42204", "P29_002": "C142210001506", "P29_003": "16002", "P29_004": "諫早市立真城中学校", "P29_005": "長崎県諫早市真崎町1086-6", "P29_006": "3", "P29_007": "1", "P29_008": "00", "P29_009": null }, "geometry": { "type": "Point", "coordinates": [ 130.014841244241495, 32.849527323552749 ] } },
{ "type": "Feature", "properties": { "P29_001": "42205", "P29_002": "C142210001515", "P29_003": "16002", "P29_004": "大村市立桜が原中学校", "P29_005": "長崎県大村市桜馬場2-487-1", "P29_006": "3", "P29_007": "1", "P29_008": "00", "P29_009": null }, "geometry": { "type": "Point", "coordinates": [ 129.946973341985995, 32.933832540331544 ] } },
{ "type": "Feature", "properties": { "P29_001": "42201", "P29_002": "C142210001533", "P29_003": "16002", "P29_004": "長崎市立三川中学校", "P29_005": "長崎県長崎市三川町1018-1", "P29_006": "3", "P29_007": "1", "P29_008": "00", "P29_009": null }, "geometry": { "type": "Point", "coordinates": [ 129.885304354824711, 32.785194900576428 ] } },
{ "type": "Feature", "properties": { "P29_001": "42202", "P29_002": "C142210001542", "P29_003": "16002", "P29_004": "佐世保市立広田中学校", "P29_005": "長崎県佐世保市重尾町188", "P29_006": "3", "P29_007": "1", "P29_008": "00", "P29_009": null }, "geometry": { "type": "Point", "coordinates": [ 129.80989973436229, 33.124698384877327 ] } },
{ "type": "Feature", "properties": { "P29_001": "42201", "P29_002": "C142210001551", "P29_003": "16002", "P29_004": "長崎市立小ヶ倉中学校", "P29_005": "長崎県長崎市ダイヤランド1-40-1", "P29_006": "3", "P29_007": "1", "P29_008": "00", "P29_009": null }, "geometry": { "type": "Point", "coordinates": [ 129.860221133821426, 32.701620555294092 ] } },
{ "type": "Feature", "properties": { "P29_001": "42308", "P29_002": "C142210001560", "P29_003": "16002", "P29_004": "時津町立鳴北中学校", "P29_005": "長崎県西彼杵郡時津町久留里郷53-5", "P29_006": "3", "P29_007": "1", "P29_008": "00", "P29_009": null }, "geometry": { "type": "Point", "coordinates": [ 129.834041268749161, 32.839672016282314 ] } },
{ "type": "Feature", "properties": { "P29_001": "42307", "P29_002": "C142210001579", "P29_003": "16002", "P29_004": "長与町立高田中学校", "P29_005": "長崎県西彼杵郡長与町高田郷1912-1", "P29_006": "3", "P29_007": "1", "P29_008": "00", "P29_009": null }, "geometry": { "type": "Point", "coordinates": [ 129.860059193936934, 32.808255110778525 ] } },
{ "type": "Feature", "properties": { "P29_001": "42202", "P29_002": "C142210001588", "P29_003": "16002", "P29_004": "佐世保市立日野中学校", "P29_005": "長崎県佐世保市日野町2079", "P29_006": "3", "P29_007": "1", "P29_008": "00", "P29_009": null }, "geometry": { "type": "Point", "coordinates": [ 129.668491628220977, 33.170709059608285 ] } },
{ "type": "Feature", "properties": { "P29_001": "42201", "P29_002": "C142210001597", "P29_003": "16002", "P29_004": "長崎市立土井首中学校開成分校", "P29_005": "長崎県長崎市平山台2-34-1", "P29_006": "3", "P29_007": "1", "P29_008": "00", "P29_009": null }, "geometry": { "type": "Point", "coordinates": [ 129.825745740708641, 32.66165795787375 ] } },
{ "type": "Feature", "properties": { "P29_001": "42211", "P29_002": "C142210001604", "P29_003": "16002", "P29_004": "五島市立玉之浦中学校", "P29_005": "長崎県五島市玉之浦町小川1130-1", "P29_006": "3", "P29_007": "1", "P29_008": "00", "P29_009": null }, "geometry": { "type": "Point", "coordinates": [ 128.669138100766276, 32.62955504512616 ] } },
{ "type": "Feature", "properties": { "P29_001": "42201", "P29_002": "C142210001613", "P29_003": "16002", "P29_004": "長崎県立長崎東中学校", "P29_005": "長崎県長崎市立山5-13-1", "P29_006": "2", "P29_007": "1", "P29_008": "00", "P29_009": null }, "geometry": { "type": "Point", "coordinates": [ 129.877871868208871, 32.760459532906012 ] } },
{ "type": "Feature", "properties": { "P29_001": "42202", "P29_002": "C142210001622", "P29_003": "16002", "P29_004": "長崎県立佐世保北中学校", "P29_005": "長崎県佐世保市八幡町6-31", "P29_006": "2", "P29_007": "1", "P29_008": "00", "P29_009": null }, "geometry": { "type": "Point", "coordinates": [ 129.719623941171022, 33.180589070941132 ] } },
{ "type": "Feature", "properties": { "P29_001": "42204", "P29_002": "C142210001631", "P29_003": "16002", "P29_004": "長崎県立諫早高等学校附属中学校", "P29_005": "長崎県諫早市東小路町1-7", "P29_006": "2", "P29_007": "1", "P29_008": "00", "P29_009": null }, "geometry": { "type": "Point", "coordinates": [ 130.051453670933199, 32.844568931320261 ] } },
{ "type": "Feature", "properties": { "P29_001": "42210", "P29_002": "C142210001640", "P29_003": "16002", "P29_004": "壱岐市立郷ノ浦中学校", "P29_005": "長崎県壱岐市郷ノ浦町本村触75", "P29_006": "3", "P29_007": "1", "P29_008": "00", "P29_009": null }, "geometry": { "type": "Point", "coordinates": [ 129.694634476422152, 33.751274131198493 ] } },
{ "type": "Feature", "properties": { "P29_001": "42210", "P29_002": "C142210001659", "P29_003": "16002", "P29_004": "壱岐市立勝本中学校", "P29_005": "長崎県壱岐市勝本町仲触1846", "P29_006": "3", "P29_007": "1", "P29_008": "00", "P29_009": null }, "geometry": { "type": "Point", "coordinates": [ 129.698034114042485, 33.850797293964916 ] } },
{ "type": "Feature", "properties": { "P29_001": "42210", "P29_002": "C142210001668", "P29_003": "16002", "P29_004": "壱岐市立芦辺中学校", "P29_005": "長崎県壱岐市芦辺町中野郷西触400-1", "P29_006": "3", "P29_007": "1", "P29_008": "00", "P29_009": null }, "geometry": { "type": "Point", "coordinates": [ 129.720817561983608, 33.791416336435724 ] } },
{ "type": "Feature", "properties": { "P29_001": "42202", "P29_002": "C142210001677", "P29_003": "16002", "P29_004": "佐世保市立祗園中学校", "P29_005": "長崎県佐世保市祇園町14-12", "P29_006": "3", "P29_007": "1", "P29_008": "00", "P29_009": null }, "geometry": { "type": "Point", "coordinates": [ 129.72587179494397, 33.17624413276441 ] } },
{ "type": "Feature", "properties": { "P29_001": "42212", "P29_002": "C142210001686", "P29_003": "16002", "P29_004": "西海市立西海中学校", "P29_005": "長崎県西海市黒口郷518", "P29_006": "3", "P29_007": "1", "P29_008": "00", "P29_009": null }, "geometry": { "type": "Point", "coordinates": [ 129.691569044033457, 33.061620296872341 ] } },
{ "type": "Feature", "properties": { "P29_001": "42212", "P29_002": "C142210001695", "P29_003": "16002", "P29_004": "西海市立大崎中学校", "P29_005": "長崎県西海市大島町3468-1", "P29_006": "3", "P29_007": "1", "P29_008": "00", "P29_009": null }, "geometry": { "type": "Point", "coordinates": [ 129.589965476964551, 33.02833268489313 ] } },
{ "type": "Feature", "properties": { "P29_001": "42201", "P29_002": "C142210001702", "P29_003": "16002", "P29_004": "長崎市立外海中学校", "P29_005": "長崎県長崎市西出津町1633", "P29_006": "3", "P29_007": "1", "P29_008": "00", "P29_009": null }, "geometry": { "type": "Point", "coordinates": [ 129.702392996656073, 32.847681001643856 ] } },
{ "type": "Feature", "properties": { "P29_001": "42321", "P29_002": "C142210001711", "P29_003": "16002", "P29_004": "東彼杵町立東彼杵中学校", "P29_005": "長崎県東彼杵郡東彼杵町蔵本郷1666", "P29_006": "3", "P29_007": "1", "P29_008": "00", "P29_009": null }, "geometry": { "type": "Point", "coordinates": [ 129.910920623541955, 33.042001140651649 ] } },
{ "type": "Feature", "properties": { "P29_001": "42201", "P29_002": "C142310000015", "P29_003": "16002", "P29_004": "海星中学校", "P29_005": "長崎県長崎市東山手町5-3", "P29_006": "4", "P29_007": "1", "P29_008": "00", "P29_009": null }, "geometry": { "type": "Point", "coordinates": [ 129.87416913977907, 32.73613675105014 ] } },
{ "type": "Feature", "properties": { "P29_001": "42201", "P29_002": "C142310000024", "P29_003": "16002", "P29_004": "長崎南山中学校", "P29_005": "長崎県長崎市上野町25-1", "P29_006": "4", "P29_007": "1", "P29_008": "00", "P29_009": null }, "geometry": { "type": "Point", "coordinates": [ 129.866755628151935, 32.779787896476336 ] } },
{ "type": "Feature", "properties": { "P29_001": "42201", "P29_002": "C142310000033", "P29_003": "16002", "P29_004": "活水中学校", "P29_005": "長崎県長崎市宝栄町15-11", "P29_006": "4", "P29_007": "1", "P29_008": "00", "P29_009": null }, "geometry": { "type": "Point", "coordinates": [ 129.860338746683738, 32.77015437858531 ] } },
{ "type": "Feature", "properties": { "P29_001": "42201", "P29_002": "C142310000042", "P29_003": "16002", "P29_004": "長崎女子商業中学校", "P29_005": "長崎県長崎市栄町2-10", "P29_006": "4", "P29_007": "1", "P29_008": "00", "P29_009": null }, "geometry": { "type": "Point", "coordinates": [ 129.878082995974211, 32.748419001066736 ] } },
{ "type": "Feature", "properties": { "P29_001": "42201", "P29_002": "C142310000051", "P29_003": "16002", "P29_004": "聖母の騎士中学校", "P29_005": "長崎県長崎市本河内町2-2-2", "P29_006": "4", "P29_007": "1", "P29_008": "00", "P29_009": null }, "geometry": { "type": "Point", "coordinates": [ 129.899047791301712, 32.750386552327043 ] } },
{ "type": "Feature", "properties": { "P29_001": "42201", "P29_002": "C142310000060", "P29_003": "16002", "P29_004": "純心中学校", "P29_005": "長崎県長崎市文教町13-15", "P29_006": "4", "P29_007": "1", "P29_008": "00", "P29_009": null }, "geometry": { "type": "Point", "coordinates": [ 129.866900044954008, 32.784992162146295 ] } },
{ "type": "Feature", "properties": { "P29_001": "42201", "P29_002": "C142310000079", "P29_003": "16002", "P29_004": "聖マリア学院中学校", "P29_005": "長崎県長崎市若草町6-5", "P29_006": "4", "P29_007": "1", "P29_008": "00", "P29_009": null }, "geometry": { "type": "Point", "coordinates": [ 129.852146953328713, 32.776002671725593 ] } },
{ "type": "Feature", "properties": { "P29_001": "42202", "P29_002": "C142310000088", "P29_003": "16002", "P29_004": "聖和女子学院中学校", "P29_005": "長崎県佐世保市松山町495", "P29_006": "4", "P29_007": "1", "P29_008": "00", "P29_009": null }, "geometry": { "type": "Point", "coordinates": [ 129.722586997335554, 33.191485997829247 ] } },
{ "type": "Feature", "properties": { "P29_001": "42308", "P29_002": "C142310000097", "P29_003": "16002", "P29_004": "青雲中学校", "P29_005": "長崎県西彼杵郡時津町左底245-2", "P29_006": "4", "P29_007": "1", "P29_008": "00", "P29_009": null }, "geometry": { "type": "Point", "coordinates": [ 129.837615370738632, 32.829006370824594 ] } },
{ "type": "Feature", "properties": { "P29_001": "42201", "P29_002": "C142310000104", "P29_003": "16002", "P29_004": "長崎精道中学校", "P29_005": "長崎県長崎市三原2-23-33", "P29_006": "4", "P29_007": "1", "P29_008": "00", "P29_009": null }, "geometry": { "type": "Point", "coordinates": [ 129.882206161478592, 32.784464612779246 ] } },
{ "type": "Feature", "properties": { "P29_001": "42201", "P29_002": "C142310000113", "P29_003": "16002", "P29_004": "精道三川台中学校", "P29_005": "長崎県長崎市三川町1234-1", "P29_006": "4", "P29_007": "1", "P29_008": "00", "P29_009": null }, "geometry": { "type": "Point", "coordinates": [ 129.884612116257159, 32.786211678931608 ] } },
{ "type": "Feature", "properties": { "P29_001": "42204", "P29_002": "C142310000122", "P29_003": "16002", "P29_004": "創成館中学校", "P29_005": "長崎県諫早市貝津町621", "P29_006": "4", "P29_007": "1", "P29_008": "00", "P29_009": null }, "geometry": { "type": "Point", "coordinates": [ 130.006796362263771, 32.832983838821001 ] } },
{ "type": "Feature", "properties": { "P29_001": "42204", "P29_002": "C142310000131", "P29_003": "16002", "P29_004": "長崎日本大学中学校", "P29_005": "長崎県諫早市貝津町1555", "P29_006": "4", "P29_007": "1", "P29_008": "00", "P29_009": null }, "geometry": { "type": "Point", "coordinates": [ 130.012288872977962, 32.84118734995905 ] } },
{ "type": "Feature", "properties": { "P29_001": "42201", "P29_002": "C142310000140", "P29_003": "16002", "P29_004": "長崎玉成高等学校附属中学部", "P29_005": "長崎県長崎市愛宕1-37-1", "P29_006": "4", "P29_007": "1", "P29_008": "00", "P29_009": null }, "geometry": { "type": "Point", "coordinates": [ 129.889306643567522, 32.741239001069239 ] } },
{ "type": "Feature", "properties": { "P29_001": "42202", "P29_002": "C142310000159", "P29_003": "16002", "P29_004": "九州文化学園中学校", "P29_005": "長崎県佐世保市花園町10-1", "P29_006": "4", "P29_007": "1", "P29_008": "00", "P29_009": null }, "geometry": { "type": "Point", "coordinates": [ 129.723320791194652, 33.182255537632734 ] } },
{ "type": "Feature", "properties": { "P29_001": "42321", "P29_002": "C142310000168", "P29_003": "16002", "P29_004": "ながさき東そのぎ子どもの村中学校", "P29_005": "長崎県東彼杵郡東彼杵町大音琴郷1621", "P29_006": "4", "P29_007": "1", "P29_008": "00", "P29_009": null }, "geometry": { "type": "Point", "coordinates": [ 129.894672447993571, 33.058360233734099 ] } }
]
}
