{
"type": "FeatureCollection",
"name": "geo_42_特別支援学校",
"crs": { "type": "name", "properties": { "name": "urn:ogc:def:crs:EPSG::6668" } },
"features": [
{ "type": "Feature", "properties": { "P29_001": "42201", "P29_002": "E142110000014", "P29_003": "16012", "P29_004": "長崎大学教育学部附属特別支援学校", "P29_005": "長崎県長崎市柳谷町42-1", "P29_006": "1", "P29_007": "0", "P29_008": "00", "P29_009": null }, "geometry": { "type": "Point", "coordinates": [ 129.852696755016808, 32.791941045887626 ] } },
{ "type": "Feature", "properties": { "P29_001": "42308", "P29_002": "E142210000012", "P29_003": "16012", "P29_004": "長崎県立盲学校", "P29_005": "長崎県西彼杵郡時津町西時津郷873", "P29_006": "2", "P29_007": "0", "P29_008": "00", "P29_009": null }, "geometry": { "type": "Point", "coordinates": [ 129.856938917159368, 32.837867541529199 ] } },
{ "type": "Feature", "properties": { "P29_001": "42205", "P29_002": "E142210000021", "P29_003": "16012", "P29_004": "長崎県立ろう学校", "P29_005": "長崎県大村市宮小路3-5-5", "P29_006": "2", "P29_007": "0", "P29_008": "01", "P29_009": null }, "geometry": { "type": "Point", "coordinates": [ 129.942943323233806, 32.955375697872896 ] } },
{ "type": "Feature", "properties": { "P29_001": "42204", "P29_002": "E142210000030", "P29_003": "16012", "P29_004": "長崎県立諫早特別支援学校", "P29_005": "長崎県諫早市真崎町1670-1", "P29_006": "2", "P29_007": "0", "P29_008": "01", "P29_009": null }, "geometry": { "type": "Point", "coordinates": [ 130.027930201705743, 32.851393391132419 ] } },
{ "type": "Feature", "properties": { "P29_001": "42204", "P29_002": "E142210000049", "P29_003": "16012", "P29_004": "長崎県立諫早東特別支援学校", "P29_005": "長崎県諫早市永昌東町24-2", "P29_006": "2", "P29_007": "0", "P29_008": "00", "P29_009": null }, "geometry": { "type": "Point", "coordinates": [ 130.041326903488198, 32.856337144419349 ] } },
{ "type": "Feature", "properties": { "P29_001": "42205", "P29_002": "E142210000058", "P29_003": "16012", "P29_004": "長崎県立大村特別支援学校", "P29_005": "長崎県大村市久原2-1418-2", "P29_006": "2", "P29_007": "0", "P29_008": "00", "P29_009": null }, "geometry": { "type": "Point", "coordinates": [ 129.973341069621227, 32.893344038226168 ] } },
{ "type": "Feature", "properties": { "P29_001": "42205", "P29_002": "E142210000067", "P29_003": "16012", "P29_004": "長崎県立虹の原特別支援学校", "P29_005": "長崎県大村市宮小路3-5-1", "P29_006": "2", "P29_007": "0", "P29_008": "01", "P29_009": null }, "geometry": { "type": "Point", "coordinates": [ 129.941961669390452, 32.95611400169539 ] } },
{ "type": "Feature", "properties": { "P29_001": "42322", "P29_002": "E142210000076", "P29_003": "16012", "P29_004": "長崎県立川棚特別支援学校", "P29_005": "長崎県東彼杵郡川棚町小串郷1600", "P29_006": "2", "P29_007": "0", "P29_008": "00", "P29_009": null }, "geometry": { "type": "Point", "coordinates": [ 129.839330390409032, 33.067459454790722 ] } },
{ "type": "Feature", "properties": { "P29_001": "42202", "P29_002": "E142210000085", "P29_003": "16012", "P29_004": "長崎県立佐世保特別支援学校", "P29_005": "長崎県佐世保市竹辺町810", "P29_006": "2", "P29_007": "0", "P29_008": "01", "P29_009": null }, "geometry": { "type": "Point", "coordinates": [ 129.674027357758149, 33.197422241581066 ] } },
{ "type": "Feature", "properties": { "P29_001": "42203", "P29_002": "E142210000094", "P29_003": "16012", "P29_004": "長崎県立島原特別支援学校", "P29_005": "長崎県島原市新田町562", "P29_006": "2", "P29_007": "0", "P29_008": "01", "P29_009": null }, "geometry": { "type": "Point", "coordinates": [ 130.372591608787303, 32.789484253348348 ] } },
{ "type": "Feature", "properties": { "P29_001": "42201", "P29_002": "E142210000101", "P29_003": "16012", "P29_004": "長崎県立長崎特別支援学校", "P29_005": "長崎県長崎市桜木町6-41", "P29_006": "2", "P29_007": "0", "P29_008": "00", "P29_009": null }, "geometry": { "type": "Point", "coordinates": [ 129.891330593274176, 32.728717470885258 ] } },
{ "type": "Feature", "properties": { "P29_001": "42201", "P29_002": "E142210000110", "P29_003": "16012", "P29_004": "長崎県立鶴南特別支援学校", "P29_005": "長崎県長崎市蚊焼町721", "P29_006": "2", "P29_007": "0", "P29_008": "00", "P29_009": null }, "geometry": { "type": "Point", "coordinates": [ 129.826222911720919, 32.659529383969286 ] } },
{ "type": "Feature", "properties": { "P29_001": "42322", "P29_002": "E142210000129", "P29_003": "16012", "P29_004": "長崎県立桜が丘特別支援学校", "P29_005": "長崎県東彼杵郡川棚町下組郷386-2", "P29_006": "2", "P29_007": "0", "P29_008": "00", "P29_009": null }, "geometry": { "type": "Point", "coordinates": [ 129.85726295130803, 33.070454831229227 ] } },
{ "type": "Feature", "properties": { "P29_001": "42204", "P29_002": "E142210000138", "P29_003": "16012", "P29_004": "長崎県立希望が丘高等特別支援学校", "P29_005": "長崎県諫早市多良見町化屋986-6", "P29_006": "2", "P29_007": "0", "P29_008": "00", "P29_009": null }, "geometry": { "type": "Point", "coordinates": [ 129.982577132106456, 32.827323042490526 ] } },
{ "type": "Feature", "properties": { "P29_001": "42210", "P29_002": "E142210000147", "P29_003": "16012", "P29_004": "長崎県立虹の原特別支援学校壱岐分校", "P29_005": "長崎県壱岐市郷ノ浦町片原触88", "P29_006": "2", "P29_007": "0", "P29_008": "00", "P29_009": null }, "geometry": { "type": "Point", "coordinates": [ 129.692447566514033, 33.746428153279879 ] } },
{ "type": "Feature", "properties": { "P29_001": "42211", "P29_002": "E142210000156", "P29_003": "16012", "P29_004": "長崎県立鶴南特別支援学校五島分校", "P29_005": "長崎県五島市坂の上町1-6-1", "P29_006": "2", "P29_007": "0", "P29_008": "00", "P29_009": null }, "geometry": { "type": "Point", "coordinates": [ 128.843181787082187, 32.692731544370403 ] } },
{ "type": "Feature", "properties": { "P29_001": "42308", "P29_002": "E142210000165", "P29_003": "16012", "P29_004": "長崎県立鶴南特別支援学校時津分校", "P29_005": "長崎県西彼杵郡時津町西時津郷873", "P29_006": "2", "P29_007": "0", "P29_008": "00", "P29_009": null }, "geometry": { "type": "Point", "coordinates": [ 129.857267547703515, 32.837764125930619 ] } },
{ "type": "Feature", "properties": { "P29_001": "42207", "P29_002": "E142210000174", "P29_003": "16012", "P29_004": "佐世保特別支援学校北松分校", "P29_005": "長崎県平戸市田平町小手田免54-1", "P29_006": "2", "P29_007": "0", "P29_008": "00", "P29_009": null }, "geometry": { "type": "Point", "coordinates": [ 129.578094481024067, 33.344684706440091 ] } },
{ "type": "Feature", "properties": { "P29_001": "42202", "P29_002": "E142210000021", "P29_003": "16012", "P29_004": "長崎県立ろう学校", "P29_005": "長崎県佐世保市小舟町60", "P29_006": "2", "P29_007": "0", "P29_008": "02", "P29_009": "佐世保分教室" }, "geometry": { "type": "Point", "coordinates": [ 129.758936876125972, 33.20793183213646 ] } },
{ "type": "Feature", "properties": { "P29_001": "42204", "P29_002": "E142210000030", "P29_003": "16012", "P29_004": "長崎県立諫早特別支援学校", "P29_005": "長崎県諫早市小長井町遠竹2727-20", "P29_006": "2", "P29_007": "0", "P29_008": "02", "P29_009": "みさかえ分教室" }, "geometry": { "type": "Point", "coordinates": [ 130.170401287484793, 32.96021487696116 ] } },
{ "type": "Feature", "properties": { "P29_001": "42209", "P29_002": "E142210000067", "P29_003": "16012", "P29_004": "長崎県立虹の原特別支援学校", "P29_005": "長崎県対馬市厳原町東里120", "P29_006": "2", "P29_007": "0", "P29_008": "02", "P29_009": "高等部対馬分教室" }, "geometry": { "type": "Point", "coordinates": [ 129.293683478860288, 34.21262211293039 ] } },
{ "type": "Feature", "properties": { "P29_001": "42210", "P29_002": "E142210000067", "P29_003": "16012", "P29_004": "長崎県立虹の原特別支援学校", "P29_005": "長崎県壱岐市郷ノ浦町本村触589(壱岐市立盈科小学校内)", "P29_006": "2", "P29_007": "0", "P29_008": "03", "P29_009": "小中学部壱岐分校" }, "geometry": { "type": "Point", "coordinates": [ 129.692741192116557, 33.749927386406227 ] } },
{ "type": "Feature", "properties": { "P29_001": "42210", "P29_002": "E142210000067", "P29_003": "16012", "P29_004": "長崎県立虹の原特別支援学校", "P29_005": "長崎県壱岐市郷ノ浦町片原触88(長崎県立壱岐高等学校内)", "P29_006": "2", "P29_007": "0", "P29_008": "04", "P29_009": "高等部壱岐分校" }, "geometry": { "type": "Point", "coordinates": [ 129.692428340573684, 33.746447536843235 ] } },
{ "type": "Feature", "properties": { "P29_001": "42411", "P29_002": "E142210000085", "P29_003": "16012", "P29_004": "長崎県立佐世保特別支援学校", "P29_005": "長崎県新上五島町浦桑郷306", "P29_006": "2", "P29_007": "0", "P29_008": "02", "P29_009": "高等部上五島分教室" }, "geometry": { "type": "Point", "coordinates": [ 129.08121965667948, 32.987224057723537 ] } },
{ "type": "Feature", "properties": { "P29_001": "42207", "P29_002": "E142210000085", "P29_003": "16012", "P29_004": "長崎県立佐世保特別支援学校", "P29_005": "長崎県平戸市田平町荻田免20(平戸市立田平中学校内)", "P29_006": "2", "P29_007": "0", "P29_008": "03", "P29_009": "小中学部北松分校" }, "geometry": { "type": "Point", "coordinates": [ 129.593503187452853, 33.346783641128773 ] } },
{ "type": "Feature", "properties": { "P29_001": "42207", "P29_002": "E142210000085", "P29_003": "16012", "P29_004": "長崎県立佐世保特別支援学校", "P29_005": "長崎県平戸市田平町小手田免54-1(長崎県立北松農業高等学校内)", "P29_006": "2", "P29_007": "0", "P29_008": "04", "P29_009": "高等部北松分校" }, "geometry": { "type": "Point", "coordinates": [ 129.578079293209015, 33.344745111466764 ] } },
{ "type": "Feature", "properties": { "P29_001": "42203", "P29_002": "E142210000094", "P29_003": "16012", "P29_004": "長崎県立島原特別支援学校", "P29_005": "長崎県島原市南崩山町丁2800-3", "P29_006": "2", "P29_007": "0", "P29_008": "02", "P29_009": "高等部" }, "geometry": { "type": "Point", "coordinates": [ 130.368750209812816, 32.756915531125614 ] } },
{ "type": "Feature", "properties": { "P29_001": "42213", "P29_002": "E142210000094", "P29_003": "16012", "P29_004": "長崎県立島原特別支援学校", "P29_005": "長崎県雲仙市南串山町丙9436-2", "P29_006": "2", "P29_007": "0", "P29_008": "03", "P29_009": "南串山分教室" }, "geometry": { "type": "Point", "coordinates": [ 130.151459000741056, 32.68075400292723 ] } }
]
}
