{
"type": "FeatureCollection",
"name": "geo_42_義務教育学校",
"crs": { "type": "name", "properties": { "name": "urn:ogc:def:crs:EPSG::6668" } },
"features": [
{ "type": "Feature", "properties": { "P29_001": "42202", "P29_002": "C242210000016", "P29_003": "16014", "P29_004": "佐世保市立黒島小中学校", "P29_005": "長崎県佐世保市黒島町2608-10", "P29_006": "3", "P29_007": "1", "P29_008": "00", "P29_009": null }, "geometry": { "type": "Point", "coordinates": [ 129.540548209653679, 33.143680194664732 ] } },
{ "type": "Feature", "properties": { "P29_001": "42202", "P29_002": "C242210000025", "P29_003": "16014", "P29_004": "佐世保市立浅子小中学校", "P29_005": "長崎県佐世保市浅子町58", "P29_006": "3", "P29_007": "1", "P29_008": "00", "P29_009": null }, "geometry": { "type": "Point", "coordinates": [ 129.625424999389054, 33.203264000834238 ] } }
]
}
