{
"type": "FeatureCollection",
"name": "geo_42_訪問看護",
"crs": { "type": "name", "properties": { "name": "urn:ogc:def:crs:OGC:1.3:CRS84" } },
"features": [
{ "type": "Feature", "properties": { "内容": "訪問看護ステーション結糸【訪問看護】長崎県長崎市緑が丘町１－４－２", "url": "https://www.kaigokensaku.mhlw.go.jp/42/index.php?action_kouhyou_detail_004_kani=true&JigyosyoCd=4260190675-00&ServiceCd=130&Type=search", "url2": "http://hp.kaipoke.biz/xck/index.html" }, "geometry": { "type": "Point", "coordinates": [ 129.858534700000064, 32.7838971 ] } },
{ "type": "Feature", "properties": { "内容": "医療法人外海弘仁会　居宅介護支援事業所【訪問看護】長崎県長崎市下黒崎町1402番地", "url": "https://www.kaigokensaku.mhlw.go.jp/42/index.php?action_kouhyou_detail_004_kani=true&JigyosyoCd=4211123312-00&ServiceCd=130&Type=search", "url2": "http://hiurahp.jp/" }, "geometry": { "type": "Point", "coordinates": [ 129.714776, 32.835824 ] } },
{ "type": "Feature", "properties": { "内容": "訪問看護在宅療養ステーション桃花【訪問看護】長崎県長崎市末石町154-1", "url": "https://www.kaigokensaku.mhlw.go.jp/42/index.php?action_kouhyou_detail_004_kani=true&JigyosyoCd=4260190485-00&ServiceCd=130&Type=search", "url2": "http://www.kirakuen-nagasaki.jp/" }, "geometry": { "type": "Point", "coordinates": [ 129.840951799999971, 32.6760469 ] } },
{ "type": "Feature", "properties": { "内容": "胃腸科もりクリニック【訪問看護】長崎県長崎市松山町6-9", "url": "https://www.kaigokensaku.mhlw.go.jp/42/index.php?action_kouhyou_detail_004_kani=true&JigyosyoCd=4210166395-00&ServiceCd=130&Type=search", "url2": "support@mori-clinic.net" }, "geometry": { "type": "Point", "coordinates": [ 129.8633494, 32.7742173 ] } },
{ "type": "Feature", "properties": { "内容": "わおん長崎訪問看護ステーション【訪問看護】長崎県長崎市花丘町1番24号プライムステージ408号", "url": "https://www.kaigokensaku.mhlw.go.jp/42/index.php?action_kouhyou_detail_004_kani=true&JigyosyoCd=4260190782-00&ServiceCd=130&Type=search", "url2": null }, "geometry": { "type": "Point", "coordinates": [ 129.862726434970284, 32.791148811350091 ] } },
{ "type": "Feature", "properties": { "内容": "訪問看護ステーション　すみ香【訪問看護】長崎県長崎市エミネント葉山町2番5号", "url": "https://www.kaigokensaku.mhlw.go.jp/42/index.php?action_kouhyou_detail_004_kani=true&JigyosyoCd=4260190360-00&ServiceCd=130&Type=search", "url2": "https://sumika-n.com/" }, "geometry": { "type": "Point", "coordinates": [ 129.8454733, 32.8003511 ] } },
{ "type": "Feature", "properties": { "内容": "訪問看護ステーション喜まま【訪問看護】長崎県長崎市草住町5番地佐藤ビル1F", "url": "https://www.kaigokensaku.mhlw.go.jp/42/index.php?action_kouhyou_detail_004_kani=true&JigyosyoCd=4260190949-00&ServiceCd=130&Type=search", "url2": "http://hp.kaipoke.biz/tnc/" }, "geometry": { "type": "Point", "coordinates": [ 129.847909, 32.6908072 ] } },
{ "type": "Feature", "properties": { "内容": "訪問看護ステーショングリーン【訪問看護】長崎県長崎市江川町68番地5StudioGreen", "url": "https://www.kaigokensaku.mhlw.go.jp/42/index.php?action_kouhyou_detail_004_kani=true&JigyosyoCd=4260190352-00&ServiceCd=130&Type=search", "url2": "http://ths.gr.jp/" }, "geometry": { "type": "Point", "coordinates": [ 129.841011013741053, 32.681564359433189 ] } },
{ "type": "Feature", "properties": { "内容": "あなぶきケアサービス長崎　訪問看護事業所【訪問看護】長崎県長崎市勝山町41", "url": "https://www.kaigokensaku.mhlw.go.jp/42/index.php?action_kouhyou_detail_004_kani=true&JigyosyoCd=4260190832-00&ServiceCd=130&Type=search", "url2": "https://www.a-living.jp/nagasaki/suwanomori/" }, "geometry": { "type": "Point", "coordinates": [ 129.880772799999988, 32.7516282 ] } },
{ "type": "Feature", "properties": { "内容": "セントケア訪問看護ステーション長崎みなみ【訪問看護】長崎県長崎市竿浦町722番地3勝亦テナント105号", "url": "https://www.kaigokensaku.mhlw.go.jp/42/index.php?action_kouhyou_detail_004_kani=true&JigyosyoCd=4260190451-00&ServiceCd=130&Type=search", "url2": "http://www.saint-care.com/" }, "geometry": { "type": "Point", "coordinates": [ 129.840104699999983, 32.675166400000016 ] } },
{ "type": "Feature", "properties": { "内容": "セントケア訪問看護ステーション長崎【訪問看護】長崎県長崎市中川2丁目1-10井手口ビル2階2F号室", "url": "https://www.kaigokensaku.mhlw.go.jp/42/index.php?action_kouhyou_detail_004_kani=true&JigyosyoCd=4260190667-00&ServiceCd=130&Type=search", "url2": "http://www.saint-care.com" }, "geometry": { "type": "Point", "coordinates": [ 129.891674060431342, 32.752454473988074 ] } },
{ "type": "Feature", "properties": { "内容": "医療法人　健正会　大久保病院【訪問看護】長崎県長崎市戸石町1470番地1", "url": "https://www.kaigokensaku.mhlw.go.jp/42/index.php?action_kouhyou_detail_004_kani=true&JigyosyoCd=4210163889-00&ServiceCd=130&Type=search", "url2": "www.ohkubo-hp.com" }, "geometry": { "type": "Point", "coordinates": [ 129.9771632, 32.7642825 ] } },
{ "type": "Feature", "properties": { "内容": "虹が丘病院　訪問看護ステーション【訪問看護】虹が丘町1番１号", "url": "https://www.kaigokensaku.mhlw.go.jp/42/index.php?action_kouhyou_detail_004_kani=true&JigyosyoCd=4260190873-00&ServiceCd=130&Type=search", "url2": "https://www.nijigaoka.org/houmonkango/" }, "geometry": { "type": "Point", "coordinates": [ 129.8463272, 32.7984779 ] } },
{ "type": "Feature", "properties": { "内容": "重工記念長崎病院訪問看護ステーション【訪問看護】長崎県長崎市丸尾町6番17号", "url": "https://www.kaigokensaku.mhlw.go.jp/42/index.php?action_kouhyou_detail_004_kani=true&JigyosyoCd=4260190774-00&ServiceCd=130&Type=search", "url2": "https://jmnh.or.jp/" }, "geometry": { "type": "Point", "coordinates": [ 129.8608051, 32.7470194 ] } },
{ "type": "Feature", "properties": { "内容": "医療法人　清潮会　訪問看護ステーションあんしん【訪問看護】長崎県長崎市布巻町165番地１", "url": "https://www.kaigokensaku.mhlw.go.jp/42/index.php?action_kouhyou_detail_004_kani=true&JigyosyoCd=4260190568-00&ServiceCd=130&Type=search", "url2": null }, "geometry": { "type": "Point", "coordinates": [ 129.832316900000023, 32.6542122 ] } },
{ "type": "Feature", "properties": { "内容": "長崎南訪問看護ステーション“２１”【訪問看護】長崎県長崎市田上２丁目１４号１５番", "url": "https://www.kaigokensaku.mhlw.go.jp/42/index.php?action_kouhyou_detail_004_kani=true&JigyosyoCd=4260190154-00&ServiceCd=130&Type=search", "url2": "http://www.tagami-hp.com" }, "geometry": { "type": "Point", "coordinates": [ 129.887386399999968, 32.7258437 ] } },
{ "type": "Feature", "properties": { "内容": "医療法人友愛会　訪問看護ステーション　あんこう【訪問看護】長崎県長崎市浜口町１４番１６号", "url": "https://www.kaigokensaku.mhlw.go.jp/42/index.php?action_kouhyou_detail_004_kani=true&JigyosyoCd=4260190139-00&ServiceCd=130&Type=search", "url2": null }, "geometry": { "type": "Point", "coordinates": [ 129.86663849009517, 32.769278735492684 ] } },
{ "type": "Feature", "properties": { "内容": "訪問看護ステーションあじさい【訪問看護】長崎県長崎市若草町3-25", "url": "https://www.kaigokensaku.mhlw.go.jp/42/index.php?action_kouhyou_detail_004_kani=true&JigyosyoCd=4260190071-00&ServiceCd=130&Type=search", "url2": "http://www.midorimidori.jp/" }, "geometry": { "type": "Point", "coordinates": [ 129.854127830014221, 32.775459559324993 ] } },
{ "type": "Feature", "properties": { "内容": "訪問看護ステーション　ソレイユ【訪問看護】長崎県長崎市下黒崎町１４０２番地日浦病院", "url": "https://www.kaigokensaku.mhlw.go.jp/42/index.php?action_kouhyou_detail_004_kani=true&JigyosyoCd=4260190923-00&ServiceCd=130&Type=search", "url2": "https://hiurahp.jp/homecare/" }, "geometry": { "type": "Point", "coordinates": [ 129.7149265, 32.8357843 ] } },
{ "type": "Feature", "properties": { "内容": "訪問看護ステーション　ゆうあい【訪問看護】長崎県長崎市蚊焼町２３４８番地２", "url": "https://www.kaigokensaku.mhlw.go.jp/42/index.php?action_kouhyou_detail_004_kani=true&JigyosyoCd=4260190238-00&ServiceCd=130&Type=search", "url2": null }, "geometry": { "type": "Point", "coordinates": [ 129.822992500000026, 32.6523178 ] } },
{ "type": "Feature", "properties": { "内容": "医療法人社団健昌会　新里クリニック浦上【訪問看護】長崎市茂里町3番20号", "url": "https://www.kaigokensaku.mhlw.go.jp/42/index.php?action_kouhyou_detail_004_kani=true&JigyosyoCd=4210167062-00&ServiceCd=130&Type=search", "url2": "https://shinzato.jp/" }, "geometry": { "type": "Point", "coordinates": [ 129.862709363229357, 32.766125800165206 ] } },
{ "type": "Feature", "properties": { "内容": "医療法人社団春秋会　訪問看護ステーション太陽【訪問看護】長崎県長崎市松が枝町3番20号", "url": "https://www.kaigokensaku.mhlw.go.jp/42/index.php?action_kouhyou_detail_004_kani=true&JigyosyoCd=4270102033-00&ServiceCd=130&Type=search", "url2": "http://www.syunjyu-kai.or.jp" }, "geometry": { "type": "Point", "coordinates": [ 129.871451590807283, 32.734749971318678 ] } },
{ "type": "Feature", "properties": { "内容": "医療法人昭和会　昭和会訪問看護ステーション【訪問看護】長崎県長崎市大浦町10番40号", "url": "https://www.kaigokensaku.mhlw.go.jp/42/index.php?action_kouhyou_detail_004_kani=true&JigyosyoCd=4260190089-00&ServiceCd=130&Type=search", "url2": "http://www.showakai-hp.jp/" }, "geometry": { "type": "Point", "coordinates": [ 129.872790326543509, 32.736404452548051 ] } },
{ "type": "Feature", "properties": { "内容": "訪問看護ステーション　たにがわ【訪問看護】長崎県長崎市若葉町7-2野口ビル　203号", "url": "https://www.kaigokensaku.mhlw.go.jp/42/index.php?action_kouhyou_detail_004_kani=true&JigyosyoCd=4260190659-00&ServiceCd=130&Type=search", "url2": "http://tanigawa.clinic/" }, "geometry": { "type": "Point", "coordinates": [ 129.860733100000061, 32.7884327 ] } },
{ "type": "Feature", "properties": { "内容": "訪問看護ステーション東長崎和仁会【訪問看護】長崎県長崎市中里町９６番地連携室内", "url": "https://www.kaigokensaku.mhlw.go.jp/42/index.php?action_kouhyou_detail_004_kani=true&JigyosyoCd=4260190444-00&ServiceCd=130&Type=search", "url2": "http://www.wajinkai.jp" }, "geometry": { "type": "Point", "coordinates": [ 129.962084299999987, 32.7979466 ] } },
{ "type": "Feature", "properties": { "内容": "たおやかに・訪問看護ステーション【訪問看護】長崎県長崎市上黒崎町777番地", "url": "https://www.kaigokensaku.mhlw.go.jp/42/index.php?action_kouhyou_detail_004_kani=true&JigyosyoCd=4260190204-00&ServiceCd=130&Type=search", "url2": "https://www.itidoutaoyakani.com" }, "geometry": { "type": "Point", "coordinates": [ 129.71775157354125, 32.844118382768904 ] } },
{ "type": "Feature", "properties": { "内容": "訪問看護ステーション　きずな【訪問看護】長崎県長崎市豊洋台１丁目３２番２号", "url": "https://www.kaigokensaku.mhlw.go.jp/42/index.php?action_kouhyou_detail_004_kani=true&JigyosyoCd=4260190550-00&ServiceCd=130&Type=search", "url2": "http://www.taijukai.innfo" }, "geometry": { "type": "Point", "coordinates": [ 129.791559399999983, 32.8302814 ] } },
{ "type": "Feature", "properties": { "内容": "訪問看護ステーションならの木【訪問看護】長崎県長崎市宝町9番14号　2階", "url": "https://www.kaigokensaku.mhlw.go.jp/42/index.php?action_kouhyou_detail_004_kani=true&JigyosyoCd=4260190584-00&ServiceCd=130&Type=search", "url2": null }, "geometry": { "type": "Point", "coordinates": [ 129.866528799999969, 32.7600067 ] } },
{ "type": "Feature", "properties": { "内容": "長崎市医師会保健福祉センター【訪問看護】長崎県長崎市栄町２番２２号", "url": "https://www.kaigokensaku.mhlw.go.jp/42/index.php?action_kouhyou_detail_004_kani=true&JigyosyoCd=4270100235-00&ServiceCd=130&Type=search", "url2": "http://www.nagasaki.med.or.jp/n-city/" }, "geometry": { "type": "Point", "coordinates": [ 129.877719800000023, 32.7481081 ] } },
{ "type": "Feature", "properties": { "内容": "訪問看護ナーシングバディ【訪問看護】長崎県長崎市家野町10-17田代ビル102", "url": "https://www.kaigokensaku.mhlw.go.jp/42/index.php?action_kouhyou_detail_004_kani=true&JigyosyoCd=4260190824-00&ServiceCd=130&Type=search", "url2": "https://life-buddy.business.site/" }, "geometry": { "type": "Point", "coordinates": [ 129.8639995, 32.7886767 ] } },
{ "type": "Feature", "properties": { "内容": "アシスト訪問看護リハビリステーション【訪問看護】長崎県長崎市矢上町6-10小林ビル1階", "url": "https://www.kaigokensaku.mhlw.go.jp/42/index.php?action_kouhyou_detail_004_kani=true&JigyosyoCd=4260190527-00&ServiceCd=130&Type=search", "url2": "http://www.assist-nagasaki.net/" }, "geometry": { "type": "Point", "coordinates": [ 129.952084712621769, 32.771573894134562 ] } },
{ "type": "Feature", "properties": { "内容": "ニチイケアセンター長崎　訪問看護ステーション【訪問看護】長崎県長崎市桜馬場1丁目2番4号　グリーンビル3F", "url": "https://www.kaigokensaku.mhlw.go.jp/42/index.php?action_kouhyou_detail_004_kani=true&JigyosyoCd=4260190311-00&ServiceCd=130&Type=search", "url2": "http://www.nichiigakkan.co.jp/" }, "geometry": { "type": "Point", "coordinates": [ 129.887380399999984, 32.7528411 ] } },
{ "type": "Feature", "properties": { "内容": "つむぎ訪問看護ステーション【訪問看護】長崎県長崎市昭和丁目７番８号", "url": "https://www.kaigokensaku.mhlw.go.jp/42/index.php?action_kouhyou_detail_004_kani=true&JigyosyoCd=4260190881-00&ServiceCd=130&Type=search", "url2": "https://rayl-nagasaki.net" }, "geometry": { "type": "Point", "coordinates": [ 129.8720553, 32.7958235 ] } },
{ "type": "Feature", "properties": { "内容": "訪問看護ステーション　スマイルきゅあ【訪問看護】長崎市御船蔵町6-3", "url": "https://www.kaigokensaku.mhlw.go.jp/42/index.php?action_kouhyou_detail_004_kani=true&JigyosyoCd=4260190592-00&ServiceCd=130&Type=search", "url2": "http://www.tsukasa-co.jp" }, "geometry": { "type": "Point", "coordinates": [ 129.871575312681102, 32.75605721188029 ] } },
{ "type": "Feature", "properties": { "内容": "こころ訪問看護ステーション【訪問看護】青山町１０－５", "url": "https://www.kaigokensaku.mhlw.go.jp/42/index.php?action_kouhyou_detail_004_kani=true&JigyosyoCd=4260190758-00&ServiceCd=130&Type=search", "url2": "https://lifecare-ltd.com/" }, "geometry": { "type": "Point", "coordinates": [ 129.8512232, 32.777077 ] } },
{ "type": "Feature", "properties": { "内容": "訪問看護ステーション　はーとふる長崎【訪問看護】長崎県長崎市福田本町185番2", "url": "https://www.kaigokensaku.mhlw.go.jp/42/index.php?action_kouhyou_detail_004_kani=true&JigyosyoCd=4260190386-00&ServiceCd=130&Type=search", "url2": "http://www.ufinitia.com/" }, "geometry": { "type": "Point", "coordinates": [ 129.818881899999951, 32.7466288 ] } },
{ "type": "Feature", "properties": { "内容": "訪問看護ステーションほほえみ【訪問看護】長崎県長崎市日の出町４－１４", "url": "https://www.kaigokensaku.mhlw.go.jp/42/index.php?action_kouhyou_detail_004_kani=true&JigyosyoCd=4260190683-00&ServiceCd=130&Type=search", "url2": null }, "geometry": { "type": "Point", "coordinates": [ 129.875501899999989, 32.7312408 ] } },
{ "type": "Feature", "properties": { "内容": "花椿訪問看護ステーション【訪問看護】長崎県長崎市矢の平４丁目９－１８", "url": "https://www.kaigokensaku.mhlw.go.jp/42/index.php?action_kouhyou_detail_004_kani=true&JigyosyoCd=4260190725-00&ServiceCd=130&Type=search", "url2": "https://smilecs.jp/" }, "geometry": { "type": "Point", "coordinates": [ 129.894839617770742, 32.741224977042563 ] } },
{ "type": "Feature", "properties": { "内容": "訪問看護ステーションあすなろ【訪問看護】長崎市西山4丁目474番6", "url": "https://www.kaigokensaku.mhlw.go.jp/42/index.php?action_kouhyou_detail_004_kani=true&JigyosyoCd=4260190634-00&ServiceCd=130&Type=search", "url2": "https://www.truness-nagasaki.coｍ" }, "geometry": { "type": "Point", "coordinates": [ 129.88894644033229, 32.77877806322406 ] } },
{ "type": "Feature", "properties": { "内容": "ピエテ訪問看護ステーション【訪問看護】長崎県長崎市矢の平４丁目７－４コーポⅯ２０３", "url": "https://www.kaigokensaku.mhlw.go.jp/42/index.php?action_kouhyou_detail_004_kani=true&JigyosyoCd=4260190717-00&ServiceCd=130&Type=search", "url2": "https://piete-nursing.jp/" }, "geometry": { "type": "Point", "coordinates": [ 129.894569054923267, 32.742286808692697 ] } },
{ "type": "Feature", "properties": { "内容": "訪問看護ステーション　えきさい【訪問看護】長崎県長崎市興善町4番5号カクヨウBLD3階", "url": "https://www.kaigokensaku.mhlw.go.jp/42/index.php?action_kouhyou_detail_004_kani=true&JigyosyoCd=4260190766-00&ServiceCd=130&Type=search", "url2": "http://ekisaikai-nagasaki.jp" }, "geometry": { "type": "Point", "coordinates": [ 129.876179802269007, 32.748243841133515 ] } },
{ "type": "Feature", "properties": { "内容": "訪問看護ステーション　ゆめライフ【訪問看護】長崎県長崎市桜馬場1丁目1-7", "url": "https://www.kaigokensaku.mhlw.go.jp/42/index.php?action_kouhyou_detail_004_kani=true&JigyosyoCd=4260190220-00&ServiceCd=130&Type=search", "url2": "http://www.threem.jp/" }, "geometry": { "type": "Point", "coordinates": [ 129.887827300000026, 32.7521219 ] } },
{ "type": "Feature", "properties": { "内容": "訪問看護ステーションさくら【訪問看護】長崎県長崎市界1丁目9番2号大稲ビル", "url": "https://www.kaigokensaku.mhlw.go.jp/42/index.php?action_kouhyou_detail_004_kani=true&JigyosyoCd=4260190212-00&ServiceCd=130&Type=search", "url2": "sp846xw9@wind.ocn.ne.jp" }, "geometry": { "type": "Point", "coordinates": [ 129.937967800000024, 32.7591177 ] } },
{ "type": "Feature", "properties": { "内容": "エース訪問看護ステーション【訪問看護】長崎県長崎市新戸町3丁目3-28-102山川ビル102号室", "url": "https://www.kaigokensaku.mhlw.go.jp/42/index.php?action_kouhyou_detail_004_kani=true&JigyosyoCd=4260190428-00&ServiceCd=130&Type=search", "url2": "http://ace-nagasaki.net" }, "geometry": { "type": "Point", "coordinates": [ 129.868100234210232, 32.713571091192961 ] } },
{ "type": "Feature", "properties": { "内容": "合同会社訪問看護ステーション鳴見【訪問看護】長崎県長崎市鳴見台2丁目5-11", "url": "https://www.kaigokensaku.mhlw.go.jp/42/index.php?action_kouhyou_detail_004_kani=true&JigyosyoCd=4260190477-00&ServiceCd=130&Type=search", "url2": null }, "geometry": { "type": "Point", "coordinates": [ 129.804722399999946, 32.8229991 ] } },
{ "type": "Feature", "properties": { "内容": "訪問看護ステーション彩り小榊事業所【訪問看護】長崎県長崎市木鉢町２丁目６０番地５シルフィード２０１", "url": "https://www.kaigokensaku.mhlw.go.jp/42/index.php?action_kouhyou_detail_004_kani=true&JigyosyoCd=4260190790-00&ServiceCd=130&Type=search", "url2": "https://irodori-care.com" }, "geometry": { "type": "Point", "coordinates": [ 129.840967061959105, 32.729014722664765 ] } },
{ "type": "Feature", "properties": { "内容": "長崎記念病院　訪問看護ステーション【訪問看護】長崎県長崎市深堀町１丁目１４５－２２", "url": "https://www.kaigokensaku.mhlw.go.jp/42/index.php?action_kouhyou_detail_004_kani=true&JigyosyoCd=4260190535-00&ServiceCd=130&Type=search", "url2": null }, "geometry": { "type": "Point", "coordinates": [ 129.826952399999982, 32.6865875 ] } },
{ "type": "Feature", "properties": { "内容": "訪問看護ステーションそよかぜ【訪問看護】長崎市大浦町9番30号大浦診療所　４階", "url": "https://www.kaigokensaku.mhlw.go.jp/42/index.php?action_kouhyou_detail_004_kani=true&JigyosyoCd=4260190048-00&ServiceCd=130&Type=search", "url2": "https://kenyukai-kaigo.com/service/soyokaze/" }, "geometry": { "type": "Point", "coordinates": [ 129.872165253978267, 32.734972560104119 ] } },
{ "type": "Feature", "properties": { "内容": "訪問看護ステーション“ひまわり”【訪問看護】長崎県長崎市葉山1丁目28－15　S＆B葉山ショッピングプラザビル５階", "url": "https://www.kaigokensaku.mhlw.go.jp/42/index.php?action_kouhyou_detail_004_kani=true&JigyosyoCd=4260190055-00&ServiceCd=130&Type=search", "url2": "www.shunkaikai.jp/himawari/" }, "geometry": { "type": "Point", "coordinates": [ 129.850255800000014, 32.8024349 ] } },
{ "type": "Feature", "properties": { "内容": "訪問看護ステーション　PANDA【訪問看護】橋口町5-6", "url": "https://www.kaigokensaku.mhlw.go.jp/42/index.php?action_kouhyou_detail_004_kani=true&JigyosyoCd=4260190915-00&ServiceCd=130&Type=search", "url2": "http://sakuranosato.or.jp" }, "geometry": { "type": "Point", "coordinates": [ 129.864732800000013, 32.7771211 ] } },
{ "type": "Feature", "properties": { "内容": "十善会訪問看護ステーション【訪問看護】長崎県長崎市淵町20番5号在宅総合支援センター内", "url": "https://www.kaigokensaku.mhlw.go.jp/42/index.php?action_kouhyou_detail_004_kani=true&JigyosyoCd=4260190030-00&ServiceCd=130&Type=search", "url2": "http://www.juzenkai-hospital.or.jp" }, "geometry": { "type": "Point", "coordinates": [ 129.858956599999971, 32.760698 ] } },
{ "type": "Feature", "properties": { "内容": "訪問看護事業所サンハイツ【訪問看護】長崎県長崎市城栄町17-14佐々野ビル２階", "url": "https://www.kaigokensaku.mhlw.go.jp/42/index.php?action_kouhyou_detail_004_kani=true&JigyosyoCd=4260190345-00&ServiceCd=130&Type=search", "url2": "http://www.sanhaitsu.jp/" }, "geometry": { "type": "Point", "coordinates": [ 129.857499553937373, 32.774943961225283 ] } },
{ "type": "Feature", "properties": { "内容": "訪問看護ステーション・横尾【訪問看護】長崎県長崎市横尾3丁目26番2号", "url": "https://www.kaigokensaku.mhlw.go.jp/42/index.php?action_kouhyou_detail_004_kani=true&JigyosyoCd=4260190097-00&ServiceCd=130&Type=search", "url2": "http://www.heisei-kai.or.jp/" }, "geometry": { "type": "Point", "coordinates": [ 129.839453300000059, 32.8168669 ] } },
{ "type": "Feature", "properties": { "内容": "カリタス診療所【訪問看護】長崎県長崎市西出津町67-5", "url": "https://www.kaigokensaku.mhlw.go.jp/42/index.php?action_kouhyou_detail_004_kani=true&JigyosyoCd=4211123445-00&ServiceCd=130&Type=search", "url2": null }, "geometry": { "type": "Point", "coordinates": [ 129.704590300000064, 32.8523114 ] } },
{ "type": "Feature", "properties": { "内容": "フランシスコ訪問看護ステーション【訪問看護】長崎県長崎市小峰町9番20号", "url": "https://www.kaigokensaku.mhlw.go.jp/42/index.php?action_kouhyou_detail_004_kani=true&JigyosyoCd=4260190063-00&ServiceCd=130&Type=search", "url2": "http://www.sfh.or.jp/" }, "geometry": { "type": "Point", "coordinates": [ 129.872965322753856, 32.783520252334952 ] } },
{ "type": "Feature", "properties": { "内容": "訪問看護ステーションしらゆり【訪問看護】長崎県長崎市三重町461番地4", "url": "https://www.kaigokensaku.mhlw.go.jp/42/index.php?action_kouhyou_detail_004_kani=true&JigyosyoCd=4260190857-00&ServiceCd=130&Type=search", "url2": null }, "geometry": { "type": "Point", "coordinates": [ 129.7458734, 32.8238889 ] } },
{ "type": "Feature", "properties": { "内容": "日本赤十字社長崎原爆病院訪問看護ステーション【訪問看護】長崎県長崎市茂里町3番16号", "url": "https://www.kaigokensaku.mhlw.go.jp/42/index.php?action_kouhyou_detail_004_kani=true&JigyosyoCd=4260190618-00&ServiceCd=130&Type=search", "url2": "http://www.nagasaki-med.jrc.or.jp/" }, "geometry": { "type": "Point", "coordinates": [ 129.862938919049071, 32.765393467369435 ] } },
{ "type": "Feature", "properties": { "内容": "訪問看護ステーション想合同会社【訪問看護】長崎県長崎市赤迫２丁目9-25-3F", "url": "https://www.kaigokensaku.mhlw.go.jp/42/index.php?action_kouhyou_detail_004_kani=true&JigyosyoCd=4260190519-00&ServiceCd=130&Type=search", "url2": "sou-houkan.jimdo.com" }, "geometry": { "type": "Point", "coordinates": [ 129.854496628836074, 32.799589709171563 ] } },
{ "type": "Feature", "properties": { "内容": "訪問看護ステーション　かいごの花みずき【訪問看護】長崎県長崎市本尾町2-32101", "url": "https://www.kaigokensaku.mhlw.go.jp/42/index.php?action_kouhyou_detail_004_kani=true&JigyosyoCd=4260190170-00&ServiceCd=130&Type=search", "url2": "info@kaigo-8732.com" }, "geometry": { "type": "Point", "coordinates": [ 129.865834519821163, 32.776061402566491 ] } },
{ "type": "Feature", "properties": { "内容": "訪問看護ステーションあおば【訪問看護】千歳町3番8号平方ビル2F", "url": "https://www.kaigokensaku.mhlw.go.jp/42/index.php?action_kouhyou_detail_004_kani=true&JigyosyoCd=4260190188-00&ServiceCd=130&Type=search", "url2": null }, "geometry": { "type": "Point", "coordinates": [ 130.4640253, 33.5356698 ] } },
{ "type": "Feature", "properties": { "内容": "訪問看護ステーション　ゆいまーる【訪問看護】長崎市宿町187-1", "url": "https://www.kaigokensaku.mhlw.go.jp/42/index.php?action_kouhyou_detail_004_kani=true&JigyosyoCd=4270136114-00&ServiceCd=130&Type=search", "url2": null }, "geometry": { "type": "Point", "coordinates": [ 129.940294192030677, 32.759804138298286 ] } },
{ "type": "Feature", "properties": { "内容": "訪問看護ステーションたちばな【訪問看護】長崎県長崎市矢上町３１番１４号", "url": "https://www.kaigokensaku.mhlw.go.jp/42/index.php?action_kouhyou_detail_004_kani=true&JigyosyoCd=4270102488-00&ServiceCd=130&Type=search", "url2": "http://www.ryouikuriha.com" }, "geometry": { "type": "Point", "coordinates": [ 129.9519467, 32.7774678 ] } },
{ "type": "Feature", "properties": { "内容": "訪問看護ステーション　暖々【訪問看護】長崎県長崎市川平町1223番地3", "url": "https://www.kaigokensaku.mhlw.go.jp/42/index.php?action_kouhyou_detail_004_kani=true&JigyosyoCd=4260190972-00&ServiceCd=130&Type=search", "url2": null }, "geometry": { "type": "Point", "coordinates": [ 129.880147099999988, 32.7942763 ] } },
{ "type": "Feature", "properties": { "内容": "あいず訪問看護ステーション浦上駅前【訪問看護】長崎県長崎市目覚町6-1OP目覚ビル1F", "url": "https://www.kaigokensaku.mhlw.go.jp/42/index.php?action_kouhyou_detail_004_kani=true&JigyosyoCd=4260191004-00&ServiceCd=130&Type=search", "url2": "https://www.aizu-company.co.jp" }, "geometry": { "type": "Point", "coordinates": [ 129.8647748, 32.7642814 ] } },
{ "type": "Feature", "properties": { "内容": "訪問看護ステーションきんかい【訪問看護】長崎県長崎市琴海村松町７４３－３", "url": "https://www.kaigokensaku.mhlw.go.jp/42/index.php?action_kouhyou_detail_004_kani=true&JigyosyoCd=4271102495-00&ServiceCd=130&Type=search", "url2": "https://kinkai-cosmos.jp/" }, "geometry": { "type": "Point", "coordinates": [ 129.786821743299924, 32.867552329636055 ] } },
{ "type": "Feature", "properties": { "内容": "訪問看護ステーション長崎ニューポート【訪問看護】長崎県長崎市中町5-14丸善田川コーポ1階", "url": "https://www.kaigokensaku.mhlw.go.jp/42/index.php?action_kouhyou_detail_004_kani=true&JigyosyoCd=4260190899-00&ServiceCd=130&Type=search", "url2": "https://nagasaki-newport.co.jp/" }, "geometry": { "type": "Point", "coordinates": [ 129.8738737, 32.752448 ] } },
{ "type": "Feature", "properties": { "内容": "訪問看護ステーション笑【訪問看護】長崎県長崎市風頭町3番29号1階", "url": "https://www.kaigokensaku.mhlw.go.jp/42/index.php?action_kouhyou_detail_004_kani=true&JigyosyoCd=4260190964-00&ServiceCd=130&Type=search", "url2": null }, "geometry": { "type": "Point", "coordinates": [ 129.888499028836094, 32.742254355091077 ] } },
{ "type": "Feature", "properties": { "内容": "訪問看護ステーション　コルディアーレ長崎【訪問看護】大浜町317－5大浜町松尾ビル1階", "url": "https://www.kaigokensaku.mhlw.go.jp/42/index.php?action_kouhyou_detail_004_kani=true&JigyosyoCd=4260191012-00&ServiceCd=130&Type=search", "url2": "http://www.jsh-japan.jp/" }, "geometry": { "type": "Point", "coordinates": [ 129.83215770000001, 32.7438587 ] } },
{ "type": "Feature", "properties": { "内容": "スターチス訪問看護ステーション【訪問看護】長崎県長崎市三原2丁目12番8号岡アパート102号", "url": "https://www.kaigokensaku.mhlw.go.jp/42/index.php?action_kouhyou_detail_004_kani=true&JigyosyoCd=4260190998-00&ServiceCd=130&Type=search", "url2": null }, "geometry": { "type": "Point", "coordinates": [ 129.8802205, 32.7841854 ] } },
{ "type": "Feature", "properties": { "内容": "訪問看護ステーションかすみ草【訪問看護】長崎県長崎市エミネント葉山町9－3", "url": "https://www.kaigokensaku.mhlw.go.jp/42/index.php?action_kouhyou_detail_004_kani=true&JigyosyoCd=4260190840-00&ServiceCd=130&Type=search", "url2": null }, "geometry": { "type": "Point", "coordinates": [ 129.843967, 32.8004461 ] } },
{ "type": "Feature", "properties": { "内容": "訪問看護ステーションさくらの里【訪問看護】畝刈町1613-85", "url": "https://www.kaigokensaku.mhlw.go.jp/42/index.php?action_kouhyou_detail_004_kani=true&JigyosyoCd=4260190741-00&ServiceCd=130&Type=search", "url2": null }, "geometry": { "type": "Point", "coordinates": [ 129.7768246, 32.8254095 ] } },
{ "type": "Feature", "properties": { "内容": "訪問看護ステーションあいおい「立山荘」【訪問看護】長崎県長崎市立山5丁目17番53号", "url": "https://www.kaigokensaku.mhlw.go.jp/42/index.php?action_kouhyou_detail_004_kani=true&JigyosyoCd=4260190642-00&ServiceCd=130&Type=search", "url2": null }, "geometry": { "type": "Point", "coordinates": [ 129.878645900000038, 32.7615228 ] } },
{ "type": "Feature", "properties": { "内容": "双喜【訪問看護】長崎県長崎市伊勢町3-26伊勢コーポ301号", "url": "https://www.kaigokensaku.mhlw.go.jp/42/index.php?action_kouhyou_detail_004_kani=true&JigyosyoCd=4260190907-00&ServiceCd=130&Type=search", "url2": null }, "geometry": { "type": "Point", "coordinates": [ 129.885011100000014, 32.7518325 ] } },
{ "type": "Feature", "properties": { "内容": "陽の出訪問看護ステーション【訪問看護】長崎県長崎市緑町3-19", "url": "https://www.kaigokensaku.mhlw.go.jp/42/index.php?action_kouhyou_detail_004_kani=true&JigyosyoCd=4260190733-00&ServiceCd=130&Type=search", "url2": "https://you-three.net/" }, "geometry": { "type": "Point", "coordinates": [ 129.867841259724116, 32.763457880269399 ] } },
{ "type": "Feature", "properties": { "内容": "ほうもんかんごすてーしょんいと【訪問看護】長崎県長崎市緑が丘町1-4-２", "url": "https://www.kaigokensaku.mhlw.go.jp/42/index.php?action_kouhyou_detail_004_kani=true&JigyosyoCd=4260190956-00&ServiceCd=130&Type=search", "url2": "https://www.libercare.jp/" }, "geometry": { "type": "Point", "coordinates": [ 129.858530300000012, 32.7839116 ] } },
{ "type": "Feature", "properties": { "内容": "訪問看護ステーションデューン佐世保【訪問看護】長崎県佐世保市福石町8-1しげるビル1階", "url": "https://www.kaigokensaku.mhlw.go.jp/42/index.php?action_kouhyou_detail_004_kani=true&JigyosyoCd=4260290129-00&ServiceCd=130&Type=search", "url2": "www.nfield.co.jp" }, "geometry": { "type": "Point", "coordinates": [ 129.729234099999985, 33.160137 ] } },
{ "type": "Feature", "properties": { "内容": "セントケア訪問看護ステーション佐世保【訪問看護】長崎県佐世保市広田3丁目14番51号杢尾ビル2号室", "url": "https://www.kaigokensaku.mhlw.go.jp/42/index.php?action_kouhyou_detail_004_kani=true&JigyosyoCd=4260290285-00&ServiceCd=130&Type=search", "url2": "https://saint-care-kyusyu.hp-recruit.jp/" }, "geometry": { "type": "Point", "coordinates": [ 129.804275400000023, 33.122352600000035 ] } },
{ "type": "Feature", "properties": { "内容": "久保内科訪問看護ステーション【訪問看護】長崎県佐世保市田原町11-9", "url": "https://www.kaigokensaku.mhlw.go.jp/42/index.php?action_kouhyou_detail_004_kani=true&JigyosyoCd=4260290368-00&ServiceCd=130&Type=search", "url2": "https://kubonaika.or.jp/" }, "geometry": { "type": "Point", "coordinates": [ 129.721357, 33.207155 ] } },
{ "type": "Feature", "properties": { "内容": "医療法人　誠愛会　訪問看護ステーションかしまえ【訪問看護】長崎県佐世保市日野町856-9", "url": "https://www.kaigokensaku.mhlw.go.jp/42/index.php?action_kouhyou_detail_004_kani=true&JigyosyoCd=4260290038-00&ServiceCd=130&Type=search", "url2": "http://www.sasebokinenhp.com" }, "geometry": { "type": "Point", "coordinates": [ 129.675958799999989, 33.1714855 ] } },
{ "type": "Feature", "properties": { "内容": "指定訪問看護ステーション　くりや【訪問看護】長崎県佐世保市指方町２２１７番地１", "url": "https://www.kaigokensaku.mhlw.go.jp/42/index.php?action_kouhyou_detail_004_kani=true&JigyosyoCd=4260290061-00&ServiceCd=130&Type=search", "url2": "kuriya-naika.com" }, "geometry": { "type": "Point", "coordinates": [ 129.784836199999972, 33.1063238 ] } },
{ "type": "Feature", "properties": { "内容": "医療法人社団平世会　村上医院【訪問看護】長崎県佐世保市広田1丁目5番25号", "url": "https://www.kaigokensaku.mhlw.go.jp/42/index.php?action_kouhyou_detail_004_kani=true&JigyosyoCd=4210225498-00&ServiceCd=130&Type=search", "url2": "https://www.murakami-iin.ji" }, "geometry": { "type": "Point", "coordinates": [ 129.800540506745904, 33.130306315569158 ] } },
{ "type": "Feature", "properties": { "内容": "訪問看護ステーション　クローバー【訪問看護】長崎県佐世保市鹿町町上歌ケ浦446番地1", "url": "https://www.kaigokensaku.mhlw.go.jp/42/index.php?action_kouhyou_detail_004_kani=true&JigyosyoCd=4260290269-00&ServiceCd=130&Type=search", "url2": "https://kaouuenno.wixsite.com/kaou" }, "geometry": { "type": "Point", "coordinates": [ 129.5943124, 33.262548099999989 ] } },
{ "type": "Feature", "properties": { "内容": "訪問看護ステーションきずな【訪問看護】長崎県佐世保市早岐2-8-17", "url": "https://www.kaigokensaku.mhlw.go.jp/42/index.php?action_kouhyou_detail_004_kani=true&JigyosyoCd=4260290293-00&ServiceCd=130&Type=search", "url2": null }, "geometry": { "type": "Point", "coordinates": [ 129.7956936, 33.1369544 ] } },
{ "type": "Feature", "properties": { "内容": "あいず訪問看護ステーション江迎【訪問看護】長崎県佐世保市江迎町長坂179-1", "url": "https://www.kaigokensaku.mhlw.go.jp/42/index.php?action_kouhyou_detail_004_kani=true&JigyosyoCd=4260290228-00&ServiceCd=130&Type=search", "url2": "http:aizu-company.co.jp" }, "geometry": { "type": "Point", "coordinates": [ 129.628987599999959, 33.3076913 ] } },
{ "type": "Feature", "properties": { "内容": "あいず訪問看護ステーション早岐【訪問看護】長崎県佐世保市権常寺１丁目4-12木村ビル103", "url": "https://www.kaigokensaku.mhlw.go.jp/42/index.php?action_kouhyou_detail_004_kani=true&JigyosyoCd=4260290301-00&ServiceCd=130&Type=search", "url2": "https://www.aizu-company.co.jp" }, "geometry": { "type": "Point", "coordinates": [ 129.8004104, 33.1319624 ] } },
{ "type": "Feature", "properties": { "内容": "あいず訪問看護ステーション元町【訪問看護】長崎県佐世保市元町2-10-103", "url": "https://www.kaigokensaku.mhlw.go.jp/42/index.php?action_kouhyou_detail_004_kani=true&JigyosyoCd=4260290137-00&ServiceCd=130&Type=search", "url2": "http://aizu-company.co.jp" }, "geometry": { "type": "Point", "coordinates": [ 129.720984499999986, 33.1670943 ] } },
{ "type": "Feature", "properties": { "内容": "訪問看護リハビリステーションエール【訪問看護】長崎県佐世保市皆瀬町６７９", "url": "https://www.kaigokensaku.mhlw.go.jp/42/index.php?action_kouhyou_detail_004_kani=true&JigyosyoCd=4260290152-00&ServiceCd=130&Type=search", "url2": null }, "geometry": { "type": "Point", "coordinates": [ 129.702832899999947, 33.2132901 ] } },
{ "type": "Feature", "properties": { "内容": "訪問看護ステーション　結【訪問看護】松山町1-17", "url": "https://www.kaigokensaku.mhlw.go.jp/42/index.php?action_kouhyou_detail_004_kani=true&JigyosyoCd=4260290210-00&ServiceCd=130&Type=search", "url2": "www.houmonnkanngo-yui.com" }, "geometry": { "type": "Point", "coordinates": [ 129.721632600000021, 33.1883525 ] } },
{ "type": "Feature", "properties": { "内容": "訪問看護ステーション　りぶら【訪問看護】長崎県佐世保市田の浦町43−16", "url": "https://www.kaigokensaku.mhlw.go.jp/42/index.php?action_kouhyou_detail_004_kani=true&JigyosyoCd=4260290327-00&ServiceCd=130&Type=search", "url2": "nearbynurse.wixsite.com/liv-la" }, "geometry": { "type": "Point", "coordinates": [ 129.785087147885122, 33.146770751121018 ] } },
{ "type": "Feature", "properties": { "内容": "白十字会訪問看護ステーション【訪問看護】長崎県佐世保市大和町30番地ドリームスティのぞみ内1階", "url": "https://www.kaigokensaku.mhlw.go.jp/42/index.php?action_kouhyou_detail_004_kani=true&JigyosyoCd=4260290046-00&ServiceCd=130&Type=search", "url2": "www.hakujyujikai.or.jp" }, "geometry": { "type": "Point", "coordinates": [ 129.747002299999963, 33.15630160000002 ] } },
{ "type": "Feature", "properties": { "内容": "谷薬品株式会社　訪問看護ステーション　ココペリ【訪問看護】長崎県佐世保市木風町１４５４－４", "url": "https://www.kaigokensaku.mhlw.go.jp/42/index.php?action_kouhyou_detail_004_kani=true&JigyosyoCd=4260290335-00&ServiceCd=130&Type=search", "url2": "https://kokopelli-nst.com" }, "geometry": { "type": "Point", "coordinates": [ 129.744281300000011, 33.1638838 ] } },
{ "type": "Feature", "properties": { "内容": "地方独立行政法人　北松中央病院　訪問看護ステーションたんぽぽ【訪問看護】長崎県佐世保市江迎町赤坂299番地訪問看護ステーションたんぽぽ", "url": "https://www.kaigokensaku.mhlw.go.jp/42/index.php?action_kouhyou_detail_004_kani=true&JigyosyoCd=4261590022-00&ServiceCd=130&Type=search", "url2": "http://www.hokusho.dr-clinic.jp/index.html" }, "geometry": { "type": "Point", "coordinates": [ 129.6391883, 33.2976741 ] } },
{ "type": "Feature", "properties": { "内容": "千住訪問看護ステーション【訪問看護】長崎県佐世保市宮地町５番５号", "url": "https://www.kaigokensaku.mhlw.go.jp/42/index.php?action_kouhyou_detail_004_kani=true&JigyosyoCd=4260290012-00&ServiceCd=130&Type=search", "url2": "http://www.1010hosp.or.jp" }, "geometry": { "type": "Point", "coordinates": [ 129.722370400000045, 33.1746908 ] } },
{ "type": "Feature", "properties": { "内容": "訪問看護ステーションリケア【訪問看護】長崎県佐世保市大塔町723番地1シエスタハイツ203号", "url": "https://www.kaigokensaku.mhlw.go.jp/42/index.php?action_kouhyou_detail_004_kani=true&JigyosyoCd=4260290392-00&ServiceCd=130&Type=search", "url2": "https://www.refusecare.jp/" }, "geometry": { "type": "Point", "coordinates": [ 129.7783813, 33.1490738 ] } },
{ "type": "Feature", "properties": { "内容": "訪問看護ステーションアルゴ【訪問看護】長崎県佐世保市天神５丁目16-7", "url": "https://www.kaigokensaku.mhlw.go.jp/42/index.php?action_kouhyou_detail_004_kani=true&JigyosyoCd=4260290400-00&ServiceCd=130&Type=search", "url2": null }, "geometry": { "type": "Point", "coordinates": [ 129.7357839, 33.1459304 ] } },
{ "type": "Feature", "properties": { "内容": "はなさんば訪問看護ステーション【訪問看護】長崎県佐世保市天神５丁目４０－３０", "url": "https://www.kaigokensaku.mhlw.go.jp/42/index.php?action_kouhyou_detail_004_kani=true&JigyosyoCd=4260290426-00&ServiceCd=130&Type=search", "url2": "https://kurashitocare.com/" }, "geometry": { "type": "Point", "coordinates": [ 129.7397536, 33.1489105 ] } },
{ "type": "Feature", "properties": { "内容": "訪問看護ステーション　ぱんだ　佐世保【訪問看護】白岳町１００２−４訪問看護ステーション　ぱんだ　佐世保", "url": "https://www.kaigokensaku.mhlw.go.jp/42/index.php?action_kouhyou_detail_004_kani=true&JigyosyoCd=4260290350-00&ServiceCd=130&Type=search", "url2": "https://pnd-sasebo.themedia.jp/" }, "geometry": { "type": "Point", "coordinates": [ 129.756204128245713, 33.144606568857185 ] } },
{ "type": "Feature", "properties": { "内容": "てんてん訪問看護ステーション【訪問看護】長崎県佐世保市小佐世保町410-2", "url": "https://www.kaigokensaku.mhlw.go.jp/42/index.php?action_kouhyou_detail_004_kani=true&JigyosyoCd=4260290418-00&ServiceCd=130&Type=search", "url2": null }, "geometry": { "type": "Point", "coordinates": [ 129.7381934, 33.1740144 ] } },
{ "type": "Feature", "properties": { "内容": "医療法人　成蹊会　佐世保北訪問看護ステーション【訪問看護】長崎県佐世保市下本山町432番地1", "url": "https://www.kaigokensaku.mhlw.go.jp/42/index.php?action_kouhyou_detail_004_kani=true&JigyosyoCd=4260290384-00&ServiceCd=130&Type=search", "url2": "https://sasebokitabyouin.net/houmonkango/" }, "geometry": { "type": "Point", "coordinates": [ 129.683098699999988, 33.2078741 ] } },
{ "type": "Feature", "properties": { "内容": "訪問看護ステーションここわ【訪問看護】長崎県佐世保市浜田町1番6号", "url": "https://www.kaigokensaku.mhlw.go.jp/42/index.php?action_kouhyou_detail_004_kani=true&JigyosyoCd=4260290244-00&ServiceCd=130&Type=search", "url2": null }, "geometry": { "type": "Point", "coordinates": [ 129.7174884, 33.1757156 ] } },
{ "type": "Feature", "properties": { "内容": "キュアサポートアミスヴィラ森岳【訪問看護】長崎県島原市城内１丁目1836-1", "url": "https://www.kaigokensaku.mhlw.go.jp/42/index.php?action_kouhyou_detail_004_kani=true&JigyosyoCd=4260390077-00&ServiceCd=130&Type=search", "url2": "http//shunkokai.jp" }, "geometry": { "type": "Point", "coordinates": [ 130.3653344, 32.7885393 ] } },
{ "type": "Feature", "properties": { "内容": "一般社団法人島原市医師会訪問看護ステーションＱ【訪問看護】長崎県島原市萩原１丁目１２３０", "url": "https://www.kaigokensaku.mhlw.go.jp/42/index.php?action_kouhyou_detail_004_kani=true&JigyosyoCd=4260390010-00&ServiceCd=130&Type=search", "url2": null }, "geometry": { "type": "Point", "coordinates": [ 130.366425099999987, 32.7857389 ] } },
{ "type": "Feature", "properties": { "内容": "訪問看護あおぞら福祉会【訪問看護】長崎県島原市秩父が浦町9番地1", "url": "https://www.kaigokensaku.mhlw.go.jp/42/index.php?action_kouhyou_detail_004_kani=true&JigyosyoCd=4260390036-00&ServiceCd=130&Type=search", "url2": null }, "geometry": { "type": "Point", "coordinates": [ 130.369548200000054, 32.7622106 ] } },
{ "type": "Feature", "properties": { "内容": "訪問看護ステーションしまばら【訪問看護】長崎県島原市高島二丁目7209-5", "url": "https://www.kaigokensaku.mhlw.go.jp/42/index.php?action_kouhyou_detail_004_kani=true&JigyosyoCd=4260390051-00&ServiceCd=130&Type=search", "url2": "npo-shimabara.com" }, "geometry": { "type": "Point", "coordinates": [ 130.372662, 32.7855927 ] } },
{ "type": "Feature", "properties": { "内容": "指定訪問看護ステーション　ウイング大手門【訪問看護】長崎県島原市前浜町丙21番地1", "url": "https://www.kaigokensaku.mhlw.go.jp/42/index.php?action_kouhyou_detail_004_kani=true&JigyosyoCd=4270300389-00&ServiceCd=130&Type=search", "url2": "http://www.takagihp.or.jp/" }, "geometry": { "type": "Point", "coordinates": [ 130.360527199999979, 32.8092229 ] } },
{ "type": "Feature", "properties": { "内容": "株式会社訪問看護ステーションこころ【訪問看護】長崎県島原市広馬場町375-3古川ビル2階", "url": "https://www.kaigokensaku.mhlw.go.jp/42/index.php?action_kouhyou_detail_004_kani=true&JigyosyoCd=4270301312-00&ServiceCd=130&Type=search", "url2": null }, "geometry": { "type": "Point", "coordinates": [ 130.373370498377881, 32.775427631676635 ] } },
{ "type": "Feature", "properties": { "内容": "フォーリーフ諫早訪問看護ステーション【訪問看護】永昌町10‐8江口貸事務所202", "url": "https://www.kaigokensaku.mhlw.go.jp/42/index.php?action_kouhyou_detail_004_kani=true&JigyosyoCd=4260490307-00&ServiceCd=130&Type=search", "url2": null }, "geometry": { "type": "Point", "coordinates": [ 130.0400096, 32.8505035 ] } },
{ "type": "Feature", "properties": { "内容": "訪問看護ステーションいしずえ長崎【訪問看護】長崎県諫早市貝津町1409番地15", "url": "https://www.kaigokensaku.mhlw.go.jp/42/index.php?action_kouhyou_detail_004_kani=true&JigyosyoCd=4260490257-00&ServiceCd=130&Type=search", "url2": "http://ishizue-nagasaki.jp" }, "geometry": { "type": "Point", "coordinates": [ 130.0122183, 32.8436876 ] } },
{ "type": "Feature", "properties": { "内容": "訪問看護・リハビリステーションあいのわ【訪問看護】長崎県諫早市幸町52-7", "url": "https://www.kaigokensaku.mhlw.go.jp/42/index.php?action_kouhyou_detail_004_kani=true&JigyosyoCd=4260490133-00&ServiceCd=130&Type=search", "url2": "http://www.reha-ainowa.co.jp" }, "geometry": { "type": "Point", "coordinates": [ 130.061455600000045, 32.8514597 ] } },
{ "type": "Feature", "properties": { "内容": "西諫早訪問看護ステーションのんのこ【訪問看護】長崎県諫早市貝津町３０１５", "url": "https://www.kaigokensaku.mhlw.go.jp/42/index.php?action_kouhyou_detail_004_kani=true&JigyosyoCd=4260490042-00&ServiceCd=130&Type=search", "url2": "http://syoujinkai.com" }, "geometry": { "type": "Point", "coordinates": [ 130.020144399999907, 32.8371014 ] } },
{ "type": "Feature", "properties": { "内容": "恵寿病院訪問看護ステーション【訪問看護】長崎県諫早市有喜町593-1", "url": "https://www.kaigokensaku.mhlw.go.jp/42/index.php?action_kouhyou_detail_004_kani=true&JigyosyoCd=4260490190-00&ServiceCd=130&Type=search", "url2": "http://uki-hukushimura.jp" }, "geometry": { "type": "Point", "coordinates": [ 130.0777745, 32.7917008 ] } },
{ "type": "Feature", "properties": { "内容": "諫早記念病院訪問看護ステーション【訪問看護】長崎県諫早市天満町2番21号医療法人宏善会　諫早記念病院", "url": "https://www.kaigokensaku.mhlw.go.jp/42/index.php?action_kouhyou_detail_004_kani=true&JigyosyoCd=4260490091-00&ServiceCd=130&Type=search", "url2": "http://www．kohzenkai.or.jp" }, "geometry": { "type": "Point", "coordinates": [ 130.045346599999959, 32.849938699999989 ] } },
{ "type": "Feature", "properties": { "内容": "諫早医師会訪問看護ステーション「たんぽぽ」【訪問看護】長崎県諫早市泉町２３番３号", "url": "https://www.kaigokensaku.mhlw.go.jp/42/index.php?action_kouhyou_detail_004_kani=true&JigyosyoCd=4260490018-00&ServiceCd=130&Type=search", "url2": "http://isahaya-mds.org/publics/index/25/" }, "geometry": { "type": "Point", "coordinates": [ 130.056794120962536, 32.848372103748439 ] } },
{ "type": "Feature", "properties": { "内容": "訪問看護ステーション花ゆめ【訪問看護】長崎県諫早市小川町1259番地1", "url": "https://www.kaigokensaku.mhlw.go.jp/42/index.php?action_kouhyou_detail_004_kani=true&JigyosyoCd=4260490166-00&ServiceCd=130&Type=search", "url2": "https://nurse-hanayume.jp/" }, "geometry": { "type": "Point", "coordinates": [ 130.053664635794121, 32.831423171971771 ] } },
{ "type": "Feature", "properties": { "内容": "長崎県看護協会訪問看護ステーション【訪問看護】長崎県諌早市永昌町２３番６号ながさき看護センター内", "url": "https://www.kaigokensaku.mhlw.go.jp/42/index.php?action_kouhyou_detail_004_kani=true&JigyosyoCd=4260490034-00&ServiceCd=130&Type=search", "url2": "http://www.nagasaki-nurse.or.jp/" }, "geometry": { "type": "Point", "coordinates": [ 130.035868199999982, 32.8506647 ] } },
{ "type": "Feature", "properties": { "内容": "訪問看護ステーションひらき【訪問看護】長崎県諫早市飯盛町開1368ー1有料老人ホームゆいのはま　1F", "url": "https://www.kaigokensaku.mhlw.go.jp/42/index.php?action_kouhyou_detail_004_kani=true&JigyosyoCd=4260490240-00&ServiceCd=130&Type=search", "url2": "https://www.itoyoshi-yuinohama.com" }, "geometry": { "type": "Point", "coordinates": [ 130.0156735, 32.7802897 ] } },
{ "type": "Feature", "properties": { "内容": "訪問看護ステーション　バルーン【訪問看護】長崎県諌早市幸町４１番１７号", "url": "https://www.kaigokensaku.mhlw.go.jp/42/index.php?action_kouhyou_detail_004_kani=true&JigyosyoCd=4260490232-00&ServiceCd=130&Type=search", "url2": "https://isahayaballoon.com/" }, "geometry": { "type": "Point", "coordinates": [ 130.0652624, 32.8392689 ] } },
{ "type": "Feature", "properties": { "内容": "あいず訪問看護ステーション諫早【訪問看護】長崎県諫早市永昌東町1-3ライオンズマンション諫早ステーションスクエア２号棟105号室", "url": "https://www.kaigokensaku.mhlw.go.jp/42/index.php?action_kouhyou_detail_004_kani=true&JigyosyoCd=4260490265-00&ServiceCd=130&Type=search", "url2": "URL:http://aizu-company.co.jp" }, "geometry": { "type": "Point", "coordinates": [ 130.041322865606702, 32.853558345058801 ] } },
{ "type": "Feature", "properties": { "内容": "訪問看護ステーションこば【訪問看護】長崎県諫早市福田町30番36号", "url": "https://www.kaigokensaku.mhlw.go.jp/42/index.php?action_kouhyou_detail_004_kani=true&JigyosyoCd=4260490109-00&ServiceCd=130&Type=search", "url2": "http://www.smile-nurse.co.jp/" }, "geometry": { "type": "Point", "coordinates": [ 130.063136529326158, 32.849918231502656 ] } },
{ "type": "Feature", "properties": { "内容": "宮崎病院訪問看護ステーション【訪問看護】長崎県諫早市久山町1575-1", "url": "https://www.kaigokensaku.mhlw.go.jp/42/index.php?action_kouhyou_detail_004_kani=true&JigyosyoCd=4260490026-00&ServiceCd=130&Type=search", "url2": "http://sankoukai.net/department/kaigo/houmon.php" }, "geometry": { "type": "Point", "coordinates": [ 130.002124799999962, 32.830542500000014 ] } },
{ "type": "Feature", "properties": { "内容": "日本赤十字社長崎原爆諫早病院訪問看護ステーション【訪問看護】長崎県諫早市多良見町化屋９８６番地2日本赤十字社長崎原爆諫早病院内", "url": "https://www.kaigokensaku.mhlw.go.jp/42/index.php?action_kouhyou_detail_004_kani=true&JigyosyoCd=4260490125-00&ServiceCd=130&Type=search", "url2": "http://www.isahaya.jrc.or.jp/byoin/" }, "geometry": { "type": "Point", "coordinates": [ 129.983456700000033, 32.8261662 ] } },
{ "type": "Feature", "properties": { "内容": "医療法人　社団　淳生会　慈恵病院　訪問看護ステーション【訪問看護】長崎県諫早市多良見町化屋９９５番地", "url": "https://www.kaigokensaku.mhlw.go.jp/42/index.php?action_kouhyou_detail_004_kani=true&JigyosyoCd=4271101166-00&ServiceCd=130&Type=search", "url2": "http://www.jyunseikai-jikei.net" }, "geometry": { "type": "Point", "coordinates": [ 129.983048199999985, 32.8282548 ] } },
{ "type": "Feature", "properties": { "内容": "訪問看護ステーションTOMO諫早【訪問看護】長崎県諫早市小船越町597-12", "url": "https://www.kaigokensaku.mhlw.go.jp/42/index.php?action_kouhyou_detail_004_kani=true&JigyosyoCd=4260490141-00&ServiceCd=130&Type=search", "url2": "https://www.human-loop.com" }, "geometry": { "type": "Point", "coordinates": [ 130.026571600000011, 32.8412402 ] } },
{ "type": "Feature", "properties": { "内容": "ファミーユ訪問看護ステーション【訪問看護】諫早市土師野尾町１８３３－１", "url": "https://www.kaigokensaku.mhlw.go.jp/42/index.php?action_kouhyou_detail_004_kani=true&JigyosyoCd=4260490224-00&ServiceCd=130&Type=search", "url2": "https://kisaragikai.info" }, "geometry": { "type": "Point", "coordinates": [ 130.0306817, 32.8002527 ] } },
{ "type": "Feature", "properties": { "内容": "訪問看護ステーションまちのかかりつけナース【訪問看護】長崎県諫早市天満町16番33号", "url": "https://www.kaigokensaku.mhlw.go.jp/42/index.php?action_kouhyou_detail_004_kani=true&JigyosyoCd=4260490273-00&ServiceCd=130&Type=search", "url2": null }, "geometry": { "type": "Point", "coordinates": [ 130.0470786, 32.8479527 ] } },
{ "type": "Feature", "properties": { "内容": "訪問看護ステーションClamp【訪問看護】長崎県大村市古賀島町501-5コーポ古賀島102", "url": "https://www.kaigokensaku.mhlw.go.jp/42/index.php?action_kouhyou_detail_004_kani=true&JigyosyoCd=4260590213-00&ServiceCd=130&Type=search", "url2": "https://clamp24.com/" }, "geometry": { "type": "Point", "coordinates": [ 129.9418605, 32.9292111 ] } },
{ "type": "Feature", "properties": { "内容": "訪問看護ステーション　ONESKY【訪問看護】長崎県大村市荒瀬町1148-5", "url": "https://www.kaigokensaku.mhlw.go.jp/42/index.php?action_kouhyou_detail_004_kani=true&JigyosyoCd=4260590221-00&ServiceCd=130&Type=search", "url2": "onesky-y.com" }, "geometry": { "type": "Point", "coordinates": [ 129.9717373, 32.9387109 ] } },
{ "type": "Feature", "properties": { "内容": "訪問看護ステーション寧彩【訪問看護】長崎県大村市桜馬場2丁目517番地", "url": "https://www.kaigokensaku.mhlw.go.jp/42/index.php?action_kouhyou_detail_004_kani=true&JigyosyoCd=4270502299-00&ServiceCd=130&Type=search", "url2": "yamada-gp.main.jp" }, "geometry": { "type": "Point", "coordinates": [ 129.9493722, 32.9321592 ] } },
{ "type": "Feature", "properties": { "内容": "セントケア訪問看護ステーション大村【訪問看護】長崎県大村市東三城町7-9フジビル201", "url": "https://www.kaigokensaku.mhlw.go.jp/42/index.php?action_kouhyou_detail_004_kani=true&JigyosyoCd=4260590189-00&ServiceCd=130&Type=search", "url2": "https://www.saint-care.com/" }, "geometry": { "type": "Point", "coordinates": [ 129.960598, 32.910769 ] } },
{ "type": "Feature", "properties": { "内容": "南野病院【訪問看護】大村市東三城町33番地", "url": "https://www.kaigokensaku.mhlw.go.jp/42/index.php?action_kouhyou_detail_004_kani=true&JigyosyoCd=4210521466-00&ServiceCd=130&Type=search", "url2": "http://www.minamino-hosp.jp/" }, "geometry": { "type": "Point", "coordinates": [ 129.960496599999942, 32.9121308 ] } },
{ "type": "Feature", "properties": { "内容": "大村市医師会訪問看護ステーション【訪問看護】長崎県大村市本町458番地2中心市街地複合ビル3階", "url": "https://www.kaigokensaku.mhlw.go.jp/42/index.php?action_kouhyou_detail_004_kani=true&JigyosyoCd=4260590015-00&ServiceCd=130&Type=search", "url2": "http://www.nagasaki.med.or.jp/oomura/" }, "geometry": { "type": "Point", "coordinates": [ 129.959597, 32.906341 ] } },
{ "type": "Feature", "properties": { "内容": "訪問看護ステーション　ナースパワーあい【訪問看護】長崎県大村市徳泉川内町８３６番地１９", "url": "https://www.kaigokensaku.mhlw.go.jp/42/index.php?action_kouhyou_detail_004_kani=true&JigyosyoCd=4260590056-00&ServiceCd=130&Type=search", "url2": "http://nursepower-ai.com/" }, "geometry": { "type": "Point", "coordinates": [ 129.981314099999963, 32.9121337 ] } },
{ "type": "Feature", "properties": { "内容": "訪問看護ステーションケアシステムサポートゆかり【訪問看護】長崎県大村市宮小路1丁目213-10", "url": "https://www.kaigokensaku.mhlw.go.jp/42/index.php?action_kouhyou_detail_004_kani=true&JigyosyoCd=4260590098-00&ServiceCd=130&Type=search", "url2": "https://yukari-systems.com/" }, "geometry": { "type": "Point", "coordinates": [ 129.944875365032658, 32.949159561453463 ] } },
{ "type": "Feature", "properties": { "内容": "訪問看護ステーションさくら【訪問看護】長崎県大村市古賀島町133番地22", "url": "https://www.kaigokensaku.mhlw.go.jp/42/index.php?action_kouhyou_detail_004_kani=true&JigyosyoCd=4260590171-00&ServiceCd=130&Type=search", "url2": "https://omura.jadecom.or.jp" }, "geometry": { "type": "Point", "coordinates": [ 129.945452700524868, 32.92530270109345 ] } },
{ "type": "Feature", "properties": { "内容": "合同会社訪問看護ステーションつばめ【訪問看護】長崎県大村市大川田町463-1　A棟", "url": "https://www.kaigokensaku.mhlw.go.jp/42/index.php?action_kouhyou_detail_004_kani=true&JigyosyoCd=4260590122-00&ServiceCd=130&Type=search", "url2": "https://tsubame-kango.com" }, "geometry": { "type": "Point", "coordinates": [ 129.944027415973295, 32.942604491494883 ] } },
{ "type": "Feature", "properties": { "内容": "太陽のぬくもり【訪問看護】長崎県大村市今富町649-7仁アパート7号室", "url": "https://www.kaigokensaku.mhlw.go.jp/42/index.php?action_kouhyou_detail_004_kani=true&JigyosyoCd=4260590155-00&ServiceCd=130&Type=search", "url2": null }, "geometry": { "type": "Point", "coordinates": [ 129.9553488, 32.9545938 ] } },
{ "type": "Feature", "properties": { "内容": "訪問看護ステーション秋櫻【訪問看護】長崎県大村市諏訪2丁目576-4", "url": "https://www.kaigokensaku.mhlw.go.jp/42/index.php?action_kouhyou_detail_004_kani=true&JigyosyoCd=4260590023-00&ServiceCd=130&Type=search", "url2": "http://www.midori-group.com" }, "geometry": { "type": "Point", "coordinates": [ 129.961740032464718, 32.927095208253284 ] } },
{ "type": "Feature", "properties": { "内容": "訪問看護ステーション　虹【訪問看護】長崎県大村市東三城町１２番地１和光マンション１－Ｆ", "url": "https://www.kaigokensaku.mhlw.go.jp/42/index.php?action_kouhyou_detail_004_kani=true&JigyosyoCd=4260590049-00&ServiceCd=130&Type=search", "url2": null }, "geometry": { "type": "Point", "coordinates": [ 129.958894, 32.910767 ] } },
{ "type": "Feature", "properties": { "内容": "Co.cocoリハビリ訪問看護ステーション【訪問看護】長崎県大村市松山町631-1-1", "url": "https://www.kaigokensaku.mhlw.go.jp/42/index.php?action_kouhyou_detail_004_kani=true&JigyosyoCd=4260590163-00&ServiceCd=130&Type=search", "url2": "https://one-step11.com" }, "geometry": { "type": "Point", "coordinates": [ 129.947681312848914, 32.913295776656923 ] } },
{ "type": "Feature", "properties": { "内容": "あいず訪問看護ステーション大村【訪問看護】長崎県大村市富の原2丁目140番3", "url": "https://www.kaigokensaku.mhlw.go.jp/42/index.php?action_kouhyou_detail_004_kani=true&JigyosyoCd=4260590114-00&ServiceCd=130&Type=search", "url2": null }, "geometry": { "type": "Point", "coordinates": [ 129.941338800000011, 32.9452408 ] } },
{ "type": "Feature", "properties": { "内容": "あいずほうもんかんごすてーしょんきょうわ【訪問看護】長崎県大村市協和町628-46琴花園ビルD2階1号室", "url": "https://www.kaigokensaku.mhlw.go.jp/42/index.php?action_kouhyou_detail_004_kani=true&JigyosyoCd=4260590239-00&ServiceCd=130&Type=search", "url2": null }, "geometry": { "type": "Point", "coordinates": [ 129.9485737, 32.9144497 ] } },
{ "type": "Feature", "properties": { "内容": "訪問看護ステーションほっとケア【訪問看護】長崎県大村市東三城町９－３", "url": "https://www.kaigokensaku.mhlw.go.jp/42/index.php?action_kouhyou_detail_004_kani=true&JigyosyoCd=4260590197-00&ServiceCd=130&Type=search", "url2": "https://izaki-med.net/index.php/hotcare/" }, "geometry": { "type": "Point", "coordinates": [ 129.960184262963452, 32.911429045498103 ] } },
{ "type": "Feature", "properties": { "内容": "医療法人医理会　柿添病院附属中野診療所【訪問看護】長崎県平戸市山中町696番地3", "url": "https://www.kaigokensaku.mhlw.go.jp/42/index.php?action_kouhyou_detail_004_kani=true&JigyosyoCd=4210720332-00&ServiceCd=130&Type=search", "url2": "http://www.kakizoehospital.or.jp/" }, "geometry": { "type": "Point", "coordinates": [ 129.507512600000041, 33.34340270000002 ] } },
{ "type": "Feature", "properties": { "内容": "青洲会病院【訪問看護】長崎県平戸市田平町山内免６１２番地の４", "url": "https://www.kaigokensaku.mhlw.go.jp/42/index.php?action_kouhyou_detail_004_kani=true&JigyosyoCd=4260790037-00&ServiceCd=130&Type=search", "url2": "http://s.seisyukai.jp" }, "geometry": { "type": "Point", "coordinates": [ 129.575275599999941, 33.3645234 ] } },
{ "type": "Feature", "properties": { "内容": "平戸市訪問看護ステーション【訪問看護】長崎県平戸市草積町1125番地12", "url": "https://www.kaigokensaku.mhlw.go.jp/42/index.php?action_kouhyou_detail_004_kani=true&JigyosyoCd=4260790045-00&ServiceCd=130&Type=search", "url2": "http://hirado-municipal-hospital.com/modules/houmon" }, "geometry": { "type": "Point", "coordinates": [ 129.465528899999981, 33.2854865 ] } },
{ "type": "Feature", "properties": { "内容": "平戸市立生月病院【訪問看護】長崎県平戸市生月町山田免2965番地", "url": "https://www.kaigokensaku.mhlw.go.jp/42/index.php?action_kouhyou_detail_004_kani=true&JigyosyoCd=4218124305-00&ServiceCd=130&Type=search", "url2": "http://www.ikitsuki-hospital.com" }, "geometry": { "type": "Point", "coordinates": [ 129.4237187, 33.3802266 ] } },
{ "type": "Feature", "properties": { "内容": "医療法人社団　壮志会　訪問看護ステーション　ほのぼの・松浦【訪問看護】長崎県松浦市御厨町里免３７番地の１", "url": "https://www.kaigokensaku.mhlw.go.jp/42/index.php?action_kouhyou_detail_004_kani=true&JigyosyoCd=4260890035-00&ServiceCd=130&Type=search", "url2": null }, "geometry": { "type": "Point", "coordinates": [ 129.663104299999958, 33.3663135 ] } },
{ "type": "Feature", "properties": { "内容": "桃李株式会社【訪問看護】長崎県松浦市星鹿町下田免172-1", "url": "https://www.kaigokensaku.mhlw.go.jp/42/index.php?action_kouhyou_detail_004_kani=true&JigyosyoCd=4260890050-00&ServiceCd=130&Type=search", "url2": "https://www.touri-momo.com" }, "geometry": { "type": "Point", "coordinates": [ 129.674183699999958, 33.3839958 ] } },
{ "type": "Feature", "properties": { "内容": "松浦中央病院附属訪問看護ステーション【訪問看護】長崎県松浦市志佐町浦免856番地1松浦中央病院内1階", "url": "https://www.kaigokensaku.mhlw.go.jp/42/index.php?action_kouhyou_detail_004_kani=true&JigyosyoCd=4260890043-00&ServiceCd=130&Type=search", "url2": "URL-http://matsuura.jcho.go.jp" }, "geometry": { "type": "Point", "coordinates": [ 129.6989876, 33.349139 ] } },
{ "type": "Feature", "properties": { "内容": "上対馬病院訪問看護ステーション【訪問看護】長崎県対馬市上対馬町比田勝６３０番地", "url": "https://www.kaigokensaku.mhlw.go.jp/42/index.php?action_kouhyou_detail_004_kani=true&JigyosyoCd=4262090014-00&ServiceCd=130&Type=search", "url2": "http://www.kamibyo.jp/" }, "geometry": { "type": "Point", "coordinates": [ 129.458240899999964, 34.6561464 ] } },
{ "type": "Feature", "properties": { "内容": "長崎県対馬病院訪問看護ステーション【訪問看護】長崎県対馬市美津島町雞知乙１１６８番７長崎県対馬病院本館別棟２階", "url": "https://www.kaigokensaku.mhlw.go.jp/42/index.php?action_kouhyou_detail_004_kani=true&JigyosyoCd=4262090022-00&ServiceCd=130&Type=search", "url2": null }, "geometry": { "type": "Point", "coordinates": [ 129.3190825, 34.2843069 ] } },
{ "type": "Feature", "properties": { "内容": "あすか訪問看護ステーション【訪問看護】長崎県対馬市厳原町東里338-1介護老人保健施設つしま彩光園", "url": "https://www.kaigokensaku.mhlw.go.jp/42/index.php?action_kouhyou_detail_004_kani=true&JigyosyoCd=4271800262-00&ServiceCd=130&Type=search", "url2": "http://asuka-fukushi.or.jp" }, "geometry": { "type": "Point", "coordinates": [ 129.2926817, 34.1983156 ] } },
{ "type": "Feature", "properties": { "内容": "訪問看護ステーション勝本【訪問看護】長崎県壱岐市石田町石田西触1071-1", "url": "https://www.kaigokensaku.mhlw.go.jp/42/index.php?action_kouhyou_detail_004_kani=true&JigyosyoCd=4262190012-00&ServiceCd=130&Type=search", "url2": null }, "geometry": { "type": "Point", "coordinates": [ 129.757656968827831, 33.746774205897843 ] } },
{ "type": "Feature", "properties": { "内容": "社会医療法人　玄州会　　ひかり訪問看護ステーション【訪問看護】長崎県壱岐市郷ノ浦町永田触275番地2", "url": "https://www.kaigokensaku.mhlw.go.jp/42/index.php?action_kouhyou_detail_004_kani=true&JigyosyoCd=4261790010-00&ServiceCd=130&Type=search", "url2": "http:/www.gensyukai.or,jp/" }, "geometry": { "type": "Point", "coordinates": [ 129.699417600000061, 33.7517194 ] } },
{ "type": "Feature", "properties": { "内容": "訪問看護ステーションいしずえ壱岐【訪問看護】壱岐市郷ノ浦町初山西触字松林591番地1", "url": "https://www.kaigokensaku.mhlw.go.jp/42/index.php?action_kouhyou_detail_004_kani=true&JigyosyoCd=4262190020-00&ServiceCd=130&Type=search", "url2": "https://ishizue-iki.jp/" }, "geometry": { "type": "Point", "coordinates": [ 129.696911074838226, 33.721285346805246 ] } },
{ "type": "Feature", "properties": { "内容": "訪問看護ステーションいしずえ五島【訪問看護】長崎県五島市木場町280-16堤事務所１号", "url": "https://www.kaigokensaku.mhlw.go.jp/42/index.php?action_kouhyou_detail_004_kani=true&JigyosyoCd=4262290051-00&ServiceCd=130&Type=search", "url2": "https://ishizue-goto.jp/" }, "geometry": { "type": "Point", "coordinates": [ 128.8322918, 32.6914024 ] } },
{ "type": "Feature", "properties": { "内容": "在宅看護センター　だんわ【訪問看護】長崎県五島市吉久木町424-1-2号", "url": "https://www.kaigokensaku.mhlw.go.jp/42/index.php?action_kouhyou_detail_004_kani=true&JigyosyoCd=4262290036-00&ServiceCd=130&Type=search", "url2": "https://shimashimashimashi.wixsite.com/website" }, "geometry": { "type": "Point", "coordinates": [ 128.8252077, 32.6907942 ] } },
{ "type": "Feature", "properties": { "内容": "訪問看護ステーション鐙瀬【訪問看護】長崎県五島市三尾野町364-3", "url": "https://www.kaigokensaku.mhlw.go.jp/42/index.php?action_kouhyou_detail_004_kani=true&JigyosyoCd=4270600374-00&ServiceCd=130&Type=search", "url2": "https://npofukue.wixsite.com/home" }, "geometry": { "type": "Point", "coordinates": [ 128.835456812715506, 32.683073142049125 ] } },
{ "type": "Feature", "properties": { "内容": "山下訪問看護ステーション【訪問看護】長崎県五島市吉田町2382-5", "url": "https://www.kaigokensaku.mhlw.go.jp/42/index.php?action_kouhyou_detail_004_kani=true&JigyosyoCd=4260690021-00&ServiceCd=130&Type=search", "url2": "http://www.rehabilicenter-fukue.jp" }, "geometry": { "type": "Point", "coordinates": [ 128.817063599999983, 32.6879186 ] } },
{ "type": "Feature", "properties": { "内容": "公益社団法人長崎県看護協会　訪問看護ステーション福江【訪問看護】長崎県五島市籠淵町２３６０番地１", "url": "https://www.kaigokensaku.mhlw.go.jp/42/index.php?action_kouhyou_detail_004_kani=true&JigyosyoCd=4260690013-00&ServiceCd=130&Type=search", "url2": null }, "geometry": { "type": "Point", "coordinates": [ 128.815557405073633, 32.688434007322421 ] } },
{ "type": "Feature", "properties": { "内容": "さゆり会訪問看護ステーション【訪問看護】長崎県五島市下大津町550番地4ひだまりの舎", "url": "https://www.kaigokensaku.mhlw.go.jp/42/index.php?action_kouhyou_detail_004_kani=true&JigyosyoCd=4262290010-00&ServiceCd=130&Type=search", "url2": "https://sayurikai.jp/pages/75/" }, "geometry": { "type": "Point", "coordinates": [ 128.856442218159486, 32.685710061100174 ] } },
{ "type": "Feature", "properties": { "内容": "訪問看護ステーションせいな【訪問看護】長崎県五島市上大津町596-1", "url": "https://www.kaigokensaku.mhlw.go.jp/42/index.php?action_kouhyou_detail_004_kani=true&JigyosyoCd=4262290044-00&ServiceCd=130&Type=search", "url2": "https://www.mys-seina.com/" }, "geometry": { "type": "Point", "coordinates": [ 128.845742512719738, 32.68686109825213 ] } },
{ "type": "Feature", "properties": { "内容": "訪問看護ステーションあかり【訪問看護】長崎県西海市西彼町伊ノ浦郷207番地1", "url": "https://www.kaigokensaku.mhlw.go.jp/42/index.php?action_kouhyou_detail_004_kani=true&JigyosyoCd=4262390026-00&ServiceCd=130&Type=search", "url2": "http://www.sentnova.jp" }, "geometry": { "type": "Point", "coordinates": [ 129.746598400000039, 33.0555525 ] } },
{ "type": "Feature", "properties": { "内容": "訪問看護ステーションウェルビー【訪問看護】長崎県西海市西海町中浦北郷1758番地7", "url": "https://www.kaigokensaku.mhlw.go.jp/42/index.php?action_kouhyou_detail_004_kani=true&JigyosyoCd=4262390034-00&ServiceCd=130&Type=search", "url2": "https://www.nagasaki-wellbeing.jp/" }, "geometry": { "type": "Point", "coordinates": [ 129.652819099999988, 33.0406466 ] } },
{ "type": "Feature", "properties": { "内容": "訪問看護ステーションえがお【訪問看護】長崎県西海市西彼町八木原郷３４５３番地１", "url": "https://www.kaigokensaku.mhlw.go.jp/42/index.php?action_kouhyou_detail_004_kani=true&JigyosyoCd=4262390018-00&ServiceCd=130&Type=search", "url2": "http://www.sinjyuen.com" }, "geometry": { "type": "Point", "coordinates": [ 129.732313414680476, 33.015095401875705 ] } },
{ "type": "Feature", "properties": { "内容": "社会福祉法人福医会【訪問看護】長崎県西海市大島町1876-59", "url": "https://www.kaigokensaku.mhlw.go.jp/42/index.php?action_kouhyou_detail_004_kani=true&JigyosyoCd=4211124070-00&ServiceCd=130&Type=search", "url2": "http://www.fukuikai.com/" }, "geometry": { "type": "Point", "coordinates": [ 129.6195042, 33.035034 ] } },
{ "type": "Feature", "properties": { "内容": "愛の訪問看護ステーション【訪問看護】長崎県雲仙市愛野町甲3838-1", "url": "https://www.kaigokensaku.mhlw.go.jp/42/index.php?action_kouhyou_detail_004_kani=true&JigyosyoCd=4261490066-00&ServiceCd=130&Type=search", "url2": "http://www.ainomhp.jp/" }, "geometry": { "type": "Point", "coordinates": [ 130.157309361832404, 32.818731739206342 ] } },
{ "type": "Feature", "properties": { "内容": "株式会社こぴっと訪問看護ステーション美輪【訪問看護】長崎県雲仙市小浜町北本町851番1-2", "url": "https://www.kaigokensaku.mhlw.go.jp/42/index.php?action_kouhyou_detail_004_kani=true&JigyosyoCd=4262490024-00&ServiceCd=130&Type=search", "url2": "http://miwa.kopit.biz" }, "geometry": { "type": "Point", "coordinates": [ 130.208482230749496, 32.729484865513321 ] } },
{ "type": "Feature", "properties": { "内容": "訪問看護ステーション友悠【訪問看護】長崎県雲仙市国見町土黒戊42番地2", "url": "https://www.kaigokensaku.mhlw.go.jp/42/index.php?action_kouhyou_detail_004_kani=true&JigyosyoCd=4262490032-00&ServiceCd=130&Type=search", "url2": null }, "geometry": { "type": "Point", "coordinates": [ 130.287918699999977, 32.866189 ] } },
{ "type": "Feature", "properties": { "内容": "訪問看護ステーションハート【訪問看護】長崎県雲仙市小浜町南木指350-1", "url": "https://www.kaigokensaku.mhlw.go.jp/42/index.php?action_kouhyou_detail_004_kani=true&JigyosyoCd=4262490040-00&ServiceCd=130&Type=search", "url2": null }, "geometry": { "type": "Point", "coordinates": [ 130.1884537, 32.709447 ] } },
{ "type": "Feature", "properties": { "内容": "医療法人博愛会　哲翁病院【訪問看護】口之津町甲1181", "url": "https://www.kaigokensaku.mhlw.go.jp/42/index.php?action_kouhyou_detail_004_kani=true&JigyosyoCd=4211420080-00&ServiceCd=130&Type=search", "url2": "https://www.tetsuou-hp.jp" }, "geometry": { "type": "Point", "coordinates": [ 130.188411, 32.6051316 ] } },
{ "type": "Feature", "properties": { "内容": "菜の花クリニック訪問看護ステーション【訪問看護】長崎県南島原市南有馬町乙963番地2", "url": "https://www.kaigokensaku.mhlw.go.jp/42/index.php?action_kouhyou_detail_004_kani=true&JigyosyoCd=4261490074-00&ServiceCd=130&Type=search", "url2": "http://nanogroup.or.jp/?page_id=63" }, "geometry": { "type": "Point", "coordinates": [ 130.249098756535574, 32.630999376631706 ] } },
{ "type": "Feature", "properties": { "内容": "訪問看護ステーション　あい【訪問看護】長崎県南島原市深江町丁2421介護老人保健施設フォンテ", "url": "https://www.kaigokensaku.mhlw.go.jp/42/index.php?action_kouhyou_detail_004_kani=true&JigyosyoCd=4261490017-00&ServiceCd=130&Type=search", "url2": "http://www.izumikawa.or.jp/index.php/c_Main/showPg53" }, "geometry": { "type": "Point", "coordinates": [ 130.350879700069413, 32.718250560484833 ] } },
{ "type": "Feature", "properties": { "内容": "南島原市社協訪問看護ステーションラポール【訪問看護】長崎県南島原市有家町石田8番地46", "url": "https://www.kaigokensaku.mhlw.go.jp/42/index.php?action_kouhyou_detail_004_kani=true&JigyosyoCd=4262590013-00&ServiceCd=130&Type=search", "url2": "http://www.minashimashakyo.or.jp" }, "geometry": { "type": "Point", "coordinates": [ 130.332117299999936, 32.6686239 ] } },
{ "type": "Feature", "properties": { "内容": "訪問看護ステーション　フォレスト【訪問看護】長崎県南島原市布津町乙1882番地1", "url": "https://www.kaigokensaku.mhlw.go.jp/42/index.php?action_kouhyou_detail_004_kani=true&JigyosyoCd=4262590021-00&ServiceCd=130&Type=search", "url2": "https://www.forest-ns.jp" }, "geometry": { "type": "Point", "coordinates": [ 130.35394, 32.6951319 ] } },
{ "type": "Feature", "properties": { "内容": "医療法人　光善会　訪問看護ステーション「コスモス」【訪問看護】長崎県西彼杵郡長与町高田郷2445-1", "url": "https://www.kaigokensaku.mhlw.go.jp/42/index.php?action_kouhyou_detail_004_kani=true&JigyosyoCd=4261190013-00&ServiceCd=130&Type=search", "url2": "http://www.yurinohp.jp/" }, "geometry": { "type": "Point", "coordinates": [ 129.848374930102551, 32.814571366472698 ] } },
{ "type": "Feature", "properties": { "内容": "訪問看護ステーションながよ【訪問看護】長崎県西彼杵郡長与町吉無田郷647番地", "url": "https://www.kaigokensaku.mhlw.go.jp/42/index.php?action_kouhyou_detail_004_kani=true&JigyosyoCd=4261190054-00&ServiceCd=130&Type=search", "url2": null }, "geometry": { "type": "Point", "coordinates": [ 129.871498636675938, 32.810783107919157 ] } },
{ "type": "Feature", "properties": { "内容": "医療法人徳洲会　長崎北徳洲会介護センター【訪問看護】長崎県西彼杵郡長与町北陽台１丁目５番1", "url": "https://www.kaigokensaku.mhlw.go.jp/42/index.php?action_kouhyou_detail_004_kani=true&JigyosyoCd=4211124310-00&ServiceCd=130&Type=search", "url2": "https://www.nk-toku.jp/" }, "geometry": { "type": "Point", "coordinates": [ 129.872296400000039, 32.8241142 ] } },
{ "type": "Feature", "properties": { "内容": "訪問看護ステーション　ロジ【訪問看護】長崎県西彼杵郡時津町浜田郷732-1船本ビル2階", "url": "https://www.kaigokensaku.mhlw.go.jp/42/index.php?action_kouhyou_detail_004_kani=true&JigyosyoCd=4261190104-00&ServiceCd=130&Type=search", "url2": "http://logi-support.co.jp/" }, "geometry": { "type": "Point", "coordinates": [ 129.86121270000001, 32.8318196 ] } },
{ "type": "Feature", "properties": { "内容": "ケアランド訪問看護ステーション【訪問看護】長崎県西彼杵郡時津町浦郷428番地13", "url": "https://www.kaigokensaku.mhlw.go.jp/42/index.php?action_kouhyou_detail_004_kani=true&JigyosyoCd=4261190112-00&ServiceCd=130&Type=search", "url2": "https://carelandtogitsu.com/" }, "geometry": { "type": "Point", "coordinates": [ 129.8482914, 32.8308018 ] } },
{ "type": "Feature", "properties": { "内容": "訪問ナースｍｗステ－ションマム【訪問看護】長崎県西彼杵郡時津町西時津郷471-1コーポエミ－2F", "url": "https://www.kaigokensaku.mhlw.go.jp/42/index.php?action_kouhyou_detail_004_kani=true&JigyosyoCd=4261190096-00&ServiceCd=130&Type=search", "url2": null }, "geometry": { "type": "Point", "coordinates": [ 129.858602100000013, 32.8365594 ] } },
{ "type": "Feature", "properties": { "内容": "訪問看護事業所それいゆ【訪問看護】長崎県西彼杵郡時津町浦郷273-3コピーセンタービル1F", "url": "https://www.kaigokensaku.mhlw.go.jp/42/index.php?action_kouhyou_detail_004_kani=true&JigyosyoCd=4261190088-00&ServiceCd=130&Type=search", "url2": "http://toyokimitsubachi.com" }, "geometry": { "type": "Point", "coordinates": [ 129.8493719, 32.8285171 ] } },
{ "type": "Feature", "properties": { "内容": "訪問看護ステーションかけはし【訪問看護】長崎県東彼杵郡東彼杵町彼杵宿郷1085", "url": "https://www.kaigokensaku.mhlw.go.jp/42/index.php?action_kouhyou_detail_004_kani=true&JigyosyoCd=4261290011-00&ServiceCd=130&Type=search", "url2": "http://www.sazanami.or.jp" }, "geometry": { "type": "Point", "coordinates": [ 129.927598699999976, 33.0299407 ] } },
{ "type": "Feature", "properties": { "内容": "訪問看護ステーションさくらそう【訪問看護】長崎県東彼杵郡川棚町下組郷2005-1", "url": "https://www.kaigokensaku.mhlw.go.jp/42/index.php?action_kouhyou_detail_004_kani=true&JigyosyoCd=4261290060-00&ServiceCd=130&Type=search", "url2": null }, "geometry": { "type": "Point", "coordinates": [ 129.856103499999989, 33.069115 ] } },
{ "type": "Feature", "properties": { "内容": "医療法人　優和会　訪問看護ステーション　きりん【訪問看護】長崎県東彼杵郡波佐見町湯無田郷128-14こうの内科医院", "url": "https://www.kaigokensaku.mhlw.go.jp/42/index.php?action_kouhyou_detail_004_kani=true&JigyosyoCd=4261290029-00&ServiceCd=130&Type=search", "url2": "http://kohno-iin.jp" }, "geometry": { "type": "Point", "coordinates": [ 129.910827400000016, 33.1436649 ] } },
{ "type": "Feature", "properties": { "内容": "訪問看護ステーションすみれ【訪問看護】長崎県東彼杵郡波佐見町折敷瀬郷1945-7", "url": "https://www.kaigokensaku.mhlw.go.jp/42/index.php?action_kouhyou_detail_004_kani=true&JigyosyoCd=4261290052-00&ServiceCd=130&Type=search", "url2": "https://www.feelsafe-jp.com" }, "geometry": { "type": "Point", "coordinates": [ 129.898947, 33.1441412 ] } },
{ "type": "Feature", "properties": { "内容": "セントケア訪問看護ステーション長崎北【訪問看護】長崎県北松浦郡佐々町本田原免216-8濱田店舗A号", "url": "https://www.kaigokensaku.mhlw.go.jp/42/index.php?action_kouhyou_detail_004_kani=true&JigyosyoCd=4261590030-00&ServiceCd=130&Type=search", "url2": "http://www.saint‾care.com/" }, "geometry": { "type": "Point", "coordinates": [ 129.648772199999939, 33.2369172 ] } },
{ "type": "Feature", "properties": { "内容": "合同会社coming訪問看護・介護ステーション幸【訪問看護】長崎県北松浦郡佐々町小浦免219番地8", "url": "https://www.kaigokensaku.mhlw.go.jp/42/index.php?action_kouhyou_detail_004_kani=true&JigyosyoCd=4261590048-00&ServiceCd=130&Type=search", "url2": null }, "geometry": { "type": "Point", "coordinates": [ 129.6449414, 33.2208755 ] } },
{ "type": "Feature", "properties": { "内容": "上五島病院訪問看護ステーション【訪問看護】長崎県南松浦郡新上五島町青方郷1549-11", "url": "https://www.kaigokensaku.mhlw.go.jp/42/index.php?action_kouhyou_detail_004_kani=true&JigyosyoCd=4261690012-00&ServiceCd=130&Type=search", "url2": "http://www.kamigoto-hospital.jp" }, "geometry": { "type": "Point", "coordinates": [ 129.070007700000019, 32.9827864 ] } },
{ "type": "Feature", "properties": { "内容": "長崎県上五島病院附属診療所奈良尾医療センター【訪問看護】長崎県南松浦郡新上五島町奈良尾郷字新港1000", "url": "https://www.kaigokensaku.mhlw.go.jp/42/index.php?action_kouhyou_detail_004_kani=true&JigyosyoCd=4218124560-00&ServiceCd=130&Type=search", "url2": "http://www.kamigoto-hospital.jp/narao-mc/" }, "geometry": { "type": "Point", "coordinates": [ 129.877667, 32.7502856 ] } },
{ "type": "Feature", "properties": { "内容": "介護等訪問看護リハビリステーション【訪問看護】長崎県南松浦郡上五島町奈良尾郷417番地3", "url": "https://www.kaigokensaku.mhlw.go.jp/42/index.php?action_kouhyou_detail_004_kani=true&JigyosyoCd=4261690053-00&ServiceCd=130&Type=search", "url2": "https://kamigotohoumonkangorihabiri.jimdofree.com" }, "geometry": { "type": "Point", "coordinates": [ 129.060515400000014, 32.840551248999681 ] } }
]
}
