{
"type": "FeatureCollection",
"name": "geo_42_介護老人福祉施設",
"crs": { "type": "name", "properties": { "name": "urn:ogc:def:crs:OGC:1.3:CRS84" } },
"features": [
{ "type": "Feature", "properties": { "内容": "介護老人福祉施設　女の都山荘【介護老人福祉施設】長崎県長崎市女の都１丁目１５９７番地", "url": "https://www.kaigokensaku.mhlw.go.jp/42/index.php?action_kouhyou_detail_004_kani=true&JigyosyoCd=4270101431-00&ServiceCd=510&Type=search", "url2": "http://www.rakuroukai.or.jp/" }, "geometry": { "type": "Point", "coordinates": [ 129.879843, 32.8009247 ] } },
{ "type": "Feature", "properties": { "内容": "介護老人福祉施設　古賀の里【介護老人福祉施設】長崎県長崎市古賀町806-2", "url": "https://www.kaigokensaku.mhlw.go.jp/42/index.php?action_kouhyou_detail_004_kani=true&JigyosyoCd=4270101456-00&ServiceCd=510&Type=search", "url2": "http://www.koganosato.jp/" }, "geometry": { "type": "Point", "coordinates": [ 129.961251100000027, 32.7971717 ] } },
{ "type": "Feature", "properties": { "内容": "介護老人福祉施設　牧島荘【介護老人福祉施設】長崎県長崎市牧島町9番地1", "url": "https://www.kaigokensaku.mhlw.go.jp/42/index.php?action_kouhyou_detail_004_kani=true&JigyosyoCd=4270102173-00&ServiceCd=510&Type=search", "url2": "http://www.makishima.org" }, "geometry": { "type": "Point", "coordinates": [ 129.987475899999936, 32.7498791 ] } },
{ "type": "Feature", "properties": { "内容": "特別養護老人ホーム　琴の浦荘【介護老人福祉施設】長崎県長崎市琴海戸根町743番地47", "url": "https://www.kaigokensaku.mhlw.go.jp/42/index.php?action_kouhyou_detail_004_kani=true&JigyosyoCd=4270106893-00&ServiceCd=510&Type=search", "url2": "http://www.gounkai.or.jp" }, "geometry": { "type": "Point", "coordinates": [ 129.791646697483884, 32.887852715380582 ] } },
{ "type": "Feature", "properties": { "内容": "エルダーみずほ【介護老人福祉施設】長崎県長崎市岩屋町４５－１", "url": "https://www.kaigokensaku.mhlw.go.jp/42/index.php?action_kouhyou_detail_004_kani=true&JigyosyoCd=4270102009-00&ServiceCd=510&Type=search", "url2": "http://www.mizuhokai.jp" }, "geometry": { "type": "Point", "coordinates": [ 129.848525500000051, 32.7998018 ] } },
{ "type": "Feature", "properties": { "内容": "特別養護老人ホームプレジールの丘【介護老人福祉施設】長崎県長崎市立山2丁目16番5号", "url": "https://www.kaigokensaku.mhlw.go.jp/42/index.php?action_kouhyou_detail_004_kani=true&JigyosyoCd=4270105994-00&ServiceCd=510&Type=search", "url2": "http://www.juyoukai.com/" }, "geometry": { "type": "Point", "coordinates": [ 129.876628100000062, 32.754913 ] } },
{ "type": "Feature", "properties": { "内容": "特別養護老人ホームこえばる【介護老人福祉施設】長崎県長崎市小江原4丁目1番30号", "url": "https://www.kaigokensaku.mhlw.go.jp/42/index.php?action_kouhyou_detail_004_kani=true&JigyosyoCd=4270105168-00&ServiceCd=510&Type=search", "url2": "http://syuhoukai.jp" }, "geometry": { "type": "Point", "coordinates": [ 129.83228859999997, 32.7836367 ] } },
{ "type": "Feature", "properties": { "内容": "特別養護老人ホーム　青葉苑【介護老人福祉施設】長崎県長崎市戸町4丁目７番１７号", "url": "https://www.kaigokensaku.mhlw.go.jp/42/index.php?action_kouhyou_detail_004_kani=true&JigyosyoCd=4270103064-00&ServiceCd=510&Type=search", "url2": "http://aoba-en.jp" }, "geometry": { "type": "Point", "coordinates": [ 129.861302099999989, 32.7197101 ] } },
{ "type": "Feature", "properties": { "内容": "望星荘【介護老人福祉施設】長崎県長崎市岩屋町745-4", "url": "https://www.kaigokensaku.mhlw.go.jp/42/index.php?action_kouhyou_detail_004_kani=true&JigyosyoCd=4270103924-00&ServiceCd=510&Type=search", "url2": "https://bouseisou.jp" }, "geometry": { "type": "Point", "coordinates": [ 129.845267700000022, 32.7948607 ] } },
{ "type": "Feature", "properties": { "内容": "特別養護老人ホーム　いこいの園【介護老人福祉施設】長崎県長崎市牧野町2168番地5", "url": "https://www.kaigokensaku.mhlw.go.jp/42/index.php?action_kouhyou_detail_004_kani=true&JigyosyoCd=4270102074-00&ServiceCd=510&Type=search", "url2": "https://kagurakai.or.jp" }, "geometry": { "type": "Point", "coordinates": [ 129.799395900000036, 32.7964571 ] } },
{ "type": "Feature", "properties": { "内容": "介護老人福祉施設喜楽苑【介護老人福祉施設】長崎県長崎市竿浦町945番地", "url": "https://www.kaigokensaku.mhlw.go.jp/42/index.php?action_kouhyou_detail_004_kani=true&JigyosyoCd=4270101498-00&ServiceCd=510&Type=search", "url2": "http://www.kirakuen-nagasaki.jp/" }, "geometry": { "type": "Point", "coordinates": [ 129.841201800000022, 32.6761885 ] } },
{ "type": "Feature", "properties": { "内容": "特別養護老人ホーム　三重の里【介護老人福祉施設】長崎県長崎市樫山町1470番地", "url": "https://www.kaigokensaku.mhlw.go.jp/42/index.php?action_kouhyou_detail_004_kani=true&JigyosyoCd=4270101472-00&ServiceCd=510&Type=search", "url2": "http://www.mienosato.com/" }, "geometry": { "type": "Point", "coordinates": [ 129.734613599999989, 32.8124402 ] } },
{ "type": "Feature", "properties": { "内容": "特別養護老人ホームサンハイツ【介護老人福祉施設】長崎県長崎市油木町65番地14", "url": "https://www.kaigokensaku.mhlw.go.jp/42/index.php?action_kouhyou_detail_004_kani=true&JigyosyoCd=4270101514-00&ServiceCd=510&Type=search", "url2": "http://www.sanhaitsu.jp/" }, "geometry": { "type": "Point", "coordinates": [ 129.844110300000011, 32.7803067 ] } },
{ "type": "Feature", "properties": { "内容": "特別養護老人ホーム　鶴舞苑【介護老人福祉施設】長崎県長崎市秋月町３８９番地１", "url": "https://www.kaigokensaku.mhlw.go.jp/42/index.php?action_kouhyou_detail_004_kani=true&JigyosyoCd=4270101464-00&ServiceCd=510&Type=search", "url2": "http://www.nagasaki-kouseifukushidan.or.jp" }, "geometry": { "type": "Point", "coordinates": [ 129.851474400000029, 32.7475712 ] } },
{ "type": "Feature", "properties": { "内容": "特別養護老人ホーム　鶴舞苑II【介護老人福祉施設】長崎県長崎市大谷町４１８番地１", "url": "https://www.kaigokensaku.mhlw.go.jp/42/index.php?action_kouhyou_detail_004_kani=true&JigyosyoCd=4270103759-00&ServiceCd=510&Type=search", "url2": "http://www.nagasaki-kouseifukushidan.or.jp/care/subjects/tokuyou/kakubuen2" }, "geometry": { "type": "Point", "coordinates": [ 129.850955, 32.7483184 ] } },
{ "type": "Feature", "properties": { "内容": "特別養護老人ホーム　橘の丘【介護老人福祉施設】長崎県長崎市春日町２８４－２", "url": "https://www.kaigokensaku.mhlw.go.jp/42/index.php?action_kouhyou_detail_004_kani=true&JigyosyoCd=4270104906-00&ServiceCd=510&Type=search", "url2": "http://tachibananooka．jp/" }, "geometry": { "type": "Point", "coordinates": [ 129.952922700000045, 32.7420293 ] } },
{ "type": "Feature", "properties": { "内容": "特別養護老人ホーム　かたふち村【介護老人福祉施設】長崎県長崎市片淵３丁目５００番地２", "url": "https://www.kaigokensaku.mhlw.go.jp/42/index.php?action_kouhyou_detail_004_kani=true&JigyosyoCd=4270110028-00&ServiceCd=510&Type=search", "url2": "http://www.katafuchimura.or.jp/" }, "geometry": { "type": "Point", "coordinates": [ 129.894206899999972, 32.7661346 ] } },
{ "type": "Feature", "properties": { "内容": "特別養護老人ホーム　かたふち村【介護老人福祉施設】長崎県長崎市片淵３丁目５００番地２", "url": "https://www.kaigokensaku.mhlw.go.jp/42/index.php?action_kouhyou_detail_004_kani=true&JigyosyoCd=4270101548-00&ServiceCd=510&Type=search", "url2": "http://www.katafuchimura.or.jp/" }, "geometry": { "type": "Point", "coordinates": [ 129.894206899999972, 32.7661346 ] } },
{ "type": "Feature", "properties": { "内容": "介護老人福祉施設・プライエム横尾【介護老人福祉施設】長崎県長崎市横尾3丁目26番1号", "url": "https://www.kaigokensaku.mhlw.go.jp/42/index.php?action_kouhyou_detail_004_kani=true&JigyosyoCd=4270101506-00&ServiceCd=510&Type=search", "url2": "http://www.heisei-kai.or.jp/" }, "geometry": { "type": "Point", "coordinates": [ 129.838572800000065, 32.8166475 ] } },
{ "type": "Feature", "properties": { "内容": "特別養護老人ホームびわの園【介護老人福祉施設】長崎市茂木町２２２２番地", "url": "https://www.kaigokensaku.mhlw.go.jp/42/index.php?action_kouhyou_detail_004_kani=true&JigyosyoCd=4270101480-00&ServiceCd=510&Type=search", "url2": "http://biwanosono.com" }, "geometry": { "type": "Point", "coordinates": [ 129.912710699999934, 32.6995432 ] } },
{ "type": "Feature", "properties": { "内容": "特別養護老人ホーム　ひこばえ【介護老人福祉施設】長崎県長崎市早坂町1180番地7", "url": "https://www.kaigokensaku.mhlw.go.jp/42/index.php?action_kouhyou_detail_004_kani=true&JigyosyoCd=4270135082-00&ServiceCd=510&Type=search", "url2": "http://hikobae-nagasaki.jp" }, "geometry": { "type": "Point", "coordinates": [ 129.900327306745908, 32.734295438172992 ] } },
{ "type": "Feature", "properties": { "内容": "指定介護老人福祉施設　恵珠苑【介護老人福祉施設】長崎県長崎市田上2丁目15番12号", "url": "https://www.kaigokensaku.mhlw.go.jp/42/index.php?action_kouhyou_detail_004_kani=true&JigyosyoCd=4270101530-00&ServiceCd=510&Type=search", "url2": "http://yuukikai.jp" }, "geometry": { "type": "Point", "coordinates": [ 129.886578099999952, 32.726513 ] } },
{ "type": "Feature", "properties": { "内容": "社会福祉法人　はづき会　オレンジの丘【介護老人福祉施設】長崎県長崎市ダイヤランド3丁目31番8号", "url": "https://www.kaigokensaku.mhlw.go.jp/42/index.php?action_kouhyou_detail_004_kani=true&JigyosyoCd=4270101522-00&ServiceCd=510&Type=search", "url2": "https://hazukikai.p-kit.com/" }, "geometry": { "type": "Point", "coordinates": [ 129.855091899999934, 32.7026198 ] } },
{ "type": "Feature", "properties": { "内容": "特別養護老人ホームなでしこ荘【介護老人福祉施設】長崎県長崎市西山台2丁目32番47号", "url": "https://www.kaigokensaku.mhlw.go.jp/42/index.php?action_kouhyou_detail_004_kani=true&JigyosyoCd=4270101423-00&ServiceCd=510&Type=search", "url2": "http://www.nadeshikosou.com/" }, "geometry": { "type": "Point", "coordinates": [ 129.894398, 32.7828966 ] } },
{ "type": "Feature", "properties": { "内容": "介護老人福祉施設　古賀の里【介護老人福祉施設】長崎県長崎市古賀町806-2", "url": "https://www.kaigokensaku.mhlw.go.jp/42/index.php?action_kouhyou_detail_004_kani=true&JigyosyoCd=4270109970-00&ServiceCd=510&Type=search", "url2": "http://www.koganosato.jp/" }, "geometry": { "type": "Point", "coordinates": [ 129.961251100000027, 32.7971717 ] } },
{ "type": "Feature", "properties": { "内容": "特別養護老人ホーム長崎の家【介護老人福祉施設】長崎県長崎市小江原1丁目36番18号", "url": "https://www.kaigokensaku.mhlw.go.jp/42/index.php?action_kouhyou_detail_004_kani=true&JigyosyoCd=4270101449-00&ServiceCd=510&Type=search", "url2": "https://www.nagaie.com/" }, "geometry": { "type": "Point", "coordinates": [ 129.834185599999955, 32.7855282 ] } },
{ "type": "Feature", "properties": { "内容": "特別養護老人ホームもくれん【介護老人福祉施設】長崎県長崎市戸石町1683番地", "url": "https://www.kaigokensaku.mhlw.go.jp/42/index.php?action_kouhyou_detail_004_kani=true&JigyosyoCd=4270108048-00&ServiceCd=510&Type=search", "url2": "http://www.mokuren.or.jp/" }, "geometry": { "type": "Point", "coordinates": [ 129.980817600000023, 32.7645724 ] } },
{ "type": "Feature", "properties": { "内容": "特別養護老人ホームサンハイツ【介護老人福祉施設】長崎県長崎市油木町65番地14", "url": "https://www.kaigokensaku.mhlw.go.jp/42/index.php?action_kouhyou_detail_004_kani=true&JigyosyoCd=4270109962-00&ServiceCd=510&Type=search", "url2": "http://www.sanhaitsu.jp/" }, "geometry": { "type": "Point", "coordinates": [ 129.844110300000011, 32.7803067 ] } },
{ "type": "Feature", "properties": { "内容": "指定介護老人福祉施設　恵珠苑【介護老人福祉施設】長崎県長崎市田上2丁目15番12号", "url": "https://www.kaigokensaku.mhlw.go.jp/42/index.php?action_kouhyou_detail_004_kani=true&JigyosyoCd=4270110036-00&ServiceCd=510&Type=search", "url2": "http://yuukikai.jp" }, "geometry": { "type": "Point", "coordinates": [ 129.886578099999952, 32.726513 ] } },
{ "type": "Feature", "properties": { "内容": "特別養護老人ホーム　　三和荘【介護老人福祉施設】長崎県長崎市布巻町７９２番地", "url": "https://www.kaigokensaku.mhlw.go.jp/42/index.php?action_kouhyou_detail_004_kani=true&JigyosyoCd=4271100911-00&ServiceCd=510&Type=search", "url2": "http://www.minorikai.or.jp/sanwasou/index.html" }, "geometry": { "type": "Point", "coordinates": [ 129.829064199999948, 32.659559 ] } },
{ "type": "Feature", "properties": { "内容": "特別養護老人ホーム　永寿園【介護老人福祉施設】長崎県長崎市以下宿町1912番地", "url": "https://www.kaigokensaku.mhlw.go.jp/42/index.php?action_kouhyou_detail_004_kani=true&JigyosyoCd=4271100903-00&ServiceCd=510&Type=search", "url2": "https://care-net.biz/42/eijyu/" }, "geometry": { "type": "Point", "coordinates": [ 129.794064599999956, 32.6204003 ] } },
{ "type": "Feature", "properties": { "内容": "特別養護老人ホーム　椿ヶ丘荘【介護老人福祉施設】長崎県長崎市神浦丸尾町1553番地", "url": "https://www.kaigokensaku.mhlw.go.jp/42/index.php?action_kouhyou_detail_004_kani=true&JigyosyoCd=4271101000-00&ServiceCd=510&Type=search", "url2": "http://www.tsubakigaoka.jp/" }, "geometry": { "type": "Point", "coordinates": [ 129.688107899999977, 32.8812952 ] } },
{ "type": "Feature", "properties": { "内容": "介護老人福祉施設　白寿荘【介護老人福祉施設】長崎県佐世保市鹿子前町９０４－１", "url": "https://www.kaigokensaku.mhlw.go.jp/42/index.php?action_kouhyou_detail_004_kani=true&JigyosyoCd=4270200712-00&ServiceCd=510&Type=search", "url2": "http://www.hakuzyusou.or.jp/" }, "geometry": { "type": "Point", "coordinates": [ 129.684780300000057, 33.1618836 ] } },
{ "type": "Feature", "properties": { "内容": "特別養護老人ホーム佐世保福寿園【介護老人福祉施設】長崎県佐世保市針尾西町267番地", "url": "https://www.kaigokensaku.mhlw.go.jp/42/index.php?action_kouhyou_detail_004_kani=true&JigyosyoCd=4270200720-00&ServiceCd=510&Type=search", "url2": "http://www.hakuaikai-n.com/" }, "geometry": { "type": "Point", "coordinates": [ 129.748043337820491, 33.085662721334586 ] } },
{ "type": "Feature", "properties": { "内容": "特別養護老人ホーム　博仁荘【介護老人福祉施設】長崎県佐世保市花高２丁目１番３５号", "url": "https://www.kaigokensaku.mhlw.go.jp/42/index.php?action_kouhyou_detail_004_kani=true&JigyosyoCd=4270200738-00&ServiceCd=510&Type=search", "url2": "http://sasebo-hakujinkai.or.jp/" }, "geometry": { "type": "Point", "coordinates": [ 129.808083399999987, 33.1439433 ] } },
{ "type": "Feature", "properties": { "内容": "社会福祉法人　由起会　ゆずの里【介護老人福祉施設】長崎県佐世保市上柚木町2515番地ゆずの里", "url": "https://www.kaigokensaku.mhlw.go.jp/42/index.php?action_kouhyou_detail_004_kani=true&JigyosyoCd=4270200746-00&ServiceCd=510&Type=search", "url2": "http://www.cos-mos.jp" }, "geometry": { "type": "Point", "coordinates": [ 129.769645788885555, 33.211210743233721 ] } },
{ "type": "Feature", "properties": { "内容": "特別養護老人ホームサンフラワー【介護老人福祉施設】長崎県佐世保市吉井町直谷368番地6", "url": "https://www.kaigokensaku.mhlw.go.jp/42/index.php?action_kouhyou_detail_004_kani=true&JigyosyoCd=4271500565-00&ServiceCd=510&Type=search", "url2": "http://sunflow19950601.wix.com/sunflower" }, "geometry": { "type": "Point", "coordinates": [ 129.70435509999993, 33.2836939 ] } },
{ "type": "Feature", "properties": { "内容": "特別養護老人ホーム　あそかのもり【介護老人福祉施設】長崎県佐世保市松瀬町1150番地", "url": "https://www.kaigokensaku.mhlw.go.jp/42/index.php?action_kouhyou_detail_004_kani=true&JigyosyoCd=4270200787-00&ServiceCd=510&Type=search", "url2": "https://www.asoka-sasebo.com/" }, "geometry": { "type": "Point", "coordinates": [ 129.731230200000027, 33.219712 ] } },
{ "type": "Feature", "properties": { "内容": "社会福祉法人寛寿会（海南荘）【介護老人福祉施設】長崎県佐世保市俵ヶ浦町210番地", "url": "https://www.kaigokensaku.mhlw.go.jp/42/index.php?action_kouhyou_detail_004_kani=true&JigyosyoCd=4270200753-00&ServiceCd=510&Type=search", "url2": "http://www.kainansou.com/" }, "geometry": { "type": "Point", "coordinates": [ 129.680183299999953, 33.1180546 ] } },
{ "type": "Feature", "properties": { "内容": "黎明館【介護老人福祉施設】佐世保市小佐々町西川内175番地1", "url": "https://www.kaigokensaku.mhlw.go.jp/42/index.php?action_kouhyou_detail_004_kani=true&JigyosyoCd=4271500540-00&ServiceCd=510&Type=search", "url2": "http:reimei-kan.com" }, "geometry": { "type": "Point", "coordinates": [ 129.600168199999985, 33.2157884 ] } },
{ "type": "Feature", "properties": { "内容": "介護老人福祉施設　サンホーム江上【介護老人福祉施設】長崎県佐世保市江上町4847-6", "url": "https://www.kaigokensaku.mhlw.go.jp/42/index.php?action_kouhyou_detail_004_kani=true&JigyosyoCd=4270200779-00&ServiceCd=510&Type=search", "url2": "http://koujukai.or.jp/" }, "geometry": { "type": "Point", "coordinates": [ 129.7837816, 33.0699021 ] } },
{ "type": "Feature", "properties": { "内容": "特別養護老人ホーム　やまずみ荘【介護老人福祉施設】長崎県佐世保市山祗町388番地", "url": "https://www.kaigokensaku.mhlw.go.jp/42/index.php?action_kouhyou_detail_004_kani=true&JigyosyoCd=4270200761-00&ServiceCd=510&Type=search", "url2": "https://www.yamazumiso.or.jp" }, "geometry": { "type": "Point", "coordinates": [ 129.732755900000029, 33.1687583 ] } },
{ "type": "Feature", "properties": { "内容": "特別養護老人ホーム　たけんの【介護老人福祉施設】長崎県佐世保市岳野町107-1", "url": "https://www.kaigokensaku.mhlw.go.jp/42/index.php?action_kouhyou_detail_004_kani=true&JigyosyoCd=4270203419-00&ServiceCd=510&Type=search", "url2": "http://takenno.com/" }, "geometry": { "type": "Point", "coordinates": [ 129.681012499999952, 33.2175811 ] } },
{ "type": "Feature", "properties": { "内容": "特別養護老人ホーム　パールホーム【介護老人福祉施設】長崎県佐世保市世知原町栗迎1番地", "url": "https://www.kaigokensaku.mhlw.go.jp/42/index.php?action_kouhyou_detail_004_kani=true&JigyosyoCd=4271500573-00&ServiceCd=510&Type=search", "url2": "http://gps-fukusi.jp" }, "geometry": { "type": "Point", "coordinates": [ 129.74621463240203, 33.258668500431568 ] } },
{ "type": "Feature", "properties": { "内容": "特別養護老人ホーム　音羽の浜【介護老人福祉施設】長崎県佐世保市東浜町123番地", "url": "https://www.kaigokensaku.mhlw.go.jp/42/index.php?action_kouhyou_detail_004_kani=true&JigyosyoCd=4270202593-00&ServiceCd=510&Type=search", "url2": "http://www.otowanohama.jp/" }, "geometry": { "type": "Point", "coordinates": [ 129.736886700000014, 33.1358536 ] } },
{ "type": "Feature", "properties": { "内容": "特別養護老人ホームあいのうら【介護老人福祉施設】長崎県佐世保市相浦町６０６番地１", "url": "https://www.kaigokensaku.mhlw.go.jp/42/index.php?action_kouhyou_detail_004_kani=true&JigyosyoCd=4270200795-00&ServiceCd=510&Type=search", "url2": "https://syk.or.jp" }, "geometry": { "type": "Point", "coordinates": [ 129.663342599999964, 33.193994 ] } },
{ "type": "Feature", "properties": { "内容": "特別養護老人ホーム老福荘【介護老人福祉施設】長崎県佐世保市江迎町赤坂282番地24", "url": "https://www.kaigokensaku.mhlw.go.jp/42/index.php?action_kouhyou_detail_004_kani=true&JigyosyoCd=4270205455-00&ServiceCd=510&Type=search", "url2": "http://www.hakujukai.com" }, "geometry": { "type": "Point", "coordinates": [ 129.640445, 33.2968998 ] } },
{ "type": "Feature", "properties": { "内容": "特別養護老人ホーム　啓寿園【介護老人福祉施設】長崎県佐世保市宇久町平１９０４番地３", "url": "https://www.kaigokensaku.mhlw.go.jp/42/index.php?action_kouhyou_detail_004_kani=true&JigyosyoCd=4271501100-00&ServiceCd=510&Type=search", "url2": "http://uku-fukujyukai.jp" }, "geometry": { "type": "Point", "coordinates": [ 129.127576399999953, 33.2659446 ] } },
{ "type": "Feature", "properties": { "内容": "特別養護老人ホームファミーユ【介護老人福祉施設】権常寺町1400番地", "url": "https://www.kaigokensaku.mhlw.go.jp/42/index.php?action_kouhyou_detail_004_kani=true&JigyosyoCd=4270204755-00&ServiceCd=510&Type=search", "url2": "https://www.famille-f.jp" }, "geometry": { "type": "Point", "coordinates": [ 129.8036674, 33.1326053 ] } },
{ "type": "Feature", "properties": { "内容": "特別養護老人ホーム　花ぞ野【介護老人福祉施設】長崎県佐世保市折橋町54番地34", "url": "https://www.kaigokensaku.mhlw.go.jp/42/index.php?action_kouhyou_detail_004_kani=true&JigyosyoCd=4270201595-00&ServiceCd=510&Type=search", "url2": "https://www.yourouikuseikai.jp/" }, "geometry": { "type": "Point", "coordinates": [ 129.724015784130842, 33.184709336934901 ] } },
{ "type": "Feature", "properties": { "内容": "特別養護老人ホーム　チューリップ【介護老人福祉施設】長崎県佐世保市黒髪町3729番地2", "url": "https://www.kaigokensaku.mhlw.go.jp/42/index.php?action_kouhyou_detail_004_kani=true&JigyosyoCd=4270202023-00&ServiceCd=510&Type=search", "url2": "http://www.tulip.or.jp" }, "geometry": { "type": "Point", "coordinates": [ 129.7747415, 33.173423 ] } },
{ "type": "Feature", "properties": { "内容": "ユニット型特別養護老人ホームやまのたサンタパーク【介護老人福祉施設】長崎県佐世保市瀬戸越一丁目1444-1", "url": "https://www.kaigokensaku.mhlw.go.jp/42/index.php?action_kouhyou_detail_004_kani=true&JigyosyoCd=4270204656-00&ServiceCd=510&Type=search", "url2": "http://www.yohkohkai.or.jp" }, "geometry": { "type": "Point", "coordinates": [ 129.729666899999984, 33.2020996 ] } },
{ "type": "Feature", "properties": { "内容": "小規模特別養護老人ホーム淡淡荘【介護老人福祉施設】長崎県島原市江里町乙2010番地1", "url": "https://www.kaigokensaku.mhlw.go.jp/42/index.php?action_kouhyou_detail_004_kani=true&JigyosyoCd=4270301304-00&ServiceCd=510&Type=search", "url2": "https://rakuzankai.com/" }, "geometry": { "type": "Point", "coordinates": [ 130.3396563, 32.8025723 ] } },
{ "type": "Feature", "properties": { "内容": "特別養護老人ホーム淡淡荘【介護老人福祉施設】長崎県島原市江里町乙2010番地1", "url": "https://www.kaigokensaku.mhlw.go.jp/42/index.php?action_kouhyou_detail_004_kani=true&JigyosyoCd=4270300249-00&ServiceCd=510&Type=search", "url2": "https://rakuzankai.com/" }, "geometry": { "type": "Point", "coordinates": [ 130.33965939999996, 32.8025178 ] } },
{ "type": "Feature", "properties": { "内容": "社会福祉法人幸和会　特別養護老人ホームびざん【介護老人福祉施設】長崎県島原市緑町８２００番地", "url": "https://www.kaigokensaku.mhlw.go.jp/42/index.php?action_kouhyou_detail_004_kani=true&JigyosyoCd=4270300587-00&ServiceCd=510&Type=search", "url2": "http://www.shimabara.jp/sh6008845/index.html" }, "geometry": { "type": "Point", "coordinates": [ 130.367364800000018, 32.7682515 ] } },
{ "type": "Feature", "properties": { "内容": "社会福祉法人幸和会　ユニット型小規模特別養護老人ホームびざん【介護老人福祉施設】長崎県島原市緑町８２００番地", "url": "https://www.kaigokensaku.mhlw.go.jp/42/index.php?action_kouhyou_detail_004_kani=true&JigyosyoCd=4270301148-00&ServiceCd=510&Type=search", "url2": "http://www.shimabara.jp/sh6008845/index.html" }, "geometry": { "type": "Point", "coordinates": [ 130.367364800000018, 32.7682515 ] } },
{ "type": "Feature", "properties": { "内容": "特別養護老人ホーム　白光苑【介護老人福祉施設】長崎県島原市有明町大三東戊７８３－１", "url": "https://www.kaigokensaku.mhlw.go.jp/42/index.php?action_kouhyou_detail_004_kani=true&JigyosyoCd=4271400717-00&ServiceCd=510&Type=search", "url2": "http://www.shokow-by.or.jp" }, "geometry": { "type": "Point", "coordinates": [ 130.334473399999979, 32.8538162 ] } },
{ "type": "Feature", "properties": { "内容": "特別養護老人ホーム　秩父が浦荘【介護老人福祉施設】長崎県島原市秩父が浦町丁3552番地", "url": "https://www.kaigokensaku.mhlw.go.jp/42/index.php?action_kouhyou_detail_004_kani=true&JigyosyoCd=4270300264-00&ServiceCd=510&Type=search", "url2": "https://www.chichibukai.or.jp/" }, "geometry": { "type": "Point", "coordinates": [ 130.369132240475437, 32.761178022873175 ] } },
{ "type": "Feature", "properties": { "内容": "特別養護老人ホームしろみ【介護老人福祉施設】長崎県諫早市城見町43番1号", "url": "https://www.kaigokensaku.mhlw.go.jp/42/index.php?action_kouhyou_detail_004_kani=true&JigyosyoCd=4270401310-00&ServiceCd=510&Type=search", "url2": "http://shiromi.or.jp/" }, "geometry": { "type": "Point", "coordinates": [ 130.049187, 32.855234 ] } },
{ "type": "Feature", "properties": { "内容": "特別養護老人ホーム天恵荘【介護老人福祉施設】長崎県諫早市有喜町537番地5", "url": "https://www.kaigokensaku.mhlw.go.jp/42/index.php?action_kouhyou_detail_004_kani=true&JigyosyoCd=4270400379-00&ServiceCd=510&Type=search", "url2": "http://uki-fukushimura.jp/" }, "geometry": { "type": "Point", "coordinates": [ 130.07880022023781, 32.792493266724961 ] } },
{ "type": "Feature", "properties": { "内容": "特別養護老人ホーム　特養いいもり【介護老人福祉施設】長崎県諫早市飯盛町開48番地", "url": "https://www.kaigokensaku.mhlw.go.jp/42/index.php?action_kouhyou_detail_004_kani=true&JigyosyoCd=4271300214-00&ServiceCd=510&Type=search", "url2": "http://tokuyou-iimori.jp/" }, "geometry": { "type": "Point", "coordinates": [ 130.024260899999945, 32.7716982 ] } },
{ "type": "Feature", "properties": { "内容": "特別養護老人ホーム　真和荘【介護老人福祉施設】長崎県諫早市多良見町元釜５５６番地", "url": "https://www.kaigokensaku.mhlw.go.jp/42/index.php?action_kouhyou_detail_004_kani=true&JigyosyoCd=4271100929-00&ServiceCd=510&Type=search", "url2": "http://sinwakai.net/" }, "geometry": { "type": "Point", "coordinates": [ 129.931262100000026, 32.8566431 ] } },
{ "type": "Feature", "properties": { "内容": "唐比温泉秀峰荘【介護老人福祉施設】長崎県諫早市森山町唐比西１２４番地５", "url": "https://www.kaigokensaku.mhlw.go.jp/42/index.php?action_kouhyou_detail_004_kani=true&JigyosyoCd=4271300206-00&ServiceCd=510&Type=search", "url2": "http://seiwafukushi.jp/carnet/" }, "geometry": { "type": "Point", "coordinates": [ 130.134553099999948, 32.7910482 ] } },
{ "type": "Feature", "properties": { "内容": "特別養護老人ホーム小長井希望園【介護老人福祉施設】長崎県諌早市小長井町井崎１４０６番地", "url": "https://www.kaigokensaku.mhlw.go.jp/42/index.php?action_kouhyou_detail_004_kani=true&JigyosyoCd=4271300230-00&ServiceCd=510&Type=search", "url2": "kibouen@kzc.biglobe.ne.jp" }, "geometry": { "type": "Point", "coordinates": [ 130.183008200000017, 32.9389016 ] } },
{ "type": "Feature", "properties": { "内容": "指定ユニット型介護老人福祉施設善隣荘【介護老人福祉施設】長崎県諫早市福田町2366番地1", "url": "https://www.kaigokensaku.mhlw.go.jp/42/index.php?action_kouhyou_detail_004_kani=true&JigyosyoCd=4270400387-00&ServiceCd=510&Type=search", "url2": "https://ryubikai.com/" }, "geometry": { "type": "Point", "coordinates": [ 130.056056099999978, 32.8626279 ] } },
{ "type": "Feature", "properties": { "内容": "特別養護老人ホーム　慈恵荘【介護老人福祉施設】長崎県大村市東大村2丁目1616番地2", "url": "https://www.kaigokensaku.mhlw.go.jp/42/index.php?action_kouhyou_detail_004_kani=true&JigyosyoCd=4270500236-00&ServiceCd=510&Type=search", "url2": "https://keikokai.jp/" }, "geometry": { "type": "Point", "coordinates": [ 129.996987499999932, 32.9272968 ] } },
{ "type": "Feature", "properties": { "内容": "特別養護老人ホーム泉の里【介護老人福祉施設】長崎県大村市東本町583番地", "url": "https://www.kaigokensaku.mhlw.go.jp/42/index.php?action_kouhyou_detail_004_kani=true&JigyosyoCd=4270500244-00&ServiceCd=510&Type=search", "url2": "http://www.izuminosato.jp" }, "geometry": { "type": "Point", "coordinates": [ 129.961152099999907, 32.9087339 ] } },
{ "type": "Feature", "properties": { "内容": "特別養護老人ホーム　きぼうそう【介護老人福祉施設】長崎県大村市池田2丁目1163番地23", "url": "https://www.kaigokensaku.mhlw.go.jp/42/index.php?action_kouhyou_detail_004_kani=true&JigyosyoCd=4270500251-00&ServiceCd=510&Type=search", "url2": "http://www.kibouso.or.jp" }, "geometry": { "type": "Point", "coordinates": [ 129.971380899999986, 32.9375928 ] } },
{ "type": "Feature", "properties": { "内容": "特別養護老人ホームわだつみの里【介護老人福祉施設】長崎県平戸市辻町１７８", "url": "https://www.kaigokensaku.mhlw.go.jp/42/index.php?action_kouhyou_detail_004_kani=true&JigyosyoCd=4270700190-00&ServiceCd=510&Type=search", "url2": null }, "geometry": { "type": "Point", "coordinates": [ 129.42609779999998, 33.2170798 ] } },
{ "type": "Feature", "properties": { "内容": "特別養護老人ホーム　田平ホーム【介護老人福祉施設】長崎県平戸市田平町山内免２１４番地１", "url": "https://www.kaigokensaku.mhlw.go.jp/42/index.php?action_kouhyou_detail_004_kani=true&JigyosyoCd=4271500516-00&ServiceCd=510&Type=search", "url2": "http://www.tabira-home.or.jp/" }, "geometry": { "type": "Point", "coordinates": [ 129.5826002, 33.3623403 ] } },
{ "type": "Feature", "properties": { "内容": "生寿園【介護老人福祉施設】長崎県平戸市生月町山田免2963-1特別養護老人ホーム", "url": "https://www.kaigokensaku.mhlw.go.jp/42/index.php?action_kouhyou_detail_004_kani=true&JigyosyoCd=4271500482-00&ServiceCd=510&Type=search", "url2": null }, "geometry": { "type": "Point", "coordinates": [ 129.423149299999977, 33.380140500000017 ] } },
{ "type": "Feature", "properties": { "内容": "特別養護老人ホーム平戸荘【介護老人福祉施設】長崎県平戸市紐差町450番地", "url": "https://www.kaigokensaku.mhlw.go.jp/42/index.php?action_kouhyou_detail_004_kani=true&JigyosyoCd=4270700182-00&ServiceCd=510&Type=search", "url2": "http://hakujukai.com/" }, "geometry": { "type": "Point", "coordinates": [ 129.475521791401661, 33.284794009194719 ] } },
{ "type": "Feature", "properties": { "内容": "介護老人福祉施設　愛光園【介護老人福祉施設】長崎県松浦市志佐町浦免270番地", "url": "https://www.kaigokensaku.mhlw.go.jp/42/index.php?action_kouhyou_detail_004_kani=true&JigyosyoCd=4270800198-00&ServiceCd=510&Type=search", "url2": "https://aikouen-matsuura.com/" }, "geometry": { "type": "Point", "coordinates": [ 129.717479799999978, 33.3453427 ] } },
{ "type": "Feature", "properties": { "内容": "特別養護老人ホーム　春風荘【介護老人福祉施設】長崎県松浦市御厨町里免384番地1", "url": "https://www.kaigokensaku.mhlw.go.jp/42/index.php?action_kouhyou_detail_004_kani=true&JigyosyoCd=4270800727-00&ServiceCd=510&Type=search", "url2": "https://seizanso-matsuurashi.net" }, "geometry": { "type": "Point", "coordinates": [ 129.664233025131239, 33.36426608664015 ] } },
{ "type": "Feature", "properties": { "内容": "特別養護老人ホーム　青山荘【介護老人福祉施設】長崎県松浦市御厨町里免395番地1", "url": "https://www.kaigokensaku.mhlw.go.jp/42/index.php?action_kouhyou_detail_004_kani=true&JigyosyoCd=4270800206-00&ServiceCd=510&Type=search", "url2": null }, "geometry": { "type": "Point", "coordinates": [ 129.664032099999986, 33.3649859 ] } },
{ "type": "Feature", "properties": { "内容": "特別養護老人ホーム　いろは島荘【介護老人福祉施設】長崎県松浦市福島町塩浜免3002番地", "url": "https://www.kaigokensaku.mhlw.go.jp/42/index.php?action_kouhyou_detail_004_kani=true&JigyosyoCd=4270800644-00&ServiceCd=510&Type=search", "url2": "http：//www．irohajimasou．com" }, "geometry": { "type": "Point", "coordinates": [ 129.823632500000031, 33.3657634 ] } },
{ "type": "Feature", "properties": { "内容": "特別養護老人ホーム浅茅の丘【介護老人福祉施設】長崎県対馬市美津島町鶏知甲738-10", "url": "https://www.kaigokensaku.mhlw.go.jp/42/index.php?action_kouhyou_detail_004_kani=true&JigyosyoCd=4272000532-00&ServiceCd=510&Type=search", "url2": "http://asuka-fukushi.or.jp" }, "geometry": { "type": "Point", "coordinates": [ 129.306193521726073, 34.266300034326363 ] } },
{ "type": "Feature", "properties": { "内容": "特別養護老人ホームひとつばたご【介護老人福祉施設】長崎県対馬市上対馬町玖須647番地", "url": "https://www.kaigokensaku.mhlw.go.jp/42/index.php?action_kouhyou_detail_004_kani=true&JigyosyoCd=4272000607-00&ServiceCd=510&Type=search", "url2": "http://www.koseikai.or.jp/hitotsubatago/" }, "geometry": { "type": "Point", "coordinates": [ 129.443073, 34.630732 ] } },
{ "type": "Feature", "properties": { "内容": "特別養護老人ホーム　わたづみ【介護老人福祉施設】長崎県対馬市豊玉町仁位91番地3", "url": "https://www.kaigokensaku.mhlw.go.jp/42/index.php?action_kouhyou_detail_004_kani=true&JigyosyoCd=4271800189-00&ServiceCd=510&Type=search", "url2": "http://www.koseikai.or.jp/watadumi/" }, "geometry": { "type": "Point", "coordinates": [ 129.313574099999983, 34.3880885 ] } },
{ "type": "Feature", "properties": { "内容": "特別養護老人ホーム　いづはら【介護老人福祉施設】長崎県対馬市厳原町東里２２３番地３", "url": "https://www.kaigokensaku.mhlw.go.jp/42/index.php?action_kouhyou_detail_004_kani=true&JigyosyoCd=4272000599-00&ServiceCd=510&Type=search", "url2": "http://www.nagasaki-kouseifukushidan.or.jp/" }, "geometry": { "type": "Point", "coordinates": [ 129.296703100000059, 34.2040963 ] } },
{ "type": "Feature", "properties": { "内容": "特別養護老人ホームいづはらⅡ【介護老人福祉施設】長崎県対馬市厳原町東里３０３番地１", "url": "https://www.kaigokensaku.mhlw.go.jp/42/index.php?action_kouhyou_detail_004_kani=true&JigyosyoCd=4272000557-00&ServiceCd=510&Type=search", "url2": "nagasaki-kouseifukushidan.or.jp" }, "geometry": { "type": "Point", "coordinates": [ 129.295214900000019, 34.1978573 ] } },
{ "type": "Feature", "properties": { "内容": "特別養護老人ホーム　日吉の里【介護老人福祉施設】長崎県対馬市上県町佐須奈乙１２２７－１特別養護老人ホーム　日吉の里", "url": "https://www.kaigokensaku.mhlw.go.jp/42/index.php?action_kouhyou_detail_004_kani=true&JigyosyoCd=4272000508-00&ServiceCd=510&Type=search", "url2": "http://asukafukushikai.com" }, "geometry": { "type": "Point", "coordinates": [ 129.383646, 34.6484128 ] } },
{ "type": "Feature", "properties": { "内容": "特別養護老人ホーム　壱岐のこころ【介護老人福祉施設】長崎県壱岐市勝本町布気触948番地1", "url": "https://www.kaigokensaku.mhlw.go.jp/42/index.php?action_kouhyou_detail_004_kani=true&JigyosyoCd=4271700181-00&ServiceCd=510&Type=search", "url2": "https://www.kokoro.ac.jp/gr/ishinkai-iki/" }, "geometry": { "type": "Point", "coordinates": [ 129.690071294519697, 33.806556944090389 ] } },
{ "type": "Feature", "properties": { "内容": "特別養護老人ホーム　壱岐のこころ【介護老人福祉施設】長崎県壱岐市勝本町布気触948番地1", "url": "https://www.kaigokensaku.mhlw.go.jp/42/index.php?action_kouhyou_detail_004_kani=true&JigyosyoCd=4272100449-00&ServiceCd=510&Type=search", "url2": "https://www.kokoro.ac.jp/gr/ishinkai-iki/" }, "geometry": { "type": "Point", "coordinates": [ 129.690072234186204, 33.8065867462184 ] } },
{ "type": "Feature", "properties": { "内容": "特別養護老人ホーム　光の苑【介護老人福祉施設】長崎県壱岐市郷ノ浦町志原西触1066-1", "url": "https://www.kaigokensaku.mhlw.go.jp/42/index.php?action_kouhyou_detail_004_kani=true&JigyosyoCd=4272100266-00&ServiceCd=510&Type=search", "url2": "http://www.hikarinosono.net/" }, "geometry": { "type": "Point", "coordinates": [ 129.714435500000036, 33.7552554 ] } },
{ "type": "Feature", "properties": { "内容": "特別養護老人ホームハッピーヒルズ（幸せの丘）【介護老人福祉施設】長崎県壱岐市芦辺町箱崎大左右触2272番地2", "url": "https://www.kaigokensaku.mhlw.go.jp/42/index.php?action_kouhyou_detail_004_kani=true&JigyosyoCd=4272100399-00&ServiceCd=510&Type=search", "url2": "http://happyhills.jp/" }, "geometry": { "type": "Point", "coordinates": [ 129.743451489024324, 33.822500796036394 ] } },
{ "type": "Feature", "properties": { "内容": "特別養護老人ホーム緑乃園【介護老人福祉施設】長崎県五島市野々切町２０３５番地２", "url": "https://www.kaigokensaku.mhlw.go.jp/42/index.php?action_kouhyou_detail_004_kani=true&JigyosyoCd=4270600267-00&ServiceCd=510&Type=search", "url2": "https//:gotowakokai.jp" }, "geometry": { "type": "Point", "coordinates": [ 128.832452500000045, 32.649193 ] } },
{ "type": "Feature", "properties": { "内容": "介護老人福祉施設　聖マリアの園【介護老人福祉施設】長崎県五島市松山町706番地3", "url": "https://www.kaigokensaku.mhlw.go.jp/42/index.php?action_kouhyou_detail_004_kani=true&JigyosyoCd=4270600259-00&ServiceCd=510&Type=search", "url2": "seimarianosono.jp" }, "geometry": { "type": "Point", "coordinates": [ 128.837923600000067, 32.7058709 ] } },
{ "type": "Feature", "properties": { "内容": "只狩荘【介護老人福祉施設】長崎県五島市富江町黒瀬585番地", "url": "https://www.kaigokensaku.mhlw.go.jp/42/index.php?action_kouhyou_detail_004_kani=true&JigyosyoCd=4272200272-00&ServiceCd=510&Type=search", "url2": "http://sayurikai.jp/" }, "geometry": { "type": "Point", "coordinates": [ 128.7459513, 32.6054481 ] } },
{ "type": "Feature", "properties": { "内容": "介護老人福祉施設　きじの里【介護老人福祉施設】長崎県五島市岐宿町二本楠３７５番地", "url": "https://www.kaigokensaku.mhlw.go.jp/42/index.php?action_kouhyou_detail_004_kani=true&JigyosyoCd=4271600365-00&ServiceCd=510&Type=search", "url2": "http://syuhoukai.jp/" }, "geometry": { "type": "Point", "coordinates": [ 128.72382, 32.6737041 ] } },
{ "type": "Feature", "properties": { "内容": "小規模特別養護老人ホームみみらくの里【介護老人福祉施設】長崎県五島市三井楽町濱ノ畔1046番地2", "url": "https://www.kaigokensaku.mhlw.go.jp/42/index.php?action_kouhyou_detail_004_kani=true&JigyosyoCd=4271600357-00&ServiceCd=510&Type=search", "url2": "https://mimiraku.info" }, "geometry": { "type": "Point", "coordinates": [ 128.69112210000003, 32.7468726 ] } },
{ "type": "Feature", "properties": { "内容": "たまんな　ゆうゆう【介護老人福祉施設】長崎県五島市玉之浦町玉之浦1371-1", "url": "https://www.kaigokensaku.mhlw.go.jp/42/index.php?action_kouhyou_detail_004_kani=true&JigyosyoCd=4271600340-00&ServiceCd=510&Type=search", "url2": "http://www.u-u-sato.com/" }, "geometry": { "type": "Point", "coordinates": [ 128.614514900000017, 32.6167594 ] } },
{ "type": "Feature", "properties": { "内容": "特別養護老人ホームなるの里【介護老人福祉施設】長崎県五島市奈留町船廻８７９番地１", "url": "https://www.kaigokensaku.mhlw.go.jp/42/index.php?action_kouhyou_detail_004_kani=true&JigyosyoCd=4272200637-00&ServiceCd=510&Type=search", "url2": "http://narunosato.or.jp/" }, "geometry": { "type": "Point", "coordinates": [ 128.94326609999996, 32.8445692 ] } },
{ "type": "Feature", "properties": { "内容": "特別養護老人ホーム　海風荘【介護老人福祉施設】長崎県西海市大瀬戸町瀬戸板浦郷1123番地14", "url": "https://www.kaigokensaku.mhlw.go.jp/42/index.php?action_kouhyou_detail_004_kani=true&JigyosyoCd=4271100994-00&ServiceCd=510&Type=search", "url2": "https://www.kaifuso.com/" }, "geometry": { "type": "Point", "coordinates": [ 129.638221299999941, 32.9437934 ] } },
{ "type": "Feature", "properties": { "内容": "特別養護老人ホーム　ふるさと【介護老人福祉施設】長崎県西海市西海町川内郷1484番地", "url": "https://www.kaigokensaku.mhlw.go.jp/42/index.php?action_kouhyou_detail_004_kani=true&JigyosyoCd=4271102107-00&ServiceCd=510&Type=search", "url2": "http://furusato-saikai.jp/" }, "geometry": { "type": "Point", "coordinates": [ 129.728955700000029, 33.0501836 ] } },
{ "type": "Feature", "properties": { "内容": "風和の里【介護老人福祉施設】長崎県西海市西彼町鳥加郷２１７１番地", "url": "https://www.kaigokensaku.mhlw.go.jp/42/index.php?action_kouhyou_detail_004_kani=true&JigyosyoCd=4272300221-00&ServiceCd=510&Type=search", "url2": "https://www.seihikai.jp/" }, "geometry": { "type": "Point", "coordinates": [ 129.747524385180668, 32.990887687275482 ] } },
{ "type": "Feature", "properties": { "内容": "特別養護老人ホーム　さいかい【介護老人福祉施設】長崎県西海市大島町1876番地59西海医療福祉センター内（４階・５階）", "url": "https://www.kaigokensaku.mhlw.go.jp/42/index.php?action_kouhyou_detail_004_kani=true&JigyosyoCd=4272300288-00&ServiceCd=510&Type=search", "url2": "http://www.fukuikai.com" }, "geometry": { "type": "Point", "coordinates": [ 129.619479525933798, 33.035059987818606 ] } },
{ "type": "Feature", "properties": { "内容": "特別養護老人ホーム湯楽苑【介護老人福祉施設】長崎県雲仙市小浜町北本町217番地", "url": "https://www.kaigokensaku.mhlw.go.jp/42/index.php?action_kouhyou_detail_004_kani=true&JigyosyoCd=4271400733-00&ServiceCd=510&Type=search", "url2": "http://www.obamakai.com/" }, "geometry": { "type": "Point", "coordinates": [ 130.209840516007944, 32.736309769669738 ] } },
{ "type": "Feature", "properties": { "内容": "特別養護老人ホームうんぜんの里【介護老人福祉施設】長崎県雲仙市瑞穂町古部乙1392-1", "url": "https://www.kaigokensaku.mhlw.go.jp/42/index.php?action_kouhyou_detail_004_kani=true&JigyosyoCd=4271400725-00&ServiceCd=510&Type=search", "url2": "http://zuikoukai.com" }, "geometry": { "type": "Point", "coordinates": [ 130.215076193917866, 32.848186544582248 ] } },
{ "type": "Feature", "properties": { "内容": "特別養護老人ホーム愛の里【介護老人福祉施設】長崎県雲仙市愛野町乙2288番地4", "url": "https://www.kaigokensaku.mhlw.go.jp/42/index.php?action_kouhyou_detail_004_kani=true&JigyosyoCd=4272400708-00&ServiceCd=510&Type=search", "url2": "www.hakujukai.com" }, "geometry": { "type": "Point", "coordinates": [ 130.158533820901539, 32.802639242384444 ] } },
{ "type": "Feature", "properties": { "内容": "特別養護老人ホームあけぼの荘【介護老人福祉施設】長崎県南島原市布津町乙１８６２番地２", "url": "https://www.kaigokensaku.mhlw.go.jp/42/index.php?action_kouhyou_detail_004_kani=true&JigyosyoCd=4271400782-00&ServiceCd=510&Type=search", "url2": "http://k-akebono.com/" }, "geometry": { "type": "Point", "coordinates": [ 130.353022941431732, 32.694377544898032 ] } },
{ "type": "Feature", "properties": { "内容": "特別養護老人ホーム　玉成園【介護老人福祉施設】長崎県南島原市口之津町甲1190番地1", "url": "https://www.kaigokensaku.mhlw.go.jp/42/index.php?action_kouhyou_detail_004_kani=true&JigyosyoCd=4271400758-00&ServiceCd=510&Type=search", "url2": "https://gyokuseien.com" }, "geometry": { "type": "Point", "coordinates": [ 130.1880827, 32.6053298 ] } },
{ "type": "Feature", "properties": { "内容": "特別養護老人ホーム眉山荘【介護老人福祉施設】長崎県南島原市深江町乙857番地", "url": "https://www.kaigokensaku.mhlw.go.jp/42/index.php?action_kouhyou_detail_004_kani=true&JigyosyoCd=4271400790-00&ServiceCd=510&Type=search", "url2": "https://kotobukifukushikai.jp/" }, "geometry": { "type": "Point", "coordinates": [ 130.331821799999943, 32.7244617 ] } },
{ "type": "Feature", "properties": { "内容": "特別養護老人ホーム有宝荘【介護老人福祉施設】長崎県南島原市有家町尾上字土橋４０８５番地", "url": "https://www.kaigokensaku.mhlw.go.jp/42/index.php?action_kouhyou_detail_004_kani=true&JigyosyoCd=4271400774-00&ServiceCd=510&Type=search", "url2": "http://www.yuhoso.jp/" }, "geometry": { "type": "Point", "coordinates": [ 130.303321390213, 32.703886657709624 ] } },
{ "type": "Feature", "properties": { "内容": "特別養護老人ホーム緑ヶ丘荘【介護老人福祉施設】長崎県南島原市南有馬町己234番地1", "url": "https://www.kaigokensaku.mhlw.go.jp/42/index.php?action_kouhyou_detail_004_kani=true&JigyosyoCd=4272500747-00&ServiceCd=510&Type=search", "url2": "http://hakujyukai-kadusa.jp/" }, "geometry": { "type": "Point", "coordinates": [ 130.246311900000023, 32.6506718 ] } },
{ "type": "Feature", "properties": { "内容": "特別養護老人ホーム有馬荘【介護老人福祉施設】南島原市北有馬町甲３１８１番地８", "url": "https://www.kaigokensaku.mhlw.go.jp/42/index.php?action_kouhyou_detail_004_kani=true&JigyosyoCd=4271400766-00&ServiceCd=510&Type=search", "url2": "http//www.heiwa-kai.com" }, "geometry": { "type": "Point", "coordinates": [ 130.195246600000019, 32.6731009 ] } },
{ "type": "Feature", "properties": { "内容": "のぞみの杜　介護老人福祉施設【介護老人福祉施設】長崎県西彼杵郡長与町吉無田郷1578", "url": "https://www.kaigokensaku.mhlw.go.jp/42/index.php?action_kouhyou_detail_004_kani=true&JigyosyoCd=4271100945-00&ServiceCd=510&Type=search", "url2": "http://www.nozominomori.or.jp" }, "geometry": { "type": "Point", "coordinates": [ 129.886361599999987, 32.8163345 ] } },
{ "type": "Feature", "properties": { "内容": "特別養護老人ホーム悠久荘【介護老人福祉施設】長崎県西彼杵郡長与町三根郷592番地", "url": "https://www.kaigokensaku.mhlw.go.jp/42/index.php?action_kouhyou_detail_004_kani=true&JigyosyoCd=4271100937-00&ServiceCd=510&Type=search", "url2": "https://kakuseikai.jp/" }, "geometry": { "type": "Point", "coordinates": [ 129.893055752193533, 32.826260702455926 ] } },
{ "type": "Feature", "properties": { "内容": "特別養護老人ホーム時津荘【介護老人福祉施設】長崎県西彼杵郡時津町西時津郷1235番地", "url": "https://www.kaigokensaku.mhlw.go.jp/42/index.php?action_kouhyou_detail_004_kani=true&JigyosyoCd=4271100952-00&ServiceCd=510&Type=search", "url2": "http://www.togitsukai.jp" }, "geometry": { "type": "Point", "coordinates": [ 129.8560347, 32.8458757 ] } },
{ "type": "Feature", "properties": { "内容": "特別養護老人ホーム時津荘ユニット個室【介護老人福祉施設】長崎県西彼杵郡時津町西時津郷1235番地", "url": "https://www.kaigokensaku.mhlw.go.jp/42/index.php?action_kouhyou_detail_004_kani=true&JigyosyoCd=4271103204-00&ServiceCd=510&Type=search", "url2": "http://www.togitsukai.jp" }, "geometry": { "type": "Point", "coordinates": [ 129.8560347, 32.8458757 ] } },
{ "type": "Feature", "properties": { "内容": "特別養護老人ホーム　もみの木荘【介護老人福祉施設】長崎県東彼杵郡東彼杵町里郷２４３５番地", "url": "https://www.kaigokensaku.mhlw.go.jp/42/index.php?action_kouhyou_detail_004_kani=true&JigyosyoCd=4271200216-00&ServiceCd=510&Type=search", "url2": "http://www.mominoki-kai.com/mominokisou/" }, "geometry": { "type": "Point", "coordinates": [ 129.955303599999979, 33.0027688 ] } },
{ "type": "Feature", "properties": { "内容": "特別養護老人ホーム　くじゃくの家【介護老人福祉施設】長崎県東彼杵郡川棚町小串郷　３５８ー１", "url": "https://www.kaigokensaku.mhlw.go.jp/42/index.php?action_kouhyou_detail_004_kani=true&JigyosyoCd=4271200224-00&ServiceCd=510&Type=search", "url2": "http//www.nagasaki-kouseifukusidan.or.jp" }, "geometry": { "type": "Point", "coordinates": [ 129.832980799999973, 33.055460299999986 ] } },
{ "type": "Feature", "properties": { "内容": "社会福祉法人愛隣会　特別養護老人ホームはさみ荘【介護老人福祉施設】長崎県東彼杵郡波佐見町稗木場郷794-1", "url": "https://www.kaigokensaku.mhlw.go.jp/42/index.php?action_kouhyou_detail_004_kani=true&JigyosyoCd=4271200232-00&ServiceCd=510&Type=search", "url2": "https://airinkai-hasami.com" }, "geometry": { "type": "Point", "coordinates": [ 129.871984200000043, 33.126588 ] } },
{ "type": "Feature", "properties": { "内容": "特別養護老人ホーム　養寿園【介護老人福祉施設】長崎県北松浦郡小値賀町笛吹郷１７５６番地２", "url": "https://www.kaigokensaku.mhlw.go.jp/42/index.php?action_kouhyou_detail_004_kani=true&JigyosyoCd=4271501365-00&ServiceCd=510&Type=search", "url2": "http://www.chikanosato.sakura.ne.jp/" }, "geometry": { "type": "Point", "coordinates": [ 129.05983249999997, 33.19115 ] } },
{ "type": "Feature", "properties": { "内容": "特別養護老人ホーム　あやめの里【介護老人福祉施設】長崎県北松浦郡佐々町八口免805番地3特別養護老人ホームあやめの里", "url": "https://www.kaigokensaku.mhlw.go.jp/42/index.php?action_kouhyou_detail_004_kani=true&JigyosyoCd=4271501456-00&ServiceCd=510&Type=search", "url2": "sazagawa.com" }, "geometry": { "type": "Point", "coordinates": [ 129.682366199999933, 33.2559605 ] } },
{ "type": "Feature", "properties": { "内容": "特別養護老人ホーム虹の里【介護老人福祉施設】長崎県北松浦郡佐々町八口免８０５番地３", "url": "https://www.kaigokensaku.mhlw.go.jp/42/index.php?action_kouhyou_detail_004_kani=true&JigyosyoCd=4271500557-00&ServiceCd=510&Type=search", "url2": "http://www.sazagawa.com/ayame/nijinosato.html" }, "geometry": { "type": "Point", "coordinates": [ 129.682366199999933, 33.2559605 ] } },
{ "type": "Feature", "properties": { "内容": "介護老人福祉施設　つばきの里【介護老人福祉施設】南松浦郡新上五島町浦桑郷1008-5", "url": "https://www.kaigokensaku.mhlw.go.jp/42/index.php?action_kouhyou_detail_004_kani=true&JigyosyoCd=4271600407-00&ServiceCd=510&Type=search", "url2": "http://syuhoukai.jp/" }, "geometry": { "type": "Point", "coordinates": [ 129.089231400000017, 32.9876421 ] } },
{ "type": "Feature", "properties": { "内容": "芳寿荘【介護老人福祉施設】長崎県南松浦郡新上五島町今里郷６１０番地", "url": "https://www.kaigokensaku.mhlw.go.jp/42/index.php?action_kouhyou_detail_004_kani=true&JigyosyoCd=4271600399-00&ServiceCd=510&Type=search", "url2": "http://www.houjusou.net/index.html" }, "geometry": { "type": "Point", "coordinates": [ 129.036386599999986, 32.9474339 ] } },
{ "type": "Feature", "properties": { "内容": "介護老人福祉施設　わかまつ【介護老人福祉施設】長崎県南松浦郡新上五島町若松郷２８８番地", "url": "https://www.kaigokensaku.mhlw.go.jp/42/index.php?action_kouhyou_detail_004_kani=true&JigyosyoCd=4271601348-00&ServiceCd=510&Type=search", "url2": null }, "geometry": { "type": "Point", "coordinates": [ 129.022106099999974, 32.8872172 ] } },
{ "type": "Feature", "properties": { "内容": "つつじが丘【介護老人福祉施設】長崎県南松浦郡新上五島町有川郷2369-1", "url": "https://www.kaigokensaku.mhlw.go.jp/42/index.php?action_kouhyou_detail_004_kani=true&JigyosyoCd=4271600415-00&ServiceCd=510&Type=search", "url2": "http//syuhoukai.jp/" }, "geometry": { "type": "Point", "coordinates": [ 129.109969200000023, 32.9800434 ] } },
{ "type": "Feature", "properties": { "内容": "特別養護老人ホーム福見の園【介護老人福祉施設】長崎県南松浦郡新上五島町岩瀬浦郷31-1", "url": "https://www.kaigokensaku.mhlw.go.jp/42/index.php?action_kouhyou_detail_004_kani=true&JigyosyoCd=4271601413-00&ServiceCd=510&Type=search", "url2": "http://www.seiwakai-kamigoto.jp/" }, "geometry": { "type": "Point", "coordinates": [ 129.07682058598337, 32.862768337786683 ] } }
]
}
