{
"type": "FeatureCollection",
"name": "geo_42_認知症対応型通所介護",
"crs": { "type": "name", "properties": { "name": "urn:ogc:def:crs:OGC:1.3:CRS84" } },
"features": [
{ "type": "Feature", "properties": { "内容": "認知症対応型通所介護事業所らぶゆ【認知症対応型通所介護】長崎県長崎市川平町１２０４番地メディケアビル1F", "url": "https://www.kaigokensaku.mhlw.go.jp/42/index.php?action_kouhyou_detail_004_kani=true&JigyosyoCd=4270102967-00&ServiceCd=720&Type=search", "url2": null }, "geometry": { "type": "Point", "coordinates": [ 129.88028209999996, 32.7934756 ] } },
{ "type": "Feature", "properties": { "内容": "指定通所介護事業所　平木場荘【認知症対応型通所介護】長崎県長崎市中里町２２８９番", "url": "https://www.kaigokensaku.mhlw.go.jp/42/index.php?action_kouhyou_detail_004_kani=true&JigyosyoCd=4270101027-00&ServiceCd=720&Type=search", "url2": "http://hiracoba.jp/" }, "geometry": { "type": "Point", "coordinates": [ 129.973494100000039, 32.8147255 ] } },
{ "type": "Feature", "properties": { "内容": "魚の町デイサービスセンター【認知症対応型通所介護】長崎県長崎市魚の町３番２７号チヂワビル", "url": "https://www.kaigokensaku.mhlw.go.jp/42/index.php?action_kouhyou_detail_004_kani=true&JigyosyoCd=4270101860-00&ServiceCd=720&Type=search", "url2": "http://www.nagasaki-kouseifukushidan.or.jp" }, "geometry": { "type": "Point", "coordinates": [ 129.879614100000026, 32.7486692 ] } },
{ "type": "Feature", "properties": { "内容": "ディサービス　ぽ～れぽ～れ【認知症対応型通所介護】長崎県長崎市松が枝町３番２３号", "url": "https://www.kaigokensaku.mhlw.go.jp/42/index.php?action_kouhyou_detail_004_kani=true&JigyosyoCd=4270103395-00&ServiceCd=720&Type=search", "url2": null }, "geometry": { "type": "Point", "coordinates": [ 129.87161489999994, 32.7347091 ] } },
{ "type": "Feature", "properties": { "内容": "有限会社ながさき福祉支援の会　デイサービスセンター　あたたかい手【認知症対応型通所介護】長崎県長崎市川上町２番1号プレイズ川上２・３Ｆ", "url": "https://www.kaigokensaku.mhlw.go.jp/42/index.php?action_kouhyou_detail_004_kani=true&JigyosyoCd=4270102728-00&ServiceCd=720&Type=search", "url2": "http://nagasaki-atatakaite.com/" }, "geometry": { "type": "Point", "coordinates": [ 129.873517699999979, 32.731737200000019 ] } },
{ "type": "Feature", "properties": { "内容": "岩見町パークデイリハビリセンター【認知症対応型通所介護】長崎県長崎市岩見町20-33岩見町リハビリセンター", "url": "https://www.kaigokensaku.mhlw.go.jp/42/index.php?action_kouhyou_detail_004_kani=true&JigyosyoCd=4290100736-00&ServiceCd=720&Type=search", "url2": "http://kiyohararyu-naika.com" }, "geometry": { "type": "Point", "coordinates": [ 129.854336084594706, 32.770195567835806 ] } },
{ "type": "Feature", "properties": { "内容": "デイ・サービス　和が家【認知症対応型通所介護】長崎県長崎市深堀町５丁目２１６番２", "url": "https://www.kaigokensaku.mhlw.go.jp/42/index.php?action_kouhyou_detail_004_kani=true&JigyosyoCd=4290100058-00&ServiceCd=720&Type=search", "url2": null }, "geometry": { "type": "Point", "coordinates": [ 129.822738800000025, 32.6854597 ] } },
{ "type": "Feature", "properties": { "内容": "介護支援センターながさき　まごころステーション桜木【認知症対応型通所介護】長崎県長崎市桜木町３番２５号", "url": "https://www.kaigokensaku.mhlw.go.jp/42/index.php?action_kouhyou_detail_004_kani=true&JigyosyoCd=4290100421-00&ServiceCd=720&Type=search", "url2": "https://www.human-nw.com" }, "geometry": { "type": "Point", "coordinates": [ 129.892339720022619, 32.730745966018496 ] } },
{ "type": "Feature", "properties": { "内容": "デイサービスセンタースマイルケア清水町【認知症対応型通所介護】長崎県長崎市清水町１９番１３号", "url": "https://www.kaigokensaku.mhlw.go.jp/42/index.php?action_kouhyou_detail_004_kani=true&JigyosyoCd=4290100694-00&ServiceCd=720&Type=search", "url2": "http://n-smilecare.jp/" }, "geometry": { "type": "Point", "coordinates": [ 129.857449129430393, 32.787133935339767 ] } },
{ "type": "Feature", "properties": { "内容": "通所介護事業所たなごころ女の都【認知症対応型通所介護】長崎県長崎市女の都4丁目34番9号", "url": "https://www.kaigokensaku.mhlw.go.jp/42/index.php?action_kouhyou_detail_004_kani=true&JigyosyoCd=4290100983-00&ServiceCd=720&Type=search", "url2": "https://www.tanagokoromenoto.com" }, "geometry": { "type": "Point", "coordinates": [ 129.875190500000031, 32.8021272 ] } },
{ "type": "Feature", "properties": { "内容": "デイサービスセンターアスカⅡ【認知症対応型通所介護】長崎県長崎市みなと坂１丁目６番35号", "url": "https://www.kaigokensaku.mhlw.go.jp/42/index.php?action_kouhyou_detail_004_kani=true&JigyosyoCd=4290100322-00&ServiceCd=720&Type=search", "url2": "https://asukafukushikai.jp/" }, "geometry": { "type": "Point", "coordinates": [ 129.838502002438418, 32.728961772570585 ] } },
{ "type": "Feature", "properties": { "内容": "長崎ケアハートガーデン　グループホーム小ヶ倉【認知症対応型通所介護】長崎県長崎市小ヶ倉町三丁目７６－２７", "url": "https://www.kaigokensaku.mhlw.go.jp/42/index.php?action_kouhyou_detail_004_kani=true&JigyosyoCd=4290102203-00&ServiceCd=720&Type=search", "url2": "https://www.careheart-garden.com" }, "geometry": { "type": "Point", "coordinates": [ 129.84707370000001, 32.7036425 ] } },
{ "type": "Feature", "properties": { "内容": "社会医療法人財団　白十字会　ドリームケア戸尾【認知症対応型通所介護】長崎県佐世保市戸尾町4-5白十字ビル10階", "url": "https://www.kaigokensaku.mhlw.go.jp/42/index.php?action_kouhyou_detail_004_kani=true&JigyosyoCd=4270203013-00&ServiceCd=720&Type=search", "url2": "http://www.hakujyujikai.or.jp/dream/" }, "geometry": { "type": "Point", "coordinates": [ 129.72438139999997, 33.1681831 ] } },
{ "type": "Feature", "properties": { "内容": "ドリームケア大塔【認知症対応型通所介護】長崎県佐世保市大塔町1703", "url": "https://www.kaigokensaku.mhlw.go.jp/42/index.php?action_kouhyou_detail_004_kani=true&JigyosyoCd=4270202999-00&ServiceCd=720&Type=search", "url2": "http://www.hakujyujikai.or.jp/dream/" }, "geometry": { "type": "Point", "coordinates": [ 129.775641541278077, 33.153894030617906 ] } },
{ "type": "Feature", "properties": { "内容": "ドリームケア　鹿子前【認知症対応型通所介護】長崎県佐世保市鹿子前町920-1", "url": "https://www.kaigokensaku.mhlw.go.jp/42/index.php?action_kouhyou_detail_004_kani=true&JigyosyoCd=4270203039-00&ServiceCd=720&Type=search", "url2": "http://www.hakuzyusou.or.jp" }, "geometry": { "type": "Point", "coordinates": [ 129.684215422780994, 33.161925171256385 ] } },
{ "type": "Feature", "properties": { "内容": "ドリームケア大潟【認知症対応型通所介護】長崎県佐世保市大潟町149-7", "url": "https://www.kaigokensaku.mhlw.go.jp/42/index.php?action_kouhyou_detail_004_kani=true&JigyosyoCd=4270203062-00&ServiceCd=720&Type=search", "url2": "http://www.hakuzyusou.or.jp/" }, "geometry": { "type": "Point", "coordinates": [ 129.66094320000002, 33.1831202 ] } },
{ "type": "Feature", "properties": { "内容": "認知症対応型通所介護事業所　うえんの【認知症対応型通所介護】長崎県佐世保市鹿町町上歌ケ浦441番地", "url": "https://www.kaigokensaku.mhlw.go.jp/42/index.php?action_kouhyou_detail_004_kani=true&JigyosyoCd=4290200817-00&ServiceCd=720&Type=search", "url2": "https://kaouuenno.wixsite.com/kaou" }, "geometry": { "type": "Point", "coordinates": [ 129.595251100000041, 33.2624555 ] } },
{ "type": "Feature", "properties": { "内容": "デイサービスゆうゆう椿【認知症対応型通所介護】長崎県佐世保市広田1-8-26", "url": "https://www.kaigokensaku.mhlw.go.jp/42/index.php?action_kouhyou_detail_004_kani=true&JigyosyoCd=4290201278-00&ServiceCd=720&Type=search", "url2": "https://www.youyou070701.com" }, "geometry": { "type": "Point", "coordinates": [ 129.801751, 33.1294722 ] } },
{ "type": "Feature", "properties": { "内容": "デイサービス　和み庵【認知症対応型通所介護】長崎県佐世保市母ヶ浦町77番地", "url": "https://www.kaigokensaku.mhlw.go.jp/42/index.php?action_kouhyou_detail_004_kani=true&JigyosyoCd=4290200718-00&ServiceCd=720&Type=search", "url2": "http://www.secondlife24.biz/" }, "geometry": { "type": "Point", "coordinates": [ 129.678658199999973, 33.1828233 ] } },
{ "type": "Feature", "properties": { "内容": "ドリームケア　花高【認知症対応型通所介護】長崎県佐世保市花高４丁目２番５号", "url": "https://www.kaigokensaku.mhlw.go.jp/42/index.php?action_kouhyou_detail_004_kani=true&JigyosyoCd=4290200023-00&ServiceCd=720&Type=search", "url2": "http://www.hakujyujikai.or.jp/dream/" }, "geometry": { "type": "Point", "coordinates": [ 129.8132412, 33.1408771 ] } },
{ "type": "Feature", "properties": { "内容": "ドリームケア須田尾【認知症対応型通所介護】長崎県佐世保市須田尾町304-2", "url": "https://www.kaigokensaku.mhlw.go.jp/42/index.php?action_kouhyou_detail_004_kani=true&JigyosyoCd=4290200486-00&ServiceCd=720&Type=search", "url2": "http://www.hakujyujikai.or.jp/dream/" }, "geometry": { "type": "Point", "coordinates": [ 129.738477800000027, 33.1654283 ] } },
{ "type": "Feature", "properties": { "内容": "社会医療法人財団　白十字会　ﾄﾞﾘｰﾑｹｱ大野【認知症対応型通所介護】長崎県佐世保市矢峰町153番地", "url": "https://www.kaigokensaku.mhlw.go.jp/42/index.php?action_kouhyou_detail_004_kani=true&JigyosyoCd=4290201518-00&ServiceCd=720&Type=search", "url2": "https://hakujyujikai.or.jp/dreamcare/" }, "geometry": { "type": "Point", "coordinates": [ 129.743675, 33.2118252 ] } },
{ "type": "Feature", "properties": { "内容": "ドリームケア　有福【認知症対応型通所介護】長崎県佐世保市有福町4188-24", "url": "https://www.kaigokensaku.mhlw.go.jp/42/index.php?action_kouhyou_detail_004_kani=true&JigyosyoCd=4290200288-00&ServiceCd=720&Type=search", "url2": "http://www.hakujyujikai.or.jp/dream/03_shisetsu/09_arifuku/index.html" }, "geometry": { "type": "Point", "coordinates": [ 129.79253540000002, 33.1359297 ] } },
{ "type": "Feature", "properties": { "内容": "認知症対応型通所介護事業所　サンホーム白南風【認知症対応型通所介護】長崎県佐世保市山祗町394-2", "url": "https://www.kaigokensaku.mhlw.go.jp/42/index.php?action_kouhyou_detail_004_kani=true&JigyosyoCd=4290200890-00&ServiceCd=720&Type=search", "url2": "http://koujukai.or.jp/" }, "geometry": { "type": "Point", "coordinates": [ 129.73410907315062, 33.168691223196731 ] } },
{ "type": "Feature", "properties": { "内容": "ドリームケア横尾【認知症対応型通所介護】長崎県佐世保市横尾町１９６１", "url": "https://www.kaigokensaku.mhlw.go.jp/42/index.php?action_kouhyou_detail_004_kani=true&JigyosyoCd=4290200304-00&ServiceCd=720&Type=search", "url2": "http://www.hakuzyusou.or.jp" }, "geometry": { "type": "Point", "coordinates": [ 129.7183513, 33.1958083 ] } },
{ "type": "Feature", "properties": { "内容": "デイサービス　たけんの【認知症対応型通所介護】長崎県佐世保市岳野町107番地1", "url": "https://www.kaigokensaku.mhlw.go.jp/42/index.php?action_kouhyou_detail_004_kani=true&JigyosyoCd=4290200106-00&ServiceCd=720&Type=search", "url2": "http://takenno.com/" }, "geometry": { "type": "Point", "coordinates": [ 129.681012499999952, 33.2175811 ] } },
{ "type": "Feature", "properties": { "内容": "認知症ディサービス花ぞ野【認知症対応型通所介護】長崎県佐世保市折橋町５４番地３４", "url": "https://www.kaigokensaku.mhlw.go.jp/42/index.php?action_kouhyou_detail_004_kani=true&JigyosyoCd=4290200825-00&ServiceCd=720&Type=search", "url2": null }, "geometry": { "type": "Point", "coordinates": [ 129.724037241802961, 33.184731784617881 ] } },
{ "type": "Feature", "properties": { "内容": "デイサービス　おれんじ心【認知症対応型通所介護】長崎県佐世保市大潟町143-12", "url": "https://www.kaigokensaku.mhlw.go.jp/42/index.php?action_kouhyou_detail_004_kani=true&JigyosyoCd=4290200684-00&ServiceCd=720&Type=search", "url2": "http://orengi.jp/" }, "geometry": { "type": "Point", "coordinates": [ 129.660765399999946, 33.181828700000011 ] } },
{ "type": "Feature", "properties": { "内容": "デイサービスここ・こ【認知症対応型通所介護】長崎県佐世保市小舟町８５－１", "url": "https://www.kaigokensaku.mhlw.go.jp/42/index.php?action_kouhyou_detail_004_kani=true&JigyosyoCd=4290201039-00&ServiceCd=720&Type=search", "url2": "http://carefriend.p-kit.com/" }, "geometry": { "type": "Point", "coordinates": [ 129.761104611940709, 33.208082373901192 ] } },
{ "type": "Feature", "properties": { "内容": "ケア・サポート　福寿【認知症対応型通所介護】長崎県佐世保市針尾北町742-1", "url": "https://www.kaigokensaku.mhlw.go.jp/42/index.php?action_kouhyou_detail_004_kani=true&JigyosyoCd=4290200445-00&ServiceCd=720&Type=search", "url2": null }, "geometry": { "type": "Point", "coordinates": [ 129.757289491996062, 33.098364137647351 ] } },
{ "type": "Feature", "properties": { "内容": "認知症対応型デイサービス音羽の浜　プラス【認知症対応型通所介護】長崎県佐世保市東浜町123番地", "url": "https://www.kaigokensaku.mhlw.go.jp/42/index.php?action_kouhyou_detail_004_kani=true&JigyosyoCd=4290200973-00&ServiceCd=720&Type=search", "url2": "http://otowanohama.jp" }, "geometry": { "type": "Point", "coordinates": [ 129.7369956, 33.1357749 ] } },
{ "type": "Feature", "properties": { "内容": "社会福祉法人　佐世保白寿会　　ドリームケア吉井【認知症対応型通所介護】長崎県佐世保市吉井町橋川内２６－５", "url": "https://www.kaigokensaku.mhlw.go.jp/42/index.php?action_kouhyou_detail_004_kani=true&JigyosyoCd=4290200726-00&ServiceCd=720&Type=search", "url2": null }, "geometry": { "type": "Point", "coordinates": [ 129.707941500000061, 33.2682347 ] } },
{ "type": "Feature", "properties": { "内容": "「城下」宅老所【認知症対応型通所介護】長崎県島原市新湊二丁目丙1680-1", "url": "https://www.kaigokensaku.mhlw.go.jp/42/index.php?action_kouhyou_detail_004_kani=true&JigyosyoCd=4270300546-00&ServiceCd=720&Type=search", "url2": "http://johka.jp" }, "geometry": { "type": "Point", "coordinates": [ 130.360483439672862, 32.761607369825171 ] } },
{ "type": "Feature", "properties": { "内容": "デイサービスアオゾラ【認知症対応型通所介護】長崎県島原市六ツ木町甲８０７番地１", "url": "https://www.kaigokensaku.mhlw.go.jp/42/index.php?action_kouhyou_detail_004_kani=true&JigyosyoCd=4290300062-00&ServiceCd=720&Type=search", "url2": "https://aozora-fukushikai.com/" }, "geometry": { "type": "Point", "coordinates": [ 130.348288239323466, 32.792886548205018 ] } },
{ "type": "Feature", "properties": { "内容": "ミニデイホームしおさい【認知症対応型通所介護】長崎県島原市中安徳町丁１７６９番地3", "url": "https://www.kaigokensaku.mhlw.go.jp/42/index.php?action_kouhyou_detail_004_kani=true&JigyosyoCd=4290300922-00&ServiceCd=720&Type=search", "url2": null }, "geometry": { "type": "Point", "coordinates": [ 130.361240899999984, 32.7456209 ] } },
{ "type": "Feature", "properties": { "内容": "真和荘デイサービス・オリーブ【認知症対応型通所介護】長崎県諌早市多良見町元釜556", "url": "https://www.kaigokensaku.mhlw.go.jp/42/index.php?action_kouhyou_detail_004_kani=true&JigyosyoCd=4271100549-00&ServiceCd=720&Type=search", "url2": "http;//sinwakai.net/" }, "geometry": { "type": "Point", "coordinates": [ 129.931262100000026, 32.8566431 ] } },
{ "type": "Feature", "properties": { "内容": "デイサービスセンターしみず【認知症対応型通所介護】長崎県諌早市本明町103", "url": "https://www.kaigokensaku.mhlw.go.jp/42/index.php?action_kouhyou_detail_004_kani=true&JigyosyoCd=4270400973-00&ServiceCd=720&Type=search", "url2": null }, "geometry": { "type": "Point", "coordinates": [ 130.04043465563359, 32.867278716453555 ] } },
{ "type": "Feature", "properties": { "内容": "デイサービスセンターしろみほほえみ【認知症対応型通所介護】長崎県諫早市城見町43番1号", "url": "https://www.kaigokensaku.mhlw.go.jp/42/index.php?action_kouhyou_detail_004_kani=true&JigyosyoCd=4290400086-00&ServiceCd=720&Type=search", "url2": "http://shiromi.jp/" }, "geometry": { "type": "Point", "coordinates": [ 130.049187, 32.855234 ] } },
{ "type": "Feature", "properties": { "内容": "社会福祉法人　祥仁会　認知症対応型通所介護事業所　デイホーム　特養いいもり【認知症対応型通所介護】長崎県諫早市飯盛町開48番地", "url": "https://www.kaigokensaku.mhlw.go.jp/42/index.php?action_kouhyou_detail_004_kani=true&JigyosyoCd=4290400060-00&ServiceCd=720&Type=search", "url2": "http://tokuyou-iimori.jp/" }, "geometry": { "type": "Point", "coordinates": [ 130.024260899999945, 32.7716982 ] } },
{ "type": "Feature", "properties": { "内容": "デイサービスまりんはあと【認知症対応型通所介護】長崎県諫早市多良見町元釜5-15マリンビュー棟1階", "url": "https://www.kaigokensaku.mhlw.go.jp/42/index.php?action_kouhyou_detail_004_kani=true&JigyosyoCd=4290400193-00&ServiceCd=720&Type=search", "url2": "http://www.aiplease.com/" }, "geometry": { "type": "Point", "coordinates": [ 129.932037, 32.857768 ] } },
{ "type": "Feature", "properties": { "内容": "社会福祉法人樹陽会デイサービスセンター湧泉荘【認知症対応型通所介護】長崎県大村市諏訪１丁目６７０番地６", "url": "https://www.kaigokensaku.mhlw.go.jp/42/index.php?action_kouhyou_detail_004_kani=true&JigyosyoCd=4270500087-00&ServiceCd=720&Type=search", "url2": "http://juyoukai.com/" }, "geometry": { "type": "Point", "coordinates": [ 129.9620516, 32.9241659 ] } },
{ "type": "Feature", "properties": { "内容": "泉の里デイセンターとくせん【認知症対応型通所介護】長崎県大村市徳泉川内町８２９番地", "url": "https://www.kaigokensaku.mhlw.go.jp/42/index.php?action_kouhyou_detail_004_kani=true&JigyosyoCd=4270500897-00&ServiceCd=720&Type=search", "url2": "http://www.izuminosato.jp" }, "geometry": { "type": "Point", "coordinates": [ 129.982558499999982, 32.9117421 ] } },
{ "type": "Feature", "properties": { "内容": "合同会社光商事【認知症対応型通所介護】坂口町386番地", "url": "https://www.kaigokensaku.mhlw.go.jp/42/index.php?action_kouhyou_detail_004_kani=true&JigyosyoCd=4290500349-00&ServiceCd=720&Type=search", "url2": "homehepnanohana.wixsite.com/homehelpnanohana" }, "geometry": { "type": "Point", "coordinates": [ 129.9606287, 32.9347117 ] } },
{ "type": "Feature", "properties": { "内容": "デイサービスいろり端【認知症対応型通所介護】長崎県大村市大川田町４１６－１", "url": "https://www.kaigokensaku.mhlw.go.jp/42/index.php?action_kouhyou_detail_004_kani=true&JigyosyoCd=4290500208-00&ServiceCd=720&Type=search", "url2": null }, "geometry": { "type": "Point", "coordinates": [ 129.947113557394431, 32.942810371818602 ] } },
{ "type": "Feature", "properties": { "内容": "認知症対応型デイサービスセンター湧泉荘【認知症対応型通所介護】長崎県大村市諏訪1丁目174番地2", "url": "https://www.kaigokensaku.mhlw.go.jp/42/index.php?action_kouhyou_detail_004_kani=true&JigyosyoCd=4290500463-00&ServiceCd=720&Type=search", "url2": "https://www.juyoukai.com/" }, "geometry": { "type": "Point", "coordinates": [ 129.961660599999988, 32.923555 ] } },
{ "type": "Feature", "properties": { "内容": "認知症対応型通所介護デイサービス縁【認知症対応型通所介護】長崎県大村市宮小路3丁目1973－1", "url": "https://www.kaigokensaku.mhlw.go.jp/42/index.php?action_kouhyou_detail_004_kani=true&JigyosyoCd=4290500448-00&ServiceCd=720&Type=search", "url2": null }, "geometry": { "type": "Point", "coordinates": [ 129.9412659, 32.9541654 ] } },
{ "type": "Feature", "properties": { "内容": "社会福祉法人白寿会　デイサービスセンターとかじん【認知症対応型通所介護】長崎県平戸市岩の上町３８７番地１", "url": "https://www.kaigokensaku.mhlw.go.jp/42/index.php?action_kouhyou_detail_004_kani=true&JigyosyoCd=4290700022-00&ServiceCd=720&Type=search", "url2": "http://hakujyukai-hirado.jp/publics/index/36/" }, "geometry": { "type": "Point", "coordinates": [ 129.5550548, 33.3571715 ] } },
{ "type": "Feature", "properties": { "内容": "デイサービスそよ風【認知症対応型通所介護】長崎県松浦市調川町下免740-50", "url": "https://www.kaigokensaku.mhlw.go.jp/42/index.php?action_kouhyou_detail_004_kani=true&JigyosyoCd=4290800038-00&ServiceCd=720&Type=search", "url2": "https://care-net.biz/42/enju.soyokaze/" }, "geometry": { "type": "Point", "coordinates": [ 129.72970650000002, 33.3522645 ] } },
{ "type": "Feature", "properties": { "内容": "認知症対応型通所介護事業所丸山【認知症対応型通所介護】長崎県対馬市峰町三根３６番地１", "url": "https://www.kaigokensaku.mhlw.go.jp/42/index.php?action_kouhyou_detail_004_kani=true&JigyosyoCd=4292000025-00&ServiceCd=720&Type=search", "url2": "http://www.baijinkai.jp" }, "geometry": { "type": "Point", "coordinates": [ 129.312008499999962, 34.468765 ] } },
{ "type": "Feature", "properties": { "内容": "かざぐるま【認知症対応型通所介護】長崎県対馬市美津島町鶏知甲663-12", "url": "https://www.kaigokensaku.mhlw.go.jp/42/index.php?action_kouhyou_detail_004_kani=true&JigyosyoCd=4292000017-00&ServiceCd=720&Type=search", "url2": "beijyukai.com" }, "geometry": { "type": "Point", "coordinates": [ 129.309193100000016, 34.2673288 ] } },
{ "type": "Feature", "properties": { "内容": "認知症対応型通所介護事業所どんぐり【認知症対応型通所介護】長崎県対馬市峰町佐賀３００－１１", "url": "https://www.kaigokensaku.mhlw.go.jp/42/index.php?action_kouhyou_detail_004_kani=true&JigyosyoCd=4292000033-00&ServiceCd=720&Type=search", "url2": "konix-donguri@sea.tcctv.ne.jp" }, "geometry": { "type": "Point", "coordinates": [ 129.376607199999967, 34.4657247 ] } },
{ "type": "Feature", "properties": { "内容": "社会福祉法人　北串会　デイサービスセンターかをり【認知症対応型通所介護】長崎県雲仙市小浜町山畑3144", "url": "https://www.kaigokensaku.mhlw.go.jp/42/index.php?action_kouhyou_detail_004_kani=true&JigyosyoCd=4292400084-00&ServiceCd=720&Type=search", "url2": "https://www.kitagusikai.jp" }, "geometry": { "type": "Point", "coordinates": [ 130.1875033, 32.6908408 ] } },
{ "type": "Feature", "properties": { "内容": "有限会社ナーク　デイサービス小浜きたの【認知症対応型通所介護】長崎県雲仙市小浜町北野1048-2", "url": "https://www.kaigokensaku.mhlw.go.jp/42/index.php?action_kouhyou_detail_004_kani=true&JigyosyoCd=4292400092-00&ServiceCd=720&Type=search", "url2": "http://nark.jp/" }, "geometry": { "type": "Point", "coordinates": [ 130.210533400000031, 32.7412279 ] } },
{ "type": "Feature", "properties": { "内容": "有限会社　気楽【認知症対応型通所介護】長崎県雲仙市愛野町乙3501番地３", "url": "https://www.kaigokensaku.mhlw.go.jp/42/index.php?action_kouhyou_detail_004_kani=true&JigyosyoCd=4292400167-00&ServiceCd=720&Type=search", "url2": null }, "geometry": { "type": "Point", "coordinates": [ 130.145593100000042, 32.79722 ] } },
{ "type": "Feature", "properties": { "内容": "共用型デイサービスクベレ【認知症対応型通所介護】長崎県雲仙市小浜町金浜422-2", "url": "https://www.kaigokensaku.mhlw.go.jp/42/index.php?action_kouhyou_detail_004_kani=true&JigyosyoCd=4292400191-00&ServiceCd=720&Type=search", "url2": "http://www.quelle-gp.jp/kubere.php" }, "geometry": { "type": "Point", "coordinates": [ 130.1790183, 32.7045956 ] } },
{ "type": "Feature", "properties": { "内容": "デイサービスセンター緑ヶ丘荘【認知症対応型通所介護】長崎県南島原市加津佐町丙１９３５－10", "url": "https://www.kaigokensaku.mhlw.go.jp/42/index.php?action_kouhyou_detail_004_kani=true&JigyosyoCd=4271400220-00&ServiceCd=720&Type=search", "url2": "http://www.hakujukai.com/" }, "geometry": { "type": "Point", "coordinates": [ 130.169934909856494, 32.636552550310221 ] } },
{ "type": "Feature", "properties": { "内容": "「城下」にしありえ【認知症対応型通所介護】長崎県南島原市西有家町龍石1417番地1", "url": "https://www.kaigokensaku.mhlw.go.jp/42/index.php?action_kouhyou_detail_004_kani=true&JigyosyoCd=4292500115-00&ServiceCd=720&Type=search", "url2": null }, "geometry": { "type": "Point", "coordinates": [ 130.2630446, 32.6702255 ] } },
{ "type": "Feature", "properties": { "内容": "ジベルニー長崎【認知症対応型通所介護】長崎県西彼杵郡時津町西時津郷173-1", "url": "https://www.kaigokensaku.mhlw.go.jp/42/index.php?action_kouhyou_detail_004_kani=true&JigyosyoCd=4271100762-00&ServiceCd=720&Type=search", "url2": "https://www.keiseikai.biz" }, "geometry": { "type": "Point", "coordinates": [ 129.86308740000004, 32.8344711 ] } },
{ "type": "Feature", "properties": { "内容": "有限会社　あやめの里【認知症対応型通所介護】長崎県南松浦郡新上五島町鯛ノ浦郷397番地4", "url": "https://www.kaigokensaku.mhlw.go.jp/42/index.php?action_kouhyou_detail_004_kani=true&JigyosyoCd=4291600031-00&ServiceCd=720&Type=search", "url2": null }, "geometry": { "type": "Point", "coordinates": [ 129.100100699999984, 32.969760700000016 ] } }
]
}
