{
"type": "FeatureCollection",
"name": "geo_42_短期大学",
"crs": { "type": "name", "properties": { "name": "urn:ogc:def:crs:EPSG::6668" } },
"features": [
{ "type": "Feature", "properties": { "P29_001": "42201", "P29_002": "F242310111264", "P29_003": "16006", "P29_004": "長崎女子短期大学", "P29_005": "長崎県長崎市弥生町19-1", "P29_006": "4", "P29_007": "0", "P29_008": "00", "P29_009": null }, "geometry": { "type": "Point", "coordinates": [ 129.89707800038525, 32.731533998377067 ] } },
{ "type": "Feature", "properties": { "P29_001": "42202", "P29_002": "F242310111273", "P29_003": "16006", "P29_004": "長崎短期大学", "P29_005": "長崎県佐世保市椎木町600", "P29_006": "4", "P29_007": "0", "P29_008": "00", "P29_009": null }, "geometry": { "type": "Point", "coordinates": [ 129.673718302507126, 33.179532549538493 ] } }
]
}
