{
"type": "FeatureCollection",
"name": "geo_42_大学",
"crs": { "type": "name", "properties": { "name": "urn:ogc:def:crs:EPSG::6668" } },
"features": [
{ "type": "Feature", "properties": { "P29_001": "42201", "P29_002": "F142110111189", "P29_003": "16007", "P29_004": "長崎大学", "P29_005": "長崎県長崎市文教町1-14", "P29_006": "1", "P29_007": "0", "P29_008": "01", "P29_009": "文教キャンパス" }, "geometry": { "type": "Point", "coordinates": [ 129.865278714910914, 32.786069069936026 ] } },
{ "type": "Feature", "properties": { "P29_001": "42202", "P29_002": "F142210111196", "P29_003": "16007", "P29_004": "長崎県立大学", "P29_005": "長崎県佐世保市川下町123", "P29_006": "2", "P29_007": "0", "P29_008": "01", "P29_009": "佐世保校" }, "geometry": { "type": "Point", "coordinates": [ 129.666546061327637, 33.186453146201629 ] } },
{ "type": "Feature", "properties": { "P29_001": "42201", "P29_002": "F142310111201", "P29_003": "16007", "P29_004": "長崎総合科学大学", "P29_005": "長崎県長崎市網場町536", "P29_006": "4", "P29_007": "0", "P29_008": "00", "P29_009": null }, "geometry": { "type": "Point", "coordinates": [ 129.943322057778573, 32.754221707192208 ] } },
{ "type": "Feature", "properties": { "P29_001": "42201", "P29_002": "F142310111210", "P29_003": "16007", "P29_004": "活水女子大学", "P29_005": "長崎県長崎市東山手町1-50", "P29_006": "4", "P29_007": "0", "P29_008": "01", "P29_009": "東??キャンパス" }, "geometry": { "type": "Point", "coordinates": [ 129.873405873816608, 32.738828655447151 ] } },
{ "type": "Feature", "properties": { "P29_001": "42201", "P29_002": "F142310111229", "P29_003": "16007", "P29_004": "長崎純心大学", "P29_005": "長崎県長崎市三ツ山町235", "P29_006": "4", "P29_007": "0", "P29_008": "00", "P29_009": null }, "geometry": { "type": "Point", "coordinates": [ 129.910312317054348, 32.798495137031381 ] } },
{ "type": "Feature", "properties": { "P29_001": "42202", "P29_002": "F142310111238", "P29_003": "16007", "P29_004": "長崎国際大学", "P29_005": "長崎県佐世保市ハウステンボス町2825-7", "P29_006": "4", "P29_007": "0", "P29_008": "00", "P29_009": null }, "geometry": { "type": "Point", "coordinates": [ 129.79093154566533, 33.102492579859202 ] } },
{ "type": "Feature", "properties": { "P29_001": "42308", "P29_002": "F142310111247", "P29_003": "16007", "P29_004": "長崎外国語大学", "P29_005": "長崎県西彼杵郡時津町元村郷1010-1", "P29_006": "4", "P29_007": "0", "P29_008": "00", "P29_009": null }, "geometry": { "type": "Point", "coordinates": [ 129.841496761115849, 32.814318121744535 ] } },
{ "type": "Feature", "properties": { "P29_001": "42204", "P29_002": "F142310111256", "P29_003": "16007", "P29_004": "鎮西学院大学", "P29_005": "長崎県諫早市西栄田町1212-1", "P29_006": "4", "P29_007": "0", "P29_008": "00", "P29_009": null }, "geometry": { "type": "Point", "coordinates": [ 130.029917617574057, 32.860223482300903 ] } },
{ "type": "Feature", "properties": { "P29_001": "42201", "P29_002": "F142110111189", "P29_003": "16007", "P29_004": "長崎大学", "P29_005": "長崎県長崎市坂本1-12-4", "P29_006": "1", "P29_007": "0", "P29_008": "02", "P29_009": "坂本キャンパス1" }, "geometry": { "type": "Point", "coordinates": [ 129.868265411634894, 32.77300646286136 ] } },
{ "type": "Feature", "properties": { "P29_001": "42201", "P29_002": "F142110111189", "P29_003": "16007", "P29_004": "長崎大学", "P29_005": "長崎県長崎市坂本1-7-1", "P29_006": "1", "P29_007": "0", "P29_008": "03", "P29_009": "坂本キャンパス2" }, "geometry": { "type": "Point", "coordinates": [ 129.868958713745684, 32.769203580132661 ] } },
{ "type": "Feature", "properties": { "P29_001": "42201", "P29_002": "F142110111189", "P29_003": "16007", "P29_004": "長崎大学", "P29_005": "長崎県長崎市片淵4-2-1", "P29_006": "1", "P29_007": "0", "P29_008": "04", "P29_009": "片淵キャンパス" }, "geometry": { "type": "Point", "coordinates": [ 129.88814351888405, 32.759153365162568 ] } },
{ "type": "Feature", "properties": { "P29_001": "42307", "P29_002": "F142210111196", "P29_003": "16007", "P29_004": "長崎県立大学", "P29_005": "長崎県長与町まなび野1-1-1", "P29_006": "2", "P29_007": "0", "P29_008": "02", "P29_009": "シーボルト校" }, "geometry": { "type": "Point", "coordinates": [ 129.874998599671699, 32.808285598231137 ] } },
{ "type": "Feature", "properties": { "P29_001": "42205", "P29_002": "F142310111210", "P29_003": "16007", "P29_004": "活水女子大学", "P29_005": "長崎県大村市久原2-1246-3", "P29_006": "4", "P29_007": "0", "P29_008": "02", "P29_009": "大村キャンパス" }, "geometry": { "type": "Point", "coordinates": [ 129.972616627638502, 32.894880437064948 ] } }
]
}
