{
"type": "FeatureCollection",
"name": "geo_42_各種学校",
"crs": { "type": "name", "properties": { "name": "urn:ogc:def:crs:EPSG::6668" } },
"features": [
{ "type": "Feature", "properties": { "P29_001": "42205", "P29_002": "H242310000013", "P29_003": "16015", "P29_004": "苑田編物和裁学院", "P29_005": "長崎県大村市松並1-943", "P29_006": "4", "P29_007": "0", "P29_008": "00", "P29_009": null }, "geometry": { "type": "Point", "coordinates": [ 129.949753955837735, 32.921437512340319 ] } },
{ "type": "Feature", "properties": { "P29_001": "42202", "P29_002": "H242310000022", "P29_003": "16015", "P29_004": "あざみ洋裁学院", "P29_005": "長崎県佐世保市大黒町21-29", "P29_006": "4", "P29_007": "0", "P29_008": "00", "P29_009": null }, "geometry": { "type": "Point", "coordinates": [ 129.736434563540172, 33.154887132500455 ] } },
{ "type": "Feature", "properties": { "P29_001": "42201", "P29_002": "H242310000031", "P29_003": "16015", "P29_004": "有益語学学院", "P29_005": "長崎県長崎市西山1-23-6", "P29_006": "4", "P29_007": "0", "P29_008": "00", "P29_009": null }, "geometry": { "type": "Point", "coordinates": [ 129.879784539349117, 32.761457043819675 ] } },
{ "type": "Feature", "properties": { "P29_001": "42201", "P29_002": "H242310000040", "P29_003": "16015", "P29_004": "長崎野田ゼミナール", "P29_005": "長崎県長崎市大橋町23-3", "P29_006": "4", "P29_007": "0", "P29_008": "00", "P29_009": null }, "geometry": { "type": "Point", "coordinates": [ 129.863303015497905, 32.78161477978076 ] } },
{ "type": "Feature", "properties": { "P29_001": "42204", "P29_002": "H242310000059", "P29_003": "16015", "P29_004": "長崎日本語アカデミー", "P29_005": "長崎県諫早市栄田町30-12", "P29_006": "4", "P29_007": "0", "P29_008": "00", "P29_009": null }, "geometry": { "type": "Point", "coordinates": [ 130.037727781208645, 32.855296402357816 ] } },
{ "type": "Feature", "properties": { "P29_001": "42203", "P29_002": "H242310000068", "P29_003": "16015", "P29_004": "ＫｏｋｏｒｏＣｏｌｌｅｇｅＪａｐａｎ", "P29_005": "長崎県島原市秩父が浦丁2669-22", "P29_006": "4", "P29_007": "0", "P29_008": "00", "P29_009": null }, "geometry": { "type": "Point", "coordinates": [ 130.368119666466043, 32.760092316017783 ] } },
{ "type": "Feature", "properties": { "P29_001": "42211", "P29_002": "H242310000077", "P29_003": "16015", "P29_004": "五島日本語学校", "P29_005": "長崎県五島市坂の上1-151-3", "P29_006": "4", "P29_007": "0", "P29_008": "00", "P29_009": null }, "geometry": { "type": "Point", "coordinates": [ 128.837466082708744, 32.68933878065458 ] } },
{ "type": "Feature", "properties": { "P29_001": "42201", "P29_002": "H242310000086", "P29_003": "16015", "P29_004": "あさひ日本語学校", "P29_005": "長崎県長崎市赤迫2-11-38", "P29_006": "4", "P29_007": "0", "P29_008": "00", "P29_009": null }, "geometry": { "type": "Point", "coordinates": [ 129.855192101959943, 32.79857664545051 ] } },
{ "type": "Feature", "properties": { "P29_001": "42201", "P29_002": "H242310000095", "P29_003": "16015", "P29_004": "精道ホームアーツ・スクール", "P29_005": "長崎県長崎市三川町1232-1", "P29_006": "4", "P29_007": "0", "P29_008": "00", "P29_009": null }, "geometry": { "type": "Point", "coordinates": [ 129.884164548846087, 32.786966434157826 ] } }
]
}
