{
"type": "FeatureCollection",
"name": "geo_42_短期入所療養介護（介護老人保健施設）",
"crs": { "type": "name", "properties": { "name": "urn:ogc:def:crs:OGC:1.3:CRS84" } },
"features": [
{ "type": "Feature", "properties": { "内容": "ニュー琴海病院介護医療院きんかい【短期入所療養介護（介護老人保健施設）】長崎県長崎市琴海形上町1849-7", "url": "https://www.kaigokensaku.mhlw.go.jp/42/index.php?action_kouhyou_detail_004_kani=true&JigyosyoCd=42B0100046-00&ServiceCd=220&Type=search", "url2": null }, "geometry": { "type": "Point", "coordinates": [ 129.785457900000011, 32.9482899 ] } },
{ "type": "Feature", "properties": { "内容": "介護老人保健施設コスモスガーデン桜の里【短期入所療養介護（介護老人保健施設）】長崎県長崎市さくらの里2丁目27番28号", "url": "https://www.kaigokensaku.mhlw.go.jp/42/index.php?action_kouhyou_detail_004_kani=true&JigyosyoCd=4250180108-00&ServiceCd=220&Type=search", "url2": "http://www.cosmos-garden.com/" }, "geometry": { "type": "Point", "coordinates": [ 129.7640476, 32.8355752 ] } },
{ "type": "Feature", "properties": { "内容": "サテライト型小規模介護老人保健施設　サンブライト愛宕Ⅱ【短期入所療養介護（介護老人保健施設）】長崎県長崎市愛宕４丁目１１番１号", "url": "https://www.kaigokensaku.mhlw.go.jp/42/index.php?action_kouhyou_detail_004_kani=true&JigyosyoCd=4250180116-00&ServiceCd=220&Type=search", "url2": "http://sunbright-atago.jp" }, "geometry": { "type": "Point", "coordinates": [ 129.8920493, 32.734111 ] } },
{ "type": "Feature", "properties": { "内容": "介護老人保健施設にしきの里【短期入所療養介護（介護老人保健施設）】長崎県長崎市錦2丁目1番1号", "url": "https://www.kaigokensaku.mhlw.go.jp/42/index.php?action_kouhyou_detail_004_kani=true&JigyosyoCd=4250180066-00&ServiceCd=220&Type=search", "url2": "https://www.youi-med-psychiatry.com/nishiki/" }, "geometry": { "type": "Point", "coordinates": [ 129.855620199999947, 32.7884088 ] } },
{ "type": "Feature", "properties": { "内容": "サンブライト愛宕【短期入所療養介護（介護老人保健施設）】長崎県長崎市愛宕４丁目１４番２号", "url": "https://www.kaigokensaku.mhlw.go.jp/42/index.php?action_kouhyou_detail_004_kani=true&JigyosyoCd=4250180058-00&ServiceCd=220&Type=search", "url2": "http://sunbright-atago.jp/" }, "geometry": { "type": "Point", "coordinates": [ 129.892327499999965, 32.7333625 ] } },
{ "type": "Feature", "properties": { "内容": "老人保健施設　ダイヤランド崎望館【短期入所療養介護（介護老人保健施設）】長崎県長崎市ダイヤランド3丁目31番3号", "url": "https://www.kaigokensaku.mhlw.go.jp/42/index.php?action_kouhyou_detail_004_kani=true&JigyosyoCd=4250180082-00&ServiceCd=220&Type=search", "url2": "kiboukan@ngs2.cncm.ne.jp" }, "geometry": { "type": "Point", "coordinates": [ 129.855500200000051, 32.7028893 ] } },
{ "type": "Feature", "properties": { "内容": "医療法人　和仁会　介護老人保健施設　中の里【短期入所療養介護（介護老人保健施設）】長崎県長崎市古賀町８１５－２", "url": "https://www.kaigokensaku.mhlw.go.jp/42/index.php?action_kouhyou_detail_004_kani=true&JigyosyoCd=4250180033-00&ServiceCd=220&Type=search", "url2": null }, "geometry": { "type": "Point", "coordinates": [ 129.961737099999937, 32.7979605 ] } },
{ "type": "Feature", "properties": { "内容": "介護老人保健施設　ハーモニーガーデン【短期入所療養介護（介護老人保健施設）】長崎県長崎市網場町492番地13", "url": "https://www.kaigokensaku.mhlw.go.jp/42/index.php?action_kouhyou_detail_004_kani=true&JigyosyoCd=4250180025-00&ServiceCd=220&Type=search", "url2": "http://www.yugikai.or.jp/harmony.html" }, "geometry": { "type": "Point", "coordinates": [ 129.9463757, 32.7572675 ] } },
{ "type": "Feature", "properties": { "内容": "シンフォニー稲佐の森　ショートステイセンター【短期入所療養介護（介護老人保健施設）】長崎県長崎市大谷町418番地1", "url": "https://www.kaigokensaku.mhlw.go.jp/42/index.php?action_kouhyou_detail_004_kani=true&JigyosyoCd=4250180009-00&ServiceCd=220&Type=search", "url2": "http://www.symphony@nagasaki-kouseifukushidan.or.jp" }, "geometry": { "type": "Point", "coordinates": [ 129.850955, 32.7483184 ] } },
{ "type": "Feature", "properties": { "内容": "介護老人保健施設　シンフォニー稲佐の森II【短期入所療養介護（介護老人保健施設）】長崎県長崎市大谷町４１８番地１", "url": "https://www.kaigokensaku.mhlw.go.jp/42/index.php?action_kouhyou_detail_004_kani=true&JigyosyoCd=4250180090-00&ServiceCd=220&Type=search", "url2": "http://www.nagasaki-kouseifukushidan.or.jp" }, "geometry": { "type": "Point", "coordinates": [ 129.850912084655761, 32.748534964697505 ] } },
{ "type": "Feature", "properties": { "内容": "エスポアールそとめ【短期入所療養介護（介護老人保健施設）】長崎県長崎市上黒崎町2201番地3", "url": "https://www.kaigokensaku.mhlw.go.jp/42/index.php?action_kouhyou_detail_004_kani=true&JigyosyoCd=4251180016-00&ServiceCd=220&Type=search", "url2": "http://hiurakai.jp/" }, "geometry": { "type": "Point", "coordinates": [ 129.723261099999945, 32.8546143 ] } },
{ "type": "Feature", "properties": { "内容": "介護老人保健施設　東長崎ナーシングホーム【短期入所療養介護（介護老人保健施設）】長崎市東町1893-5", "url": "https://www.kaigokensaku.mhlw.go.jp/42/index.php?action_kouhyou_detail_004_kani=true&JigyosyoCd=4250180074-00&ServiceCd=220&Type=search", "url2": "http://fusoukai.jp/" }, "geometry": { "type": "Point", "coordinates": [ 129.956263, 32.779165 ] } },
{ "type": "Feature", "properties": { "内容": "社会福祉法人　平成会　介護老人保健施設　短期入所療養介護【短期入所療養介護（介護老人保健施設）】横尾３丁目26番2号", "url": "https://www.kaigokensaku.mhlw.go.jp/42/index.php?action_kouhyou_detail_004_kani=true&JigyosyoCd=4250180041-00&ServiceCd=220&Type=search", "url2": "http://www.heisei-kai.or.jp/" }, "geometry": { "type": "Point", "coordinates": [ 129.839453300000059, 32.8168669 ] } },
{ "type": "Feature", "properties": { "内容": "医療法人清潮会　介護老人保健施設　みどりの里【短期入所療養介護（介護老人保健施設）】長崎県長崎市布巻町１６５番地１", "url": "https://www.kaigokensaku.mhlw.go.jp/42/index.php?action_kouhyou_detail_004_kani=true&JigyosyoCd=4251180040-00&ServiceCd=220&Type=search", "url2": "https://midorinosato.ne.jp/" }, "geometry": { "type": "Point", "coordinates": [ 129.832316900000023, 32.6542122 ] } },
{ "type": "Feature", "properties": { "内容": "介護老人保健施設　松寿園【短期入所療養介護（介護老人保健施設）】長崎県佐世保市小佐世保町2番1号", "url": "https://www.kaigokensaku.mhlw.go.jp/42/index.php?action_kouhyou_detail_004_kani=true&JigyosyoCd=4250280023-00&ServiceCd=220&Type=search", "url2": "http://www.sasebo-syojuen.com/index.html" }, "geometry": { "type": "Point", "coordinates": [ 129.731246476721196, 33.173894600925884 ] } },
{ "type": "Feature", "properties": { "内容": "介護老人保健施設リハビリサポートひうみ【短期入所療養介護（介護老人保健施設）】長崎県佐世保市ひうみ町1879番地31", "url": "https://www.kaigokensaku.mhlw.go.jp/42/index.php?action_kouhyou_detail_004_kani=true&JigyosyoCd=4250280114-00&ServiceCd=220&Type=search", "url2": "https://hakujyujikai.or.jp/hiumi/" }, "geometry": { "type": "Point", "coordinates": [ 129.767994425887167, 33.154760952260403 ] } },
{ "type": "Feature", "properties": { "内容": "介護老人保健施設すいざん荘【短期入所療養介護（介護老人保健施設）】赤崎町74-2", "url": "https://www.kaigokensaku.mhlw.go.jp/42/index.php?action_kouhyou_detail_004_kani=true&JigyosyoCd=4250280031-00&ServiceCd=220&Type=search", "url2": null }, "geometry": { "type": "Point", "coordinates": [ 129.6933732, 33.1648317 ] } },
{ "type": "Feature", "properties": { "内容": "介護老人保健施設サン　ユニット【短期入所療養介護（介護老人保健施設）】大和町30番地", "url": "https://www.kaigokensaku.mhlw.go.jp/42/index.php?action_kouhyou_detail_004_kani=true&JigyosyoCd=4250280080-00&ServiceCd=220&Type=search", "url2": "https://hakujyujikai-san.jp/" }, "geometry": { "type": "Point", "coordinates": [ 140.886190199999987, 38.4371373 ] } },
{ "type": "Feature", "properties": { "内容": "介護老人保健施設サン【短期入所療養介護（介護老人保健施設）】長崎県佐世保市大和町30番地", "url": "https://www.kaigokensaku.mhlw.go.jp/42/index.php?action_kouhyou_detail_004_kani=true&JigyosyoCd=4250280049-00&ServiceCd=220&Type=search", "url2": "https://hakujyujikai-san.jp/" }, "geometry": { "type": "Point", "coordinates": [ 129.74716984841001, 33.156405996786454 ] } },
{ "type": "Feature", "properties": { "内容": "介護老人保健施設　長寿苑【短期入所療養介護（介護老人保健施設）】長崎県佐世保市日宇町2835番地", "url": "https://www.kaigokensaku.mhlw.go.jp/42/index.php?action_kouhyou_detail_004_kani=true&JigyosyoCd=4250280007-00&ServiceCd=220&Type=search", "url2": "http://www.hakujyujikai.or.jp/tjn/" }, "geometry": { "type": "Point", "coordinates": [ 129.7668258, 33.1554688 ] } },
{ "type": "Feature", "properties": { "内容": "介護老人保健施設ひまわり【短期入所療養介護（介護老人保健施設）】長崎県佐世保市指方町５０４０番地３", "url": "https://www.kaigokensaku.mhlw.go.jp/42/index.php?action_kouhyou_detail_004_kani=true&JigyosyoCd=4250280064-00&ServiceCd=220&Type=search", "url2": "http:/www.hoyukai.info/himawari/" }, "geometry": { "type": "Point", "coordinates": [ 129.784181, 33.091139 ] } },
{ "type": "Feature", "properties": { "内容": "老人保健施設コスモス【短期入所療養介護（介護老人保健施設）】長崎県佐世保市上柚木町２５１５番地", "url": "https://www.kaigokensaku.mhlw.go.jp/42/index.php?action_kouhyou_detail_004_kani=true&JigyosyoCd=4250280015-00&ServiceCd=220&Type=search", "url2": "http://www.cos-mos.jp" }, "geometry": { "type": "Point", "coordinates": [ 129.770096400000057, 33.2108472 ] } },
{ "type": "Feature", "properties": { "内容": "介護老人保健施設　フォスター島原【短期入所療養介護（介護老人保健施設）】長崎県島原市中野町丙２７番地１", "url": "https://www.kaigokensaku.mhlw.go.jp/42/index.php?action_kouhyou_detail_004_kani=true&JigyosyoCd=4250380005-00&ServiceCd=220&Type=search", "url2": null }, "geometry": { "type": "Point", "coordinates": [ 130.3497307, 32.8277656 ] } },
{ "type": "Feature", "properties": { "内容": "医療法人慈眼会　坂本医院内科・婦人科【短期入所療養介護（介護老人保健施設）】長崎県島原市親和町丁2670-10", "url": "https://www.kaigokensaku.mhlw.go.jp/42/index.php?action_kouhyou_detail_004_kani=true&JigyosyoCd=4270301361-00&ServiceCd=220&Type=search", "url2": "jigenkai@himawarinet.ne.jp" }, "geometry": { "type": "Point", "coordinates": [ 130.3660878, 32.760655400000033 ] } },
{ "type": "Feature", "properties": { "内容": "医療法人　社団　淳生会　介護老人保健施設　恵風園【短期入所療養介護（介護老人保健施設）】長崎県諫早市多良見町化屋９９５番", "url": "https://www.kaigokensaku.mhlw.go.jp/42/index.php?action_kouhyou_detail_004_kani=true&JigyosyoCd=4251180057-00&ServiceCd=220&Type=search", "url2": "http://www.jyunseikai-jikei.jp/" }, "geometry": { "type": "Point", "coordinates": [ 129.983048199999985, 32.8282548 ] } },
{ "type": "Feature", "properties": { "内容": "介護老人保健施設　ケアホーム・クローバー【短期入所療養介護（介護老人保健施設）】長崎県諫早市長田町２５４７", "url": "https://www.kaigokensaku.mhlw.go.jp/42/index.php?action_kouhyou_detail_004_kani=true&JigyosyoCd=4250480011-00&ServiceCd=220&Type=search", "url2": "http://danno-clover.com/" }, "geometry": { "type": "Point", "coordinates": [ 130.080573299999969, 32.8627315 ] } },
{ "type": "Feature", "properties": { "内容": "医療法人　祥仁会　介護老人保健施設　ろうけん西諫早【短期入所療養介護（介護老人保健施設）】長崎県諫早市貝津町3015番地", "url": "https://www.kaigokensaku.mhlw.go.jp/42/index.php?action_kouhyou_detail_004_kani=true&JigyosyoCd=4250480003-00&ServiceCd=220&Type=search", "url2": "http://www.syoujinkai.com/rouken/" }, "geometry": { "type": "Point", "coordinates": [ 130.02027314603265, 32.837014860357719 ] } },
{ "type": "Feature", "properties": { "内容": "介護老人保健施設　恵仁荘【短期入所療養介護（介護老人保健施設）】長崎県諫早市有喜町648", "url": "https://www.kaigokensaku.mhlw.go.jp/42/index.php?action_kouhyou_detail_004_kani=true&JigyosyoCd=4250480045-00&ServiceCd=220&Type=search", "url2": "http://uki-fukushimura.jp/keijinso/" }, "geometry": { "type": "Point", "coordinates": [ 130.077007099999946, 32.7910256 ] } },
{ "type": "Feature", "properties": { "内容": "医療法人　檜山会　介護老人保健施設うぐいすの丘　短期入所療養介護【短期入所療養介護（介護老人保健施設）】長崎県大村市東大村1丁目2526-13", "url": "https://www.kaigokensaku.mhlw.go.jp/42/index.php?action_kouhyou_detail_004_kani=true&JigyosyoCd=4250580018-00&ServiceCd=220&Type=search", "url2": "http://www.hizankai.or.jp/uguisu/" }, "geometry": { "type": "Point", "coordinates": [ 130.0080825, 32.9296165 ] } },
{ "type": "Feature", "properties": { "内容": "リハビリセンター大村【短期入所療養介護（介護老人保健施設）】長崎県大村市田下町930-3", "url": "https://www.kaigokensaku.mhlw.go.jp/42/index.php?action_kouhyou_detail_004_kani=true&JigyosyoCd=4250580000-00&ServiceCd=220&Type=search", "url2": "http://www.midori-group.com" }, "geometry": { "type": "Point", "coordinates": [ 130.000475394442788, 32.952279860572418 ] } },
{ "type": "Feature", "properties": { "内容": "介護老人保健施設ひらんど【短期入所療養介護（介護老人保健施設）】長崎県平戸市浦の町７４５番地１", "url": "https://www.kaigokensaku.mhlw.go.jp/42/index.php?action_kouhyou_detail_004_kani=true&JigyosyoCd=4250780006-00&ServiceCd=220&Type=search", "url2": "http://kyk-kitagawahp.com/" }, "geometry": { "type": "Point", "coordinates": [ 129.55224069999997, 33.3721363 ] } },
{ "type": "Feature", "properties": { "内容": "介護老人保健施設　よかとこ【短期入所療養介護（介護老人保健施設）】長﨑県松浦市星鹿町牟田免401", "url": "https://www.kaigokensaku.mhlw.go.jp/42/index.php?action_kouhyou_detail_004_kani=true&JigyosyoCd=4250880004-00&ServiceCd=220&Type=search", "url2": "http://sousihkai.webcrow.jp/yokatoko.html" }, "geometry": { "type": "Point", "coordinates": [ 129.661469399999987, 33.3767957 ] } },
{ "type": "Feature", "properties": { "内容": "介護老人保健施設　つしま彩光園【短期入所療養介護（介護老人保健施設）】長崎県対馬市厳原町東里338番地1", "url": "https://www.kaigokensaku.mhlw.go.jp/42/index.php?action_kouhyou_detail_004_kani=true&JigyosyoCd=4251880003-00&ServiceCd=220&Type=search", "url2": "http://asuka-fukushi.or.jp" }, "geometry": { "type": "Point", "coordinates": [ 129.2926817, 34.1983156 ] } },
{ "type": "Feature", "properties": { "内容": "介護老人保健施設結石山荘【短期入所療養介護（介護老人保健施設）】長崎県対馬市上対馬町大浦字浜在所原66番地1", "url": "https://www.kaigokensaku.mhlw.go.jp/42/index.php?action_kouhyou_detail_004_kani=true&JigyosyoCd=4251980001-00&ServiceCd=220&Type=search", "url2": null }, "geometry": { "type": "Point", "coordinates": [ 129.433950900000013, 34.6719865 ] } },
{ "type": "Feature", "properties": { "内容": "介護老人保健施設壱岐【短期入所療養介護（介護老人保健施設）】長崎県壱岐市勝本町本宮南触236番地", "url": "https://www.kaigokensaku.mhlw.go.jp/42/index.php?action_kouhyou_detail_004_kani=true&JigyosyoCd=4251780013-00&ServiceCd=220&Type=search", "url2": null }, "geometry": { "type": "Point", "coordinates": [ 129.686536100000012, 33.8082883 ] } },
{ "type": "Feature", "properties": { "内容": "社会医療法人　玄州会　介護老人保健施設光風【短期入所療養介護（介護老人保健施設）】長崎県壱岐市郷ノ浦町東触1006番地1", "url": "https://www.kaigokensaku.mhlw.go.jp/42/index.php?action_kouhyou_detail_004_kani=true&JigyosyoCd=4251780005-00&ServiceCd=220&Type=search", "url2": "ｇｅｎｓｈｕｋａｉ..ｏｒ.ｊｐ" }, "geometry": { "type": "Point", "coordinates": [ 129.706594699999982, 33.7521834 ] } },
{ "type": "Feature", "properties": { "内容": "リハビリセンターふくえ【短期入所療養介護（介護老人保健施設）】長崎県五島市吉田町2390", "url": "https://www.kaigokensaku.mhlw.go.jp/42/index.php?action_kouhyou_detail_004_kani=true&JigyosyoCd=4250680016-00&ServiceCd=220&Type=search", "url2": "http://www.rehabilicenter-fukue.jp" }, "geometry": { "type": "Point", "coordinates": [ 128.81768550000001, 32.6879858 ] } },
{ "type": "Feature", "properties": { "内容": "末広荘【短期入所療養介護（介護老人保健施設）】長崎県五島市末広町7番地5", "url": "https://www.kaigokensaku.mhlw.go.jp/42/index.php?action_kouhyou_detail_004_kani=true&JigyosyoCd=4250680024-00&ServiceCd=220&Type=search", "url2": "http://www.suehirosou.com/" }, "geometry": { "type": "Point", "coordinates": [ 128.84274435092621, 32.69589980621361 ] } },
{ "type": "Feature", "properties": { "内容": "介護老人保健施設　五島福寿園【短期入所療養介護（介護老人保健施設）】長崎県五島市吉久木町９０８番地１", "url": "https://www.kaigokensaku.mhlw.go.jp/42/index.php?action_kouhyou_detail_004_kani=true&JigyosyoCd=4250680008-00&ServiceCd=220&Type=search", "url2": "http://gotokai.jp/" }, "geometry": { "type": "Point", "coordinates": [ 128.8188295, 32.6997018 ] } },
{ "type": "Feature", "properties": { "内容": "短期入所療養介護　さいかい【短期入所療養介護（介護老人保健施設）】長崎県西海市大島町1876番地59", "url": "https://www.kaigokensaku.mhlw.go.jp/42/index.php?action_kouhyou_detail_004_kani=true&JigyosyoCd=4272300353-00&ServiceCd=220&Type=search", "url2": "http://www.fukuikai.com/" }, "geometry": { "type": "Point", "coordinates": [ 129.6189665, 33.0353873 ] } },
{ "type": "Feature", "properties": { "内容": "医療法人　伴帥会　介護老人保健施設　ガイアの里【短期入所療養介護（介護老人保健施設）】長崎県雲仙市愛野町乙2314-1", "url": "https://www.kaigokensaku.mhlw.go.jp/42/index.php?action_kouhyou_detail_004_kani=true&JigyosyoCd=4251480044-00&ServiceCd=220&Type=search", "url2": "https://ainomhp.jp/group/gaia" }, "geometry": { "type": "Point", "coordinates": [ 130.16032169999994, 32.8012697 ] } },
{ "type": "Feature", "properties": { "内容": "介護老人保健施設　真寿苑【短期入所療養介護（介護老人保健施設）】雲仙市瑞穂町伊福甲６８１番地", "url": "https://www.kaigokensaku.mhlw.go.jp/42/index.php?action_kouhyou_detail_004_kani=true&JigyosyoCd=4251480002-00&ServiceCd=220&Type=search", "url2": "http://www.sinwakai.net" }, "geometry": { "type": "Point", "coordinates": [ 130.238436500000034, 32.861447 ] } },
{ "type": "Feature", "properties": { "内容": "老健おばま　短期入所療養介護事業所【短期入所療養介護（介護老人保健施設）】長崎県雲仙市小浜町南本町59番地", "url": "https://www.kaigokensaku.mhlw.go.jp/42/index.php?action_kouhyou_detail_004_kani=true&JigyosyoCd=4272400518-00&ServiceCd=220&Type=search", "url2": "http://rouken-obama.com/" }, "geometry": { "type": "Point", "coordinates": [ 130.2046322, 32.7215234 ] } },
{ "type": "Feature", "properties": { "内容": "介護老人保健施設　フォンテ【短期入所療養介護（介護老人保健施設）】長崎県南島原市深江町丁２４２１", "url": "https://www.kaigokensaku.mhlw.go.jp/42/index.php?action_kouhyou_detail_004_kani=true&JigyosyoCd=4251480010-00&ServiceCd=220&Type=search", "url2": "http://www.izumikawa.or.jp/index.php/c_Main/showPg51" }, "geometry": { "type": "Point", "coordinates": [ 130.350628599999936, 32.7181514 ] } },
{ "type": "Feature", "properties": { "内容": "介護老人保健施設　夢織りの里【短期入所療養介護（介護老人保健施設）】長崎県南島原市西有家町里坊41-1", "url": "https://www.kaigokensaku.mhlw.go.jp/42/index.php?action_kouhyou_detail_004_kani=true&JigyosyoCd=4251480028-00&ServiceCd=220&Type=search", "url2": "http://www.kunpukai.or.jp/" }, "geometry": { "type": "Point", "coordinates": [ 130.299072099999989, 32.6597741 ] } },
{ "type": "Feature", "properties": { "内容": "医療法人　弘池会　介護老人保健施設ろうけんかづさ【短期入所療養介護（介護老人保健施設）】長崎県南島原市加津佐町戊4450番地", "url": "https://www.kaigokensaku.mhlw.go.jp/42/index.php?action_kouhyou_detail_004_kani=true&JigyosyoCd=4251480036-00&ServiceCd=220&Type=search", "url2": "http://www.kouchikai.com/index.html" }, "geometry": { "type": "Point", "coordinates": [ 130.194034399999964, 32.6283445 ] } },
{ "type": "Feature", "properties": { "内容": "介護老人保健施設　長与リハビリセンター【短期入所療養介護（介護老人保健施設）】長崎県西彼杵郡長与町高田郷６２３－５", "url": "https://www.kaigokensaku.mhlw.go.jp/42/index.php?action_kouhyou_detail_004_kani=true&JigyosyoCd=4251180008-00&ServiceCd=220&Type=search", "url2": null }, "geometry": { "type": "Point", "coordinates": [ 129.867791, 32.800291 ] } },
{ "type": "Feature", "properties": { "内容": "介護療養型老人保健施設なづみ【短期入所療養介護（介護老人保健施設）】長崎県西彼杵郡時津町左底郷38-1", "url": "https://www.kaigokensaku.mhlw.go.jp/42/index.php?action_kouhyou_detail_004_kani=true&JigyosyoCd=4251180073-00&ServiceCd=220&Type=search", "url2": "http://www.nosc.or.jp/nadumi/" }, "geometry": { "type": "Point", "coordinates": [ 129.839922200000046, 32.8333154 ] } },
{ "type": "Feature", "properties": { "内容": "介護老人保健施設　さざなみ　短期入所療養介護事業所【短期入所療養介護（介護老人保健施設）】長崎県東彼杵郡東彼杵町彼杵宿郷1085", "url": "https://www.kaigokensaku.mhlw.go.jp/42/index.php?action_kouhyou_detail_004_kani=true&JigyosyoCd=4251280006-00&ServiceCd=220&Type=search", "url2": "http://www.sazanami.or.jp/" }, "geometry": { "type": "Point", "coordinates": [ 129.927598699999976, 33.0299407 ] } },
{ "type": "Feature", "properties": { "内容": "介護老人保健施設　さざ・煌きの里【短期入所療養介護（介護老人保健施設）】長崎県北松浦郡佐々町八口免８０５－２", "url": "https://www.kaigokensaku.mhlw.go.jp/42/index.php?action_kouhyou_detail_004_kani=true&JigyosyoCd=4251580017-00&ServiceCd=220&Type=search", "url2": "http://www.kiramekinosato.com/" }, "geometry": { "type": "Point", "coordinates": [ 129.683313399999946, 33.2556827 ] } },
{ "type": "Feature", "properties": { "内容": "介護老人保健施設　つくしの里【短期入所療養介護（介護老人保健施設）】長崎県南松浦郡新上五島町鯛ノ浦郷437-1", "url": "https://www.kaigokensaku.mhlw.go.jp/42/index.php?action_kouhyou_detail_004_kani=true&JigyosyoCd=4251680015-00&ServiceCd=220&Type=search", "url2": "http://syuhoukai.jp/" }, "geometry": { "type": "Point", "coordinates": [ 129.102003500000023, 32.9636835 ] } },
{ "type": "Feature", "properties": { "内容": "グリーンヒルかみごとう【短期入所療養介護（介護老人保健施設）】長崎県南松浦郡新上五島町浦桑郷643番地1", "url": "https://www.kaigokensaku.mhlw.go.jp/42/index.php?action_kouhyou_detail_004_kani=true&JigyosyoCd=4251680007-00&ServiceCd=220&Type=search", "url2": "http://care-net.biz/42/greenhill" }, "geometry": { "type": "Point", "coordinates": [ 129.083537200000023, 32.9899778 ] } }
]
}
