{
"type": "FeatureCollection",
"name": "geo_42_幼稚園",
"crs": { "type": "name", "properties": { "name": "urn:ogc:def:crs:EPSG::6668" } },
"features": [
{ "type": "Feature", "properties": { "P29_001": "42201", "P29_002": "A142110000013", "P29_003": "16011", "P29_004": "長崎大学教育学部附属幼稚園", "P29_005": "長崎県長崎市文教町4-23", "P29_006": "1", "P29_007": "0", "P29_008": "00", "P29_009": null }, "geometry": { "type": "Point", "coordinates": [ 129.868030651805668, 32.789981425410488 ] } },
{ "type": "Feature", "properties": { "P29_001": "42202", "P29_002": "A142210000011", "P29_003": "16011", "P29_004": "佐世保市立白南風幼稚園", "P29_005": "長崎県佐世保市山祇町387", "P29_006": "3", "P29_007": "0", "P29_008": "00", "P29_009": null }, "geometry": { "type": "Point", "coordinates": [ 129.733637894413221, 33.167773264529359 ] } },
{ "type": "Feature", "properties": { "P29_001": "42204", "P29_002": "A142210000039", "P29_003": "16011", "P29_004": "諫早市立諫早幼稚園", "P29_005": "長崎県諫早市野中町508-7", "P29_006": "3", "P29_007": "0", "P29_008": "00", "P29_009": null }, "geometry": { "type": "Point", "coordinates": [ 130.056894547488412, 32.83612937311991 ] } },
{ "type": "Feature", "properties": { "P29_001": "42411", "P29_002": "A142210000084", "P29_003": "16011", "P29_004": "新上五島町立有川幼稚園", "P29_005": "長崎県南松浦郡新上五島町有川郷1745-2", "P29_006": "3", "P29_007": "0", "P29_008": "00", "P29_009": null }, "geometry": { "type": "Point", "coordinates": [ 129.120831868007201, 32.978260894439792 ] } },
{ "type": "Feature", "properties": { "P29_001": "42210", "P29_002": "A142210000093", "P29_003": "16011", "P29_004": "壱岐市立郷ノ浦幼稚園", "P29_005": "長崎県壱岐市郷ノ浦町本村触607-2", "P29_006": "3", "P29_007": "0", "P29_008": "00", "P29_009": null }, "geometry": { "type": "Point", "coordinates": [ 129.694337994687601, 33.749807800058861 ] } },
{ "type": "Feature", "properties": { "P29_001": "42210", "P29_002": "A142210000100", "P29_003": "16011", "P29_004": "壱岐市立勝本幼稚園", "P29_005": "長崎県壱岐市勝本町坂本触262", "P29_006": "3", "P29_007": "0", "P29_008": "00", "P29_009": null }, "geometry": { "type": "Point", "coordinates": [ 129.690921004211049, 33.851520997706565 ] } },
{ "type": "Feature", "properties": { "P29_001": "42210", "P29_002": "A142210000119", "P29_003": "16011", "P29_004": "壱岐市立霞翠幼稚園", "P29_005": "長崎県壱岐市勝本町西戸触550", "P29_006": "3", "P29_007": "0", "P29_008": "00", "P29_009": null }, "geometry": { "type": "Point", "coordinates": [ 129.700610480761384, 33.845028594339517 ] } },
{ "type": "Feature", "properties": { "P29_001": "42210", "P29_002": "A142210000128", "P29_003": "16011", "P29_004": "壱岐市立鯨伏幼稚園", "P29_005": "長崎県壱岐市勝本町布気触927-4", "P29_006": "3", "P29_007": "0", "P29_008": "00", "P29_009": null }, "geometry": { "type": "Point", "coordinates": [ 129.689984999756092, 33.807327001704124 ] } },
{ "type": "Feature", "properties": { "P29_001": "42210", "P29_002": "A142210000137", "P29_003": "16011", "P29_004": "壱岐市立箱崎幼稚園", "P29_005": "長崎県壱岐市芦辺町箱崎釘ノ尾触652-2", "P29_006": "3", "P29_007": "0", "P29_008": "00", "P29_009": null }, "geometry": { "type": "Point", "coordinates": [ 129.740622184306289, 33.826326574145931 ] } },
{ "type": "Feature", "properties": { "P29_001": "42210", "P29_002": "A142210000146", "P29_003": "16011", "P29_004": "壱岐市立瀬戸幼稚園", "P29_005": "長崎県壱岐市芦辺町箱崎大左右触920", "P29_006": "3", "P29_007": "0", "P29_008": "00", "P29_009": null }, "geometry": { "type": "Point", "coordinates": [ 129.75460701946264, 33.817511922907698 ] } },
{ "type": "Feature", "properties": { "P29_001": "42210", "P29_002": "A142210000155", "P29_003": "16011", "P29_004": "壱岐市立那賀幼稚園", "P29_005": "長崎県壱岐市芦辺町住吉山信触1007", "P29_006": "3", "P29_007": "0", "P29_008": "00", "P29_009": null }, "geometry": { "type": "Point", "coordinates": [ 129.719151735608705, 33.787433016241557 ] } },
{ "type": "Feature", "properties": { "P29_001": "42210", "P29_002": "A142210000164", "P29_003": "16011", "P29_004": "壱岐市立田河幼稚園", "P29_005": "長崎県壱岐市芦辺町諸吉二亦触1670", "P29_006": "3", "P29_007": "0", "P29_008": "00", "P29_009": null }, "geometry": { "type": "Point", "coordinates": [ 129.754622998493716, 33.783476001845941 ] } },
{ "type": "Feature", "properties": { "P29_001": "42209", "P29_002": "A142210000173", "P29_003": "16011", "P29_004": "対馬市立厳原幼稚園", "P29_005": "長崎県対馬市厳原町日吉238", "P29_006": "3", "P29_007": "0", "P29_008": "00", "P29_009": null }, "geometry": { "type": "Point", "coordinates": [ 129.2903973013469, 34.211083896408709 ] } },
{ "type": "Feature", "properties": { "P29_001": "42209", "P29_002": "A142210000182", "P29_003": "16011", "P29_004": "対馬市立鶏鳴幼稚園", "P29_005": "長崎県対馬市美津島町鶏知乙588-3", "P29_006": "3", "P29_007": "0", "P29_008": "00", "P29_009": null }, "geometry": { "type": "Point", "coordinates": [ 129.315823995252032, 34.270306998811385 ] } },
{ "type": "Feature", "properties": { "P29_001": "42209", "P29_002": "A142210000191", "P29_003": "16011", "P29_004": "対馬市立比田勝こども園", "P29_005": "長崎県対馬市上対馬町比田勝170", "P29_006": "3", "P29_007": "0", "P29_008": "00", "P29_009": null }, "geometry": { "type": "Point", "coordinates": [ 129.461879673107177, 34.653722807171043 ] } },
{ "type": "Feature", "properties": { "P29_001": "42411", "P29_002": "A142210000208", "P29_003": "16011", "P29_004": "新上五島町立青方幼稚園", "P29_005": "長崎県南松浦郡新上五島町青方郷1458-2", "P29_006": "3", "P29_007": "0", "P29_008": "00", "P29_009": null }, "geometry": { "type": "Point", "coordinates": [ 129.072729057533138, 32.98622708506975 ] } },
{ "type": "Feature", "properties": { "P29_001": "42201", "P29_002": "A142210000226", "P29_003": "16011", "P29_004": "長崎市立高島幼稚園", "P29_005": "長崎県長崎市高島町2709-11", "P29_006": "3", "P29_007": "0", "P29_008": "00", "P29_009": null }, "geometry": { "type": "Point", "coordinates": [ 129.757790824686424, 32.662474350500979 ] } },
{ "type": "Feature", "properties": { "P29_001": "42204", "P29_002": "A142210000235", "P29_003": "16011", "P29_004": "諫早市立北諫早幼稚園", "P29_005": "長崎県諫早市泉町25-43", "P29_006": "3", "P29_007": "0", "P29_008": "00", "P29_009": null }, "geometry": { "type": "Point", "coordinates": [ 130.05565600053896, 32.848947997361606 ] } },
{ "type": "Feature", "properties": { "P29_001": "42211", "P29_002": "A142310000019", "P29_003": "16011", "P29_004": "福江幼稚園", "P29_005": "長崎県五島市木場町500-2", "P29_006": "4", "P29_007": "0", "P29_008": "00", "P29_009": null }, "geometry": { "type": "Point", "coordinates": [ 128.837553657546863, 32.694287573498414 ] } },
{ "type": "Feature", "properties": { "P29_001": "42201", "P29_002": "A142310000028", "P29_003": "16011", "P29_004": "長崎女子短期大学付属幼稚園", "P29_005": "長崎県長崎市弥生町19-2", "P29_006": "4", "P29_007": "0", "P29_008": "00", "P29_009": null }, "geometry": { "type": "Point", "coordinates": [ 129.896454395625426, 32.730596074652716 ] } },
{ "type": "Feature", "properties": { "P29_001": "42201", "P29_002": "A142310000046", "P29_003": "16011", "P29_004": "聖母の騎士東長崎幼稚園", "P29_005": "長崎県長崎市田中町366", "P29_006": "4", "P29_007": "0", "P29_008": "00", "P29_009": null }, "geometry": { "type": "Point", "coordinates": [ 129.950054868652728, 32.767580381906384 ] } },
{ "type": "Feature", "properties": { "P29_001": "42201", "P29_002": "A142310000064", "P29_003": "16011", "P29_004": "長崎信愛幼稚園", "P29_005": "長崎県長崎市上野町10-24", "P29_006": "4", "P29_007": "0", "P29_008": "00", "P29_009": null }, "geometry": { "type": "Point", "coordinates": [ 129.868492311317624, 32.77758378966427 ] } },
{ "type": "Feature", "properties": { "P29_001": "42201", "P29_002": "A142310000073", "P29_003": "16011", "P29_004": "滑石中央幼稚園", "P29_005": "長崎県長崎市滑石4-1396-42", "P29_006": "4", "P29_007": "0", "P29_008": "00", "P29_009": null }, "geometry": { "type": "Point", "coordinates": [ 129.825174991764158, 32.803291082534841 ] } },
{ "type": "Feature", "properties": { "P29_001": "42201", "P29_002": "A142310000082", "P29_003": "16011", "P29_004": "大浦信愛幼稚園", "P29_005": "長崎県長崎市小菅町27-2", "P29_006": "4", "P29_007": "0", "P29_008": "00", "P29_009": null }, "geometry": { "type": "Point", "coordinates": [ 129.865532536905533, 32.727658805904902 ] } },
{ "type": "Feature", "properties": { "P29_001": "42201", "P29_002": "A142310000091", "P29_003": "16011", "P29_004": "深堀純心幼稚園", "P29_005": "長崎県長崎市深堀町5-291", "P29_006": "4", "P29_007": "0", "P29_008": "00", "P29_009": null }, "geometry": { "type": "Point", "coordinates": [ 129.821540998729006, 32.685059001963211 ] } },
{ "type": "Feature", "properties": { "P29_001": "42201", "P29_002": "A142310000108", "P29_003": "16011", "P29_004": "光華幼稚園", "P29_005": "長崎県長崎市清水町5-4", "P29_006": "4", "P29_007": "0", "P29_008": "00", "P29_009": null }, "geometry": { "type": "Point", "coordinates": [ 129.860783950030253, 32.785746342377266 ] } },
{ "type": "Feature", "properties": { "P29_001": "42201", "P29_002": "A142310000117", "P29_003": "16011", "P29_004": "晧台寺幼稚園", "P29_005": "長崎県長崎市寺町1", "P29_006": "4", "P29_007": "0", "P29_008": "00", "P29_009": null }, "geometry": { "type": "Point", "coordinates": [ 129.882411501058812, 32.745669274457526 ] } },
{ "type": "Feature", "properties": { "P29_001": "42201", "P29_002": "A142310000126", "P29_003": "16011", "P29_004": "諏訪幼稚園", "P29_005": "長崎県長崎市上西山町18-1", "P29_006": "4", "P29_007": "0", "P29_008": "00", "P29_009": null }, "geometry": { "type": "Point", "coordinates": [ 129.882623998019426, 32.754895995576597 ] } },
{ "type": "Feature", "properties": { "P29_001": "42201", "P29_002": "A142310000135", "P29_003": "16011", "P29_004": "聖アントニオ幼稚園", "P29_005": "長崎県長崎市三原2-23-9", "P29_006": "4", "P29_007": "0", "P29_008": "00", "P29_009": null }, "geometry": { "type": "Point", "coordinates": [ 129.883591648369219, 32.784177494354388 ] } },
{ "type": "Feature", "properties": { "P29_001": "42201", "P29_002": "A142310000153", "P29_003": "16011", "P29_004": "レデンプトール幼稚園", "P29_005": "長崎県長崎市愛宕4-3-2", "P29_006": "4", "P29_007": "0", "P29_008": "00", "P29_009": null }, "geometry": { "type": "Point", "coordinates": [ 129.892897004752626, 32.736197998502874 ] } },
{ "type": "Feature", "properties": { "P29_001": "42201", "P29_002": "A142310000162", "P29_003": "16011", "P29_004": "いなさ幼稚園", "P29_005": "長崎県長崎市江の浦町1-20", "P29_006": "4", "P29_007": "0", "P29_008": "00", "P29_009": null }, "geometry": { "type": "Point", "coordinates": [ 129.862443913993928, 32.750206155438164 ] } },
{ "type": "Feature", "properties": { "P29_001": "42201", "P29_002": "A142310000171", "P29_003": "16011", "P29_004": "住吉幼稚園", "P29_005": "長崎県長崎市千歳町15-19", "P29_006": "4", "P29_007": "0", "P29_008": "00", "P29_009": null }, "geometry": { "type": "Point", "coordinates": [ 129.864355002104276, 32.790531003835895 ] } },
{ "type": "Feature", "properties": { "P29_001": "42201", "P29_002": "A142310000180", "P29_003": "16011", "P29_004": "みどり幼稚園", "P29_005": "長崎県長崎市若竹町51-11", "P29_006": "4", "P29_007": "0", "P29_008": "00", "P29_009": null }, "geometry": { "type": "Point", "coordinates": [ 129.852619996715305, 32.793477003581813 ] } },
{ "type": "Feature", "properties": { "P29_001": "42201", "P29_002": "A142310000199", "P29_003": "16011", "P29_004": "くるみ西幼稚園", "P29_005": "長崎県長崎市大浜町298", "P29_006": "4", "P29_007": "0", "P29_008": "00", "P29_009": null }, "geometry": { "type": "Point", "coordinates": [ 129.830992762614585, 32.74277966520733 ] } },
{ "type": "Feature", "properties": { "P29_001": "42201", "P29_002": "A142310000206", "P29_003": "16011", "P29_004": "大園幼稚園", "P29_005": "長崎県長崎市滑石6-13-7", "P29_006": "4", "P29_007": "0", "P29_008": "00", "P29_009": null }, "geometry": { "type": "Point", "coordinates": [ 129.836531996321639, 32.802190000147377 ] } },
{ "type": "Feature", "properties": { "P29_001": "42202", "P29_002": "A142310000215", "P29_003": "16011", "P29_004": "相浦幼稚園", "P29_005": "長崎県佐世保市上相浦町7-11", "P29_006": "4", "P29_007": "0", "P29_008": "00", "P29_009": null }, "geometry": { "type": "Point", "coordinates": [ 129.669014005293718, 33.194998997286028 ] } },
{ "type": "Feature", "properties": { "P29_001": "42202", "P29_002": "A142310000224", "P29_003": "16011", "P29_004": "アソカ幼稚園", "P29_005": "長崎県佐世保市光月町1-4", "P29_006": "4", "P29_007": "0", "P29_008": "00", "P29_009": null }, "geometry": { "type": "Point", "coordinates": [ 129.723295847163826, 33.171337940462863 ] } },
{ "type": "Feature", "properties": { "P29_001": "42202", "P29_002": "A142310000233", "P29_003": "16011", "P29_004": "アソカ北幼稚園", "P29_005": "長崎県佐世保市田原町203", "P29_006": "4", "P29_007": "0", "P29_008": "00", "P29_009": null }, "geometry": { "type": "Point", "coordinates": [ 129.722833566305127, 33.209617184891243 ] } },
{ "type": "Feature", "properties": { "P29_001": "42202", "P29_002": "A142310000242", "P29_003": "16011", "P29_004": "幼稚園型認定こども園早岐くりのみ幼稚園", "P29_005": "長崎県佐世保市権常寺町1-9-7", "P29_006": "4", "P29_007": "0", "P29_008": "00", "P29_009": null }, "geometry": { "type": "Point", "coordinates": [ 129.801427378618087, 33.132693503647324 ] } },
{ "type": "Feature", "properties": { "P29_001": "42202", "P29_002": "A142310000251", "P29_003": "16011", "P29_004": "黒髪くりのみ幼稚園", "P29_005": "長崎県佐世保市黒髪町598-1", "P29_006": "4", "P29_007": "0", "P29_008": "00", "P29_009": null }, "geometry": { "type": "Point", "coordinates": [ 129.771746709317284, 33.165204378950264 ] } },
{ "type": "Feature", "properties": { "P29_001": "42202", "P29_002": "A142310000260", "P29_003": "16011", "P29_004": "桜の聖母幼稚園", "P29_005": "長崎県佐世保市俵町22-12", "P29_006": "4", "P29_007": "0", "P29_008": "00", "P29_009": null }, "geometry": { "type": "Point", "coordinates": [ 129.718523068822691, 33.188337721641958 ] } },
{ "type": "Feature", "properties": { "P29_001": "42202", "P29_002": "A142310000279", "P29_003": "16011", "P29_004": "広田幼稚園", "P29_005": "長崎県佐世保市広田1-34-52", "P29_006": "4", "P29_007": "0", "P29_008": "00", "P29_009": null }, "geometry": { "type": "Point", "coordinates": [ 129.80372063700915, 33.126787869264895 ] } },
{ "type": "Feature", "properties": { "P29_001": "42202", "P29_002": "A142310000288", "P29_003": "16011", "P29_004": "深信幼稚園", "P29_005": "長崎県佐世保市城間町305-2", "P29_006": "4", "P29_007": "0", "P29_008": "00", "P29_009": null }, "geometry": { "type": "Point", "coordinates": [ 129.813945943955815, 33.089922097235579 ] } },
{ "type": "Feature", "properties": { "P29_001": "42202", "P29_002": "A142310000297", "P29_003": "16011", "P29_004": "松円幼稚園", "P29_005": "長崎県佐世保市松川町1-5", "P29_006": "4", "P29_007": "0", "P29_008": "00", "P29_009": null }, "geometry": { "type": "Point", "coordinates": [ 129.725449620300935, 33.1697166824679 ] } },
{ "type": "Feature", "properties": { "P29_001": "42202", "P29_002": "A142310000304", "P29_003": "16011", "P29_004": "進徳幼稚園", "P29_005": "長崎県佐世保市元町5-24", "P29_006": "4", "P29_007": "0", "P29_008": "00", "P29_009": null }, "geometry": { "type": "Point", "coordinates": [ 129.714767003850966, 33.174567997324729 ] } },
{ "type": "Feature", "properties": { "P29_001": "42202", "P29_002": "A142310000313", "P29_003": "16011", "P29_004": "大野幼稚園", "P29_005": "長崎県佐世保市田原町7-20", "P29_006": "4", "P29_007": "0", "P29_008": "00", "P29_009": null }, "geometry": { "type": "Point", "coordinates": [ 129.724283740951876, 33.209131561188613 ] } },
{ "type": "Feature", "properties": { "P29_001": "42202", "P29_002": "A142310000322", "P29_003": "16011", "P29_004": "潮見幼稚園", "P29_005": "長崎県佐世保市潮見町20-33", "P29_006": "4", "P29_007": "0", "P29_008": "00", "P29_009": null }, "geometry": { "type": "Point", "coordinates": [ 129.730743783691253, 33.162271362682418 ] } },
{ "type": "Feature", "properties": { "P29_001": "42202", "P29_002": "A142310000331", "P29_003": "16011", "P29_004": "早岐幼稚園", "P29_005": "長崎県佐世保市早岐2-29-17", "P29_006": "4", "P29_007": "0", "P29_008": "00", "P29_009": null }, "geometry": { "type": "Point", "coordinates": [ 129.796404004333255, 33.138806997786077 ] } },
{ "type": "Feature", "properties": { "P29_001": "42202", "P29_002": "A142310000340", "P29_003": "16011", "P29_004": "日野幼稚園", "P29_005": "長崎県佐世保市日野町1005", "P29_006": "4", "P29_007": "0", "P29_008": "00", "P29_009": null }, "geometry": { "type": "Point", "coordinates": [ 129.674317691810444, 33.170075677128693 ] } },
{ "type": "Feature", "properties": { "P29_001": "42202", "P29_002": "A142310000359", "P29_003": "16011", "P29_004": "東大野幼稚園", "P29_005": "長崎県佐世保市松原町15", "P29_006": "4", "P29_007": "0", "P29_008": "00", "P29_009": null }, "geometry": { "type": "Point", "coordinates": [ 129.740597499271303, 33.209605766722653 ] } },
{ "type": "Feature", "properties": { "P29_001": "42203", "P29_002": "A142310000368", "P29_003": "16011", "P29_004": "安中幼稚園", "P29_005": "長崎県島原市大下町丙1159", "P29_006": "4", "P29_007": "0", "P29_008": "00", "P29_009": null }, "geometry": { "type": "Point", "coordinates": [ 130.362810001776467, 32.755289999509536 ] } },
{ "type": "Feature", "properties": { "P29_001": "42204", "P29_002": "A142310000377", "P29_003": "16011", "P29_004": "認定こども園鎮西学院幼稚園", "P29_005": "長崎県諫早市西栄田町1212-1", "P29_006": "4", "P29_007": "0", "P29_008": "00", "P29_009": null }, "geometry": { "type": "Point", "coordinates": [ 130.03168626024862, 32.857282739191604 ] } },
{ "type": "Feature", "properties": { "P29_001": "42204", "P29_002": "A142310000386", "P29_003": "16011", "P29_004": "諫早純心幼稚園", "P29_005": "長崎県諫早市天満町32-19", "P29_006": "4", "P29_007": "0", "P29_008": "00", "P29_009": null }, "geometry": { "type": "Point", "coordinates": [ 130.046467003245141, 32.852227997565954 ] } },
{ "type": "Feature", "properties": { "P29_001": "42205", "P29_002": "A142310000395", "P29_003": "16011", "P29_004": "向陽幼稚園", "P29_005": "長崎県大村市西三城町16", "P29_006": "4", "P29_007": "0", "P29_008": "00", "P29_009": null }, "geometry": { "type": "Point", "coordinates": [ 129.960644000250539, 32.914168002828731 ] } },
{ "type": "Feature", "properties": { "P29_001": "42205", "P29_002": "A142310000402", "P29_003": "16011", "P29_004": "長崎星美幼稚園", "P29_005": "長崎県大村市水主町2-609-7", "P29_006": "4", "P29_007": "0", "P29_008": "00", "P29_009": null }, "geometry": { "type": "Point", "coordinates": [ 129.957045999528219, 32.909683000858131 ] } },
{ "type": "Feature", "properties": { "P29_001": "42205", "P29_002": "A142310000411", "P29_003": "16011", "P29_004": "大村聖母幼稚園", "P29_005": "長崎県大村市植松2-722-1", "P29_006": "4", "P29_007": "0", "P29_008": "00", "P29_009": null }, "geometry": { "type": "Point", "coordinates": [ 129.955432953964788, 32.930966456727852 ] } },
{ "type": "Feature", "properties": { "P29_001": "42211", "P29_002": "A142310000420", "P29_003": "16011", "P29_004": "双葉幼稚園", "P29_005": "長崎県五島市末広町2-6", "P29_006": "4", "P29_007": "0", "P29_008": "00", "P29_009": null }, "geometry": { "type": "Point", "coordinates": [ 128.842348663499081, 32.694977268701962 ] } },
{ "type": "Feature", "properties": { "P29_001": "42204", "P29_002": "A142310000439", "P29_003": "16011", "P29_004": "山美幼稚園", "P29_005": "長崎県諫早市多良見町市布2320-76", "P29_006": "4", "P29_007": "0", "P29_008": "00", "P29_009": null }, "geometry": { "type": "Point", "coordinates": [ 129.971025551711108, 32.823622091944237 ] } },
{ "type": "Feature", "properties": { "P29_001": "42308", "P29_002": "A142310000457", "P29_003": "16011", "P29_004": "時津幼稚園", "P29_005": "長崎県西彼杵郡時津町浦郷178-1", "P29_006": "4", "P29_007": "0", "P29_008": "00", "P29_009": null }, "geometry": { "type": "Point", "coordinates": [ 129.845893705675337, 32.828911133178082 ] } },
{ "type": "Feature", "properties": { "P29_001": "42204", "P29_002": "A142310000466", "P29_003": "16011", "P29_004": "認定こども園ふじ幼稚園", "P29_005": "長崎県諫早市飯盛町中山611", "P29_006": "4", "P29_007": "0", "P29_008": "00", "P29_009": null }, "geometry": { "type": "Point", "coordinates": [ 130.024373427552774, 32.783090445323111 ] } },
{ "type": "Feature", "properties": { "P29_001": "42202", "P29_002": "A142310000475", "P29_003": "16011", "P29_004": "潜竜聖母幼稚園", "P29_005": "長崎県佐世保市江迎町田ノ元免503-6", "P29_006": "4", "P29_007": "0", "P29_008": "00", "P29_009": null }, "geometry": { "type": "Point", "coordinates": [ 129.681542326356578, 33.282812926800538 ] } },
{ "type": "Feature", "properties": { "P29_001": "42204", "P29_002": "A142310000484", "P29_003": "16011", "P29_004": "西諫早幼稚園", "P29_005": "長崎県諫早市久山町1110", "P29_006": "4", "P29_007": "0", "P29_008": "00", "P29_009": null }, "geometry": { "type": "Point", "coordinates": [ 129.998566287414945, 32.825575431186067 ] } },
{ "type": "Feature", "properties": { "P29_001": "42308", "P29_002": "A142310000493", "P29_003": "16011", "P29_004": "鳴鼓幼稚園", "P29_005": "長崎県西彼杵郡時津町浜田郷19-1", "P29_006": "4", "P29_007": "0", "P29_008": "00", "P29_009": null }, "geometry": { "type": "Point", "coordinates": [ 129.851391480252033, 32.830137443585272 ] } },
{ "type": "Feature", "properties": { "P29_001": "42201", "P29_002": "A142310000509", "P29_003": "16011", "P29_004": "みのりが丘幼稚園", "P29_005": "長崎県長崎市大手3-11-1", "P29_006": "4", "P29_007": "0", "P29_008": "00", "P29_009": null }, "geometry": { "type": "Point", "coordinates": [ 129.877219186210397, 32.792702505077635 ] } },
{ "type": "Feature", "properties": { "P29_001": "42214", "P29_002": "A142310000518", "P29_003": "16011", "P29_004": "南島原はらじょうこども園", "P29_005": "長崎県南島原市南有馬町乙432", "P29_006": "4", "P29_007": "0", "P29_008": "00", "P29_009": null }, "geometry": { "type": "Point", "coordinates": [ 130.251030111832421, 32.630929345992818 ] } },
{ "type": "Feature", "properties": { "P29_001": "42202", "P29_002": "A142310000527", "P29_003": "16011", "P29_004": "大宮幼稚園", "P29_005": "長崎県佐世保市白岳町148-5", "P29_006": "4", "P29_007": "0", "P29_008": "00", "P29_009": null }, "geometry": { "type": "Point", "coordinates": [ 129.752454151918982, 33.155055996818419 ] } },
{ "type": "Feature", "properties": { "P29_001": "42201", "P29_002": "A142310000536", "P29_003": "16011", "P29_004": "小江原ひかり幼稚園", "P29_005": "長崎県長崎市小江原1-7-7", "P29_006": "4", "P29_007": "0", "P29_008": "00", "P29_009": null }, "geometry": { "type": "Point", "coordinates": [ 129.838474652221066, 32.784897807644214 ] } },
{ "type": "Feature", "properties": { "P29_001": "42201", "P29_002": "A142310000545", "P29_003": "16011", "P29_004": "くるみ北幼稚園", "P29_005": "長崎県長崎市横尾4-1-30", "P29_006": "4", "P29_007": "0", "P29_008": "00", "P29_009": null }, "geometry": { "type": "Point", "coordinates": [ 129.832008996632311, 32.81560799801327 ] } },
{ "type": "Feature", "properties": { "P29_001": "42201", "P29_002": "A142310000554", "P29_003": "16011", "P29_004": "日見幼稚園", "P29_005": "長崎県長崎市網場町432", "P29_006": "4", "P29_007": "0", "P29_008": "00", "P29_009": null }, "geometry": { "type": "Point", "coordinates": [ 129.947091939920284, 32.753216779777333 ] } },
{ "type": "Feature", "properties": { "P29_001": "42201", "P29_002": "A142310000563", "P29_003": "16011", "P29_004": "小ケ倉幼稚園", "P29_005": "長崎県長崎市小ヶ倉町1-570-1", "P29_006": "4", "P29_007": "0", "P29_008": "00", "P29_009": null }, "geometry": { "type": "Point", "coordinates": [ 129.851387287708633, 32.706918379566083 ] } },
{ "type": "Feature", "properties": { "P29_001": "42202", "P29_002": "A142310000572", "P29_003": "16011", "P29_004": "柚木幼稚園", "P29_005": "長崎県佐世保市柚木町2372", "P29_006": "4", "P29_007": "0", "P29_008": "00", "P29_009": null }, "geometry": { "type": "Point", "coordinates": [ 129.767163642597382, 33.210274873059937 ] } },
{ "type": "Feature", "properties": { "P29_001": "42201", "P29_002": "A142310000581", "P29_003": "16011", "P29_004": "矢上幼稚園", "P29_005": "長崎県長崎市平間町398", "P29_006": "4", "P29_007": "0", "P29_008": "00", "P29_009": null }, "geometry": { "type": "Point", "coordinates": [ 129.946121820774437, 32.782499840402991 ] } },
{ "type": "Feature", "properties": { "P29_001": "42201", "P29_002": "A142310000590", "P29_003": "16011", "P29_004": "みやま幼稚園", "P29_005": "長崎県長崎市滑石3-19-50", "P29_006": "4", "P29_007": "0", "P29_008": "00", "P29_009": null }, "geometry": { "type": "Point", "coordinates": [ 129.836100995631909, 32.808788996439716 ] } },
{ "type": "Feature", "properties": { "P29_001": "42202", "P29_002": "A142310000616", "P29_003": "16011", "P29_004": "東相浦幼稚園", "P29_005": "長崎県佐世保市618-13", "P29_006": "4", "P29_007": "0", "P29_008": "00", "P29_009": null }, "geometry": { "type": "Point", "coordinates": [ 129.673640409063978, 33.192155160702178 ] } },
{ "type": "Feature", "properties": { "P29_001": "42211", "P29_002": "A142310000625", "P29_003": "16011", "P29_004": "第二双葉幼稚園", "P29_005": "長崎県五島市籠渕町1918-1", "P29_006": "4", "P29_007": "0", "P29_008": "00", "P29_009": null }, "geometry": { "type": "Point", "coordinates": [ 128.804540934282812, 32.699463692270712 ] } },
{ "type": "Feature", "properties": { "P29_001": "42204", "P29_002": "A142310000634", "P29_003": "16011", "P29_004": "諫早清水幼稚園", "P29_005": "長崎県諫早市白岩町3-2", "P29_006": "4", "P29_007": "0", "P29_008": "00", "P29_009": null }, "geometry": { "type": "Point", "coordinates": [ 130.020667308241372, 32.847050630709724 ] } },
{ "type": "Feature", "properties": { "P29_001": "42207", "P29_002": "A142310000643", "P29_003": "16011", "P29_004": "やよい幼稚園", "P29_005": "長崎県平戸市田平町里免238", "P29_006": "4", "P29_007": "0", "P29_008": "00", "P29_009": null }, "geometry": { "type": "Point", "coordinates": [ 129.591061130561371, 33.358900949902328 ] } },
{ "type": "Feature", "properties": { "P29_001": "42202", "P29_002": "A142310000652", "P29_003": "16011", "P29_004": "花高幼稚園", "P29_005": "長崎県佐世保市花高3-2-7", "P29_006": "4", "P29_007": "0", "P29_008": "00", "P29_009": null }, "geometry": { "type": "Point", "coordinates": [ 129.811454760971287, 33.141199102054152 ] } },
{ "type": "Feature", "properties": { "P29_001": "42204", "P29_002": "A142310000661", "P29_003": "16011", "P29_004": "ばらの幼稚園", "P29_005": "長崎県諫早市山川町24", "P29_006": "4", "P29_007": "0", "P29_008": "00", "P29_009": null }, "geometry": { "type": "Point", "coordinates": [ 130.026247983761124, 32.848980567359668 ] } },
{ "type": "Feature", "properties": { "P29_001": "42204", "P29_002": "A142310000670", "P29_003": "16011", "P29_004": "小栗幼稚園", "P29_005": "長崎県諫早市小川町443", "P29_006": "4", "P29_007": "0", "P29_008": "00", "P29_009": null }, "geometry": { "type": "Point", "coordinates": [ 130.06350796517674, 32.828637105887402 ] } },
{ "type": "Feature", "properties": { "P29_001": "42201", "P29_002": "A142310000689", "P29_003": "16011", "P29_004": "おおとり幼稚園", "P29_005": "長崎県長崎市深堀町1-293-5", "P29_006": "4", "P29_007": "0", "P29_008": "00", "P29_009": null }, "geometry": { "type": "Point", "coordinates": [ 129.827970483862856, 32.683057382464121 ] } },
{ "type": "Feature", "properties": { "P29_001": "42202", "P29_002": "A142310000698", "P29_003": "16011", "P29_004": "菊の香幼稚園", "P29_005": "長崎県佐世保市瀬戸越4-1401", "P29_006": "4", "P29_007": "0", "P29_008": "00", "P29_009": null }, "geometry": { "type": "Point", "coordinates": [ 129.725290843308017, 33.201841480755824 ] } },
{ "type": "Feature", "properties": { "P29_001": "42202", "P29_002": "A142310000705", "P29_003": "16011", "P29_004": "皆瀬幼稚園", "P29_005": "長崎県佐世保市踊石町187-1", "P29_006": "4", "P29_007": "0", "P29_008": "00", "P29_009": null }, "geometry": { "type": "Point", "coordinates": [ 129.69542155332843, 33.217877690343336 ] } },
{ "type": "Feature", "properties": { "P29_001": "42212", "P29_002": "A142310000714", "P29_003": "16011", "P29_004": "西彼中央幼稚園", "P29_005": "長崎県西海市西彼町喰場郷143", "P29_006": "4", "P29_007": "0", "P29_008": "00", "P29_009": null }, "geometry": { "type": "Point", "coordinates": [ 129.771915078778676, 32.985437941385037 ] } },
{ "type": "Feature", "properties": { "P29_001": "42212", "P29_002": "A142310000723", "P29_003": "16011", "P29_004": "天真幼稚園", "P29_005": "長崎県西海市西彼町平山郷2324-15", "P29_006": "4", "P29_007": "0", "P29_008": "00", "P29_009": null }, "geometry": { "type": "Point", "coordinates": [ 129.7316697368164, 33.000849426477892 ] } },
{ "type": "Feature", "properties": { "P29_001": "42201", "P29_002": "A142310000732", "P29_003": "16011", "P29_004": "第二女の都幼稚園", "P29_005": "長崎県長崎市女の都4-12-5", "P29_006": "4", "P29_007": "0", "P29_008": "00", "P29_009": null }, "geometry": { "type": "Point", "coordinates": [ 129.873884134675791, 32.805190502549934 ] } },
{ "type": "Feature", "properties": { "P29_001": "42307", "P29_002": "A142310000741", "P29_003": "16011", "P29_004": "フレンド幼稚園", "P29_005": "長崎県西彼杵郡長与町高田郷940", "P29_006": "4", "P29_007": "0", "P29_008": "00", "P29_009": null }, "geometry": { "type": "Point", "coordinates": [ 129.873001543945492, 32.810510923638212 ] } },
{ "type": "Feature", "properties": { "P29_001": "42308", "P29_002": "A142310000750", "P29_003": "16011", "P29_004": "ひらき幼稚園", "P29_005": "長崎県西彼杵郡時津町久留里郷387", "P29_006": "4", "P29_007": "0", "P29_008": "00", "P29_009": null }, "geometry": { "type": "Point", "coordinates": [ 129.839345357544317, 32.837479829069125 ] } },
{ "type": "Feature", "properties": { "P29_001": "42202", "P29_002": "A142310000769", "P29_003": "16011", "P29_004": "吉井中央幼稚園", "P29_005": "長崎県佐世保市吉井町大渡245-1", "P29_006": "4", "P29_007": "0", "P29_008": "00", "P29_009": null }, "geometry": { "type": "Point", "coordinates": [ 129.692003995416769, 33.268948004931367 ] } },
{ "type": "Feature", "properties": { "P29_001": "42212", "P29_002": "A142310000778", "P29_003": "16011", "P29_004": "あかつき幼稚園", "P29_005": "長崎県西海市西海町木場郷1398", "P29_006": "4", "P29_007": "0", "P29_008": "00", "P29_009": null }, "geometry": { "type": "Point", "coordinates": [ 129.69757399552833, 33.05205299706914 ] } },
{ "type": "Feature", "properties": { "P29_001": "42203", "P29_002": "A142310000787", "P29_003": "16011", "P29_004": "島原活水幼稚園", "P29_005": "長崎県島原市青葉町5436", "P29_006": "4", "P29_007": "0", "P29_008": "00", "P29_009": null }, "geometry": { "type": "Point", "coordinates": [ 130.356552592708113, 32.784154529694781 ] } },
{ "type": "Feature", "properties": { "P29_001": "42202", "P29_002": "A142310000796", "P29_003": "16011", "P29_004": "さつき幼稚園", "P29_005": "長崎県佐世保市大塔町1971", "P29_006": "4", "P29_007": "0", "P29_008": "00", "P29_009": null }, "geometry": { "type": "Point", "coordinates": [ 129.771910646390353, 33.158306732634145 ] } },
{ "type": "Feature", "properties": { "P29_001": "42202", "P29_002": "A142310000803", "P29_003": "16011", "P29_004": "東明幼稚園", "P29_005": "長崎県佐世保市江上町933-1", "P29_006": "4", "P29_007": "0", "P29_008": "00", "P29_009": null }, "geometry": { "type": "Point", "coordinates": [ 129.77018699491569, 33.103286999848606 ] } },
{ "type": "Feature", "properties": { "P29_001": "42202", "P29_002": "A142310000812", "P29_003": "16011", "P29_004": "いしだけ幼稚園", "P29_005": "長崎県佐世保市船越町1892-1", "P29_006": "4", "P29_007": "0", "P29_008": "00", "P29_009": null }, "geometry": { "type": "Point", "coordinates": [ 129.693799453994984, 33.151334844791201 ] } },
{ "type": "Feature", "properties": { "P29_001": "42201", "P29_002": "A142310000821", "P29_003": "16011", "P29_004": "ダイヤランド青い鳥幼稚園", "P29_005": "長崎県長崎市ダイヤランド3-8-5", "P29_006": "4", "P29_007": "0", "P29_008": "00", "P29_009": null }, "geometry": { "type": "Point", "coordinates": [ 129.85559867098064, 32.700155578406232 ] } },
{ "type": "Feature", "properties": { "P29_001": "42201", "P29_002": "A142310000830", "P29_003": "16011", "P29_004": "あやめ東幼稚園", "P29_005": "長崎県長崎市戸石町1476-13", "P29_006": "4", "P29_007": "0", "P29_008": "00", "P29_009": null }, "geometry": { "type": "Point", "coordinates": [ 129.977923111726597, 32.762338537083274 ] } }
]
}
